stall_description,lon,has_run_out,has_nothing,has_caek,has_bbq,ess_stall_url,ess_stall_id,latest_report,first_report,stall_website,lat,stall_name,extra_info,source,has_other,polling_place_type,booth_info,opening_hours,address,premises,polling_place_name,division,state
"sausages, bread rolls, drinks, sauce",116.00989,FALSE,FALSE,FALSE,TRUE,,,2017-03-08 15:51:37.304628+00,2017-03-08 15:51:37.304628+00,,-32.12035,Kelmscott SHS Fundraiser,,,{},Public School,,,"50 Third Avenue, KELMSCOTT WA 6111",Armadale,Kelmscott Senior High School,Armadale,WA
"Hot Dogs, Drinks and Cake Stall",115.75742,FALSE,FALSE,TRUE,TRUE,,,2017-03-08 23:39:16.352646+00,2017-03-08 23:39:16.352646+00,,-31.77422,Beldon PS P&C Sausage Sizzle and Year 6 Cake Stall,,,{},Public School,,,"10 Pacific Way, BELDON WA 6027",Joondalup,Beldon Primary School,Joondalup,WA
,115.78257,FALSE,FALSE,TRUE,TRUE,,,2017-03-10 23:49:23.508642+00,2017-03-09 07:33:59.148952+00,,-32.12115,,,User-Submitted,{},Private School,,,"38 Troode Street, MUNSTER WA 6166",Cockburn,St Jerome's School,Cockburn,WA
"sausages in roll, drinks, cakes, coffee",115.79772,FALSE,FALSE,TRUE,TRUE,,,2017-03-09 07:24:20.998514+00,2017-03-09 07:24:20.998514+00,,-31.99638,sausage sizzle & cake stall,,User-Submitted,"{""has_coffee"":true,""has_vego"":true}",Public School,,,"44 Circe Circle, DALKEITH WA 6009",Nedlands,Dalkeith Primary School,Nedlands,WA
,115.9924,FALSE,FALSE,FALSE,TRUE,,,2017-03-10 23:57:02.046559+00,2017-03-10 23:57:02.046559+00,,-32.1408,,,Twitter,{},Public School,,,"39 Seville Drive, SEVILLE GROVE WA 6112",Armadale,Cecil Andrews Senior High School,Armadale,WA
"Bacon and Egg Burgers, Sausage Sizzle, Drinks, Cake stall for NASHS ASESC P&C",117.86263,FALSE,FALSE,TRUE,TRUE,,,2017-03-10 13:35:02.638602+00,2017-03-09 00:39:41.449971+00,,-34.99085,NASHS ASESC Sausage sizzle,,User-Submitted,"{""has_bacon_and_eggs"":true}",Public School,,,"47 Anson Road, ORANA WA 6330",Albany,North Albany Senior High School,Albany,WA
"Sausages, drinks, cakes, muffins, slice, biscuits",117.867267,FALSE,FALSE,TRUE,TRUE,,,2017-03-10 09:30:07.894868+00,2017-03-10 09:30:07.894868+00,,-35.066645,Little Grove Primary School P&C Sausage Sizzle and Cake Stall,,,{},Public School,,,"33 Gordon Street, LITTLE GROVE WA 6330",Albany,Little Grove Primary School,Albany,WA
,117.8828,FALSE,TRUE,FALSE,FALSE,,,2017-03-11 04:38:46.854605+00,2017-03-11 04:38:46.854605+00,,-35.02377,,,Democracy Sausage Headquarters,{},Senior Citizens Centre,,,"122 Grey Street West, ALBANY WA 6330",Albany,Albany Senior Citizens Centre,Albany,WA
,117.88208,FALSE,FALSE,FALSE,FALSE,,,,,,-35.01046,,,,,Community Hall,,,"77 Sanford Road, CENTENNIAL PARK WA 6330",Albany,Albany PCYC,Albany,WA
,117.89078,FALSE,FALSE,FALSE,FALSE,,,,,,-35.01821,,,,,Public School,,,"Suffolk Street, MOUNT CLARENCE WA 6330",Albany,Albany Primary School,Albany,WA
,117.94353,FALSE,FALSE,FALSE,FALSE,,,,,,-34.99427,,,,,Community Hall,,,"Swarbrick Street, EMU POINT WA 6330",Albany,Albany Sea Rescue Hall,Albany,WA
,115.82798,FALSE,TRUE,FALSE,FALSE,,,2017-03-11 05:23:03.451267+00,2017-03-11 05:23:03.451267+00,,-31.8811,,,,{},Public School,,,"Balcatta Primary School, 387 Main Street, BALCATTA WA 6021",Balcatta,Balcatta Primary School,Balcatta,WA
,117.91597,FALSE,FALSE,FALSE,FALSE,,,,,,-35.02421,,,,,Other,,,"4 Flinders Parade, MIDDLETON BEACH WA 6330",Albany,Albany Surf Life Saving Club,Albany,WA
,119.379078,FALSE,FALSE,FALSE,FALSE,,,,,,-34.392367,,,,,Community Hall,,,"7 Mary Street, BREMER BAY WA 6338",Albany,Bremer Bay Community Resource Centre,Albany,WA
,117.72988,FALSE,FALSE,FALSE,FALSE,,,,,,-35.00847,,,,,Community Hall,,,"Hassell Street, ELLEKER WA 6330",Albany,Elleker Hall,Albany,WA
,117.97064,FALSE,FALSE,FALSE,FALSE,,,,,,-34.94764,,,,,Private School,,,"244 Nanarup Road, NANARUP WA 6330",Albany,Great Southern Grammar,Albany,WA
,118.91785,FALSE,FALSE,FALSE,FALSE,,,,,,-33.942721,,,,,Public School,,,"2 Lancaster Road, JERRAMUNGUP WA 6337",Albany,Jerramungup District High School,Albany,WA
,117.89681,FALSE,FALSE,FALSE,FALSE,,,,,,-34.93391,,,,,Community Hall,,,"1520 Millbrook Road, KING RIVER WA 6330",Albany,King River Hall,Albany,WA
,117.933206,FALSE,FALSE,FALSE,FALSE,,,,,,-34.958217,,,,,Pre-School,,,"34 Rutherford Drive, LOWER KING WA 6330",Albany,Lower King Community Kindergarten,Albany,WA
,118.17303,FALSE,FALSE,FALSE,FALSE,,,,,,-34.83878,,,,,Public School,,,"Mt Manypeaks Primary School, 43731 South Coast Highway, MANYPEAKS WA 6328",Albany,Mt Manypeaks Primary School,Albany,WA
,117.9608,FALSE,FALSE,FALSE,FALSE,,,,,,-34.8333,,,,,Community Hall,,,"2151 Chester Pass Road, NAPIER WA 6330",Albany,Napier Hall,Albany,WA
,117.69151,FALSE,FALSE,FALSE,FALSE,,,,,,-34.88647,,,,,Community Hall,,,"Redmond-Hay River Road, REDMOND WA 6327",Albany,Redmond Hall,Albany,WA
,117.90087,FALSE,FALSE,FALSE,FALSE,,,,,,-35.00519,,,,,Public School,,,"46 Hardie Road, SPENCER PARK WA 6330",Albany,Spencer Park Primary School,Albany,WA
,118.60681,FALSE,FALSE,FALSE,FALSE,,,,,,-34.49298,,,,,Community Hall,,,"49 Windsor Road, WELLSTEAD WA 6328",Albany,Wellstead Community Resource Centre,Albany,WA
,117.87299,FALSE,FALSE,FALSE,FALSE,,,,,,-35.0025,,,,,Public School,,,"26 Beaufort Road, YAKAMIA WA 6330",Albany,Yakamia Primary School,Albany,WA
,117.522286,FALSE,FALSE,FALSE,FALSE,,,,,,-35.012413,,,,,Community Hall,,,"Youngs Siding Hall, Station Street, YOUNGS SIDING WA 6330",Albany,Youngs Siding Hall,Albany,WA
,115.99975,FALSE,FALSE,FALSE,FALSE,,,,,,-32.13903,,,,,Public School,,,"40 Braemore Street, ARMADALE WA 6112",Armadale,Challis Primary School,Armadale,WA
,116.013592,FALSE,FALSE,FALSE,FALSE,,,,,,-32.158423,,,,,Community Hall,,,"12 Coombe Avenue, ARMADALE WA 6112",Armadale,Greendale Centre,Armadale,WA
,117.93083,FALSE,FALSE,TRUE,TRUE,,,2017-03-11 07:34:12.78693+00,2017-03-11 07:34:12.78693+00,,-34.97843,,,Facebook,"{""has_bacon_and_eggs"":true}",Public School,,,"Yatana Road, BAYONET HEAD WA 6330",Albany,Flinders Park Primary School,Albany,WA
"Bacon & egg rolls $5 (limited quantity), sausage sizzle $2.50, drinks $2",116.00533,FALSE,FALSE,FALSE,TRUE,,,2017-03-07 09:28:13.214361+00,2017-03-07 09:28:13.214361+00,,-32.11032,Westfield Park Primary School P&C,,,"{""has_bacon_and_eggs"":true}",Public School,,,"Hemingway Drive, WESTFIELD WA 6111",Armadale,Westfield Park Primary School,Armadale,WA
"Sausages and baked goods, rasing funds for East Hamersley P&C",115.817917,FALSE,FALSE,TRUE,TRUE,,,2017-03-06 13:36:11.712691+00,2017-03-06 13:36:11.712691+00,,-31.847777,East Hamersley PS Sausage Sizzle and Bake Sale,,User-submitted,{},Public School,,,"20 Doon Way, HAMERSLEY WA 6022",Balcatta,East Hamersley Primary School,Balcatta,WA
,115.807644,FALSE,FALSE,TRUE,TRUE,,,2017-03-07 12:53:41.415236+00,2017-03-07 12:53:41.415236+00,,-31.848513,,,Twitter,{},Public School,,,"21 Glendale Avenue, HAMERSLEY WA 6022",Balcatta,Glendale Primary School,Balcatta,WA
,115.845946,FALSE,FALSE,TRUE,TRUE,,,2017-03-10 23:44:32.660349+00,2017-03-10 23:44:32.660349+00,,-32.029842,,,Twitter,{},Public School,,,"29 Queens Road, MOUNT PLEASANT WA 6153",Bateman,Mt Pleasant Primary School,Bateman,WA
,115.81767,FALSE,FALSE,TRUE,TRUE,,,2017-03-08 06:48:27.901642+00,2017-03-08 06:48:27.901642+00,,-32.307676,,,Facebook,{},Public School,,,"214 Fifty Road, BALDIVIS WA 6171",Baldivis,Baldivis Primary School,Baldivis,WA
"Cake Stall, Sausage Sizzle, Bacon & Egg Rolls",115.8441,FALSE,FALSE,TRUE,TRUE,,,2017-03-08 12:23:42.593861+00,2017-03-08 12:23:42.593861+00,,-31.90999,St Denis School,,User-submitted,"{""has_vego"":true,""has_bacon_and_eggs"":true}",Private School,,,"2 Orchid Street, JOONDANNA WA 6060",Balcatta,St Denis School,Balcatta,WA
Eden Hill Primary School P&C Sausage Sizzle & Cake Stall,115.94596,FALSE,FALSE,TRUE,TRUE,,,2017-03-08 13:15:35.1064+00,2017-03-08 13:15:35.1064+00,,-31.893004,Eden Hill Primary School,,User-submitted,{},Public School,,,"83 Ivanhoe Street, EDEN HILL WA 6054",Bassendean,Eden Hill Primary School,Bassendean,WA
,115.82153,FALSE,FALSE,FALSE,TRUE,,,2017-03-08 13:40:40.905697+00,2017-03-08 13:40:40.905697+00,,-31.86981,,,Twitter,{},Public School,,,"5 Rickman Street, BALCATTA WA 6021",Balcatta,Takari Primary School,Balcatta,WA
"Sausage Sizzle, Cake Stall, Soft Drinks and Coffee",115.82626,FALSE,FALSE,TRUE,TRUE,,,2017-03-08 23:42:48.318149+00,2017-03-08 23:42:48.318149+00,,-32.03481,Booragoon Primary P&C,,,"{""has_coffee"":true,""has_vego"":true}",Public School,,,"10 Clements Road, BOORAGOON WA 6154",Bateman,Booragoon Primary School,Bateman,WA
sausage sizzle,115.93609,FALSE,FALSE,FALSE,TRUE,,,2017-03-09 10:17:46.016865+00,2017-03-04 12:30:37.084252+00,,-31.86847,Beechboro Primary School,,User-submitted,{},Public School,,,"20 King Road, BEECHBORO WA 6063",Bassendean,Beechboro Primary School,Bassendean,WA
,115.83894,FALSE,FALSE,TRUE,TRUE,,,2017-03-09 00:47:40.500528+00,2017-03-09 00:47:40.500528+00,http://www.stbenedicts.wa.edu.au/,-32.01863,,,http://www.stbenedicts.wa.edu.au/,{},Community Hall,,,"Alness Street, ARDROSS WA 6153",Bateman,St Benedict's Hall,Bateman,WA
,115.814146,FALSE,FALSE,FALSE,TRUE,,,2017-03-09 01:45:50.916792+00,2017-03-09 01:45:50.916792+00,,-32.354044,,,Twitter,{},Public School,,,"31 Kempeana Way, BALDIVIS WA 6171",Baldivis,Tuart Rise Primary School,Baldivis,WA
Sausage sizzle and drinks,115.8432,FALSE,FALSE,FALSE,TRUE,,,2017-03-10 01:20:39.667049+00,2017-03-10 01:20:39.667049+00,,-32.24695,Bertram Sausage Sizzle,,User-Submitted,{},Public School,,,"Champion Drive, BERTRAM WA 6167",Baldivis,Bertram Primary School,Baldivis,WA
Brekky burgers and Sausage sizzle ,115.93692,FALSE,FALSE,FALSE,TRUE,,,2017-03-10 06:32:38.278872+00,2017-03-08 12:59:28.990213+00,,-31.89768,Anzac Tce Primary School ,,User-submitted,"{""has_bacon_and_eggs"":true}",Public School,,,"176 Anzac Terrace, BASSENDEAN WA 6054",Bassendean,Anzac Terrace Primary School,Bassendean,WA
,115.82533,FALSE,FALSE,TRUE,TRUE,,,2017-03-11 05:05:38.273957+00,2017-03-11 05:05:38.273957+00,,-31.89978,,,,{},Public School,,,"155 Albert Street, OSBORNE PARK WA 6017",Balcatta,Osborne Primary School,Balcatta,WA
,115.8132,FALSE,FALSE,FALSE,TRUE,,,2017-03-11 07:01:25.249717+00,2017-03-11 07:01:25.249717+00,,-31.87603,,,Special agent,{},Public School,,,"31 Poincaire Street, BALCATTA WA 6021",Balcatta,Balcatta Senior High School,Balcatta,WA
,115.82953,FALSE,TRUE,FALSE,FALSE,,,2017-03-11 07:16:23.32106+00,2017-03-11 07:16:23.32106+00,,-31.89629,,,Special agent,{},Community Hall,,,"11 Royal Street, TUART HILL WA 6060",Balcatta,Osborne Park Community Centre,Balcatta,WA
,115.829509,FALSE,FALSE,FALSE,TRUE,,,2017-03-11 08:52:28.255747+00,2017-03-11 08:52:28.255747+00,,-32.04049,,,Instagram,{},Community Hall,,,"37 Marcus Avenue, BOORAGOON WA 6154",Bateman,Len Shearer Pavilion,Bateman,WA
,115.804105,FALSE,FALSE,FALSE,FALSE,,,,,,-31.886713,,,,,Other,,,"Osborne Place, STIRLING WA 6021",Balcatta,Osborne Park Hospital,Balcatta,WA
,115.82991,FALSE,FALSE,FALSE,FALSE,,,,,,-32.336,,,,,Public School,,,"1 Avoca Chase, BALDIVIS WA 6171",Baldivis,Rivergums Primary School,Baldivis,WA
,115.75694,FALSE,FALSE,FALSE,FALSE,,,,,,-32.31479,,,,,Private School,,,"30 Gnangara Drive, WAIKIKI WA 6169",Baldivis,South Coast Baptist College,Baldivis,WA
,115.84137,FALSE,FALSE,FALSE,FALSE,,,,,,-32.25312,,,,,Private School,,,"170 Bertram Road, WELLARD WA 6170",Baldivis,The Kings College,Baldivis,WA
,115.80156,FALSE,FALSE,FALSE,FALSE,,,,,,-32.34053,,,,,Private School,,,"17 Tranby Drive, BALDIVIS WA 6171",Baldivis,Tranby College,Baldivis,WA
,115.762333,FALSE,FALSE,FALSE,FALSE,,,,,,-32.319586,,,,,Public School,,,"Arnside Bend, WAIKIKI WA 6169",Baldivis,Waikiki Primary School,Baldivis,WA
,115.92315,FALSE,FALSE,FALSE,FALSE,,,,,,-31.87121,,,,,Private School,,,"463 Beechboro Road, BEECHBORO WA 6063",Bassendean,John Septimus Roe Anglican Community School,Bassendean,WA
,115.935,FALSE,FALSE,FALSE,FALSE,,,,,,-31.87597,,,,,Public School,,,"368 Benara Road, KIARA WA 6054",Bassendean,Kiara College,Bassendean,WA
,115.95118,FALSE,FALSE,FALSE,FALSE,,,,,,-31.88315,,,,,Public School,,,"48 Rosher Road, LOCKRIDGE WA 6054",Bassendean,Lockridge Primary School,Bassendean,WA
,115.83382,FALSE,FALSE,FALSE,FALSE,,,,,,-32.0274,,,,,Public School,,,"46 Links Road, ARDROSS WA 6153",Bateman,Ardross Primary School,Bateman,WA
,115.8419,FALSE,FALSE,FALSE,FALSE,,,,,,-32.05664,,,,,Private School,,,"Murdoch Drive, BATEMAN WA 6150",Bateman,Corpus Christi College,Bateman,WA
"sausages, drinks and lollies",115.83353,FALSE,FALSE,FALSE,TRUE,,,2017-03-10 23:33:44.033626+00,2017-03-10 23:33:44.033626+00,,-32.05488,sausage sizzle,,User-Submitted,"{""has_bacon_and_eggs"":false,""has_free_text"":""Lollies""}",Public School,,,"70-80 Jackson Avenue, WINTHROP WA 6150",Bateman,Winthrop Primary School,Bateman,WA
"sausage sizzle, lollie bags and cold cans",115.93413,FALSE,FALSE,FALSE,TRUE,,,2017-03-07 09:27:18.519228+00,2017-03-07 09:27:18.519228+00,,-31.95806,Belmont City College Democracy Sausage Sizzle,,,{},Public School,,,"106 Fisher Street, BELMONT WA 6104",Belmont,Belmont City College,Belmont,WA
"Sausages, bread and drinks",115.634011,FALSE,FALSE,FALSE,TRUE,,,2017-03-11 02:21:03.259139+00,2017-03-10 23:32:52.161481+00,,-33.357929,Carey Park Football Netball Club,,User-Submitted,{},Public School,,,"Adam Road, SOUTH BUNBURY WA 6230",Bunbury,Adam Road Primary School,Bunbury,WA
sausage sizzle,115.7702602,FALSE,FALSE,FALSE,TRUE,,,2017-03-09 07:23:16.036912+00,2017-03-09 07:23:16.036912+00,,-32.0363,RICHMOND PRIMARY,,User-Submitted,{},Public School,,,"37 Windsor Road, EAST FREMANTLE WA 6158",Bicton,Richmond Primary School,Bicton,WA
sausage sizzle,115.74892,FALSE,FALSE,FALSE,TRUE,,,2017-03-09 10:15:38.368818+00,2017-03-09 10:15:38.368818+00,,-31.73304,Currambine Primary School,,User-Submitted,"{""has_vego"":true}",Public School,,,"28 Ambassador Drive, CURRAMBINE WA 6028",Burns Beach,Currambine Primary School,Burns Beach,WA
"sausages, bread, onion, drinks fund raiser for dance school",115.72626,FALSE,FALSE,FALSE,TRUE,,,2017-03-11 02:45:31.300268+00,2017-03-11 02:45:31.300268+00,,-31.676238,Desiree Dance academy sizzle,,,{},Public School,,,"16 Walyunga Boulevard, CLARKSON WA 6030",Burns Beach,Clarkson Community High School,Burns Beach,WA
"sauasage in buns, drinks, cake stall, coffee cart",115.80181,FALSE,FALSE,TRUE,TRUE,,,2017-03-09 13:57:18.125583+00,2017-03-09 13:57:18.125583+00,,-32.02521,Attadale Primary School,,User-Submitted,"{""has_coffee"":true}",Public School,,,"47 Wichmann Road, ATTADALE WA 6156",Bicton,Attadale Primary School,Bicton,WA
sausage sizzle,115.9227,FALSE,FALSE,FALSE,TRUE,,,2017-03-10 12:29:33.989277+00,2017-03-09 12:20:24.819604+00,,-31.94426,year 6 fundraiser ,,"Facebook, User-Submitted",{},Public School,,,"213 Great Eastern Highway, BELMONT WA 6104",Belmont,Belmont Primary School,Belmont,WA
"sausages, drinks, cakes and lollies",115.637798,FALSE,FALSE,TRUE,TRUE,,,2017-03-11 02:19:02.020497+00,2017-03-08 14:00:58.753496+00,,-33.333161,BPS fundraiser,,User-submitted,{},Pre-School,,,"Lovegrove Avenue, BUNBURY WA 6230",Bunbury,Bunbury Pre-Primary Centre,Bunbury,WA
,115.65233,FALSE,FALSE,FALSE,TRUE,,,2017-03-11 05:37:36.47759+00,2017-03-11 05:37:36.47759+00,,-33.33466,,,Twitter,{},Public School,,,"Allen Street, EAST BUNBURY WA 6230",Bunbury,Cooinda Primary School,Bunbury,WA
,115.94483,FALSE,FALSE,FALSE,FALSE,,,,,,-31.97187,,,,,Other,,,"CNR Robinson Avenue and Scott Street, CLOVERDALE WA 6105",Belmont,Belmont Park Tennis Club,Belmont,WA
,115.994218,FALSE,FALSE,FALSE,FALSE,,,,,,-31.902572,,,,,Community Hall,,,"Bushmead Road, HAZELMERE WA 6055",Belmont,Hazelmere Community Hall,Belmont,WA
,115.94398,FALSE,FALSE,FALSE,FALSE,,,,,,-31.97528,,,,,Public School,,,"264 Kew Street, KEWDALE WA 6105",Belmont,Kewdale Primary School,Belmont,WA
,115.946244,FALSE,FALSE,FALSE,FALSE,,,,,,-31.948641,,,,,Church,,,"240 Epsom Avenue, BELMONT WA 6104",Belmont,Nations Church,Belmont,WA
,115.91971,FALSE,FALSE,FALSE,FALSE,,,,,,-31.95914,,,,,Public School,,,"99 Acton Avenue, RIVERVALE WA 6103",Belmont,Rivervale Primary School,Belmont,WA
,115.79504,FALSE,FALSE,FALSE,FALSE,,,,,,-32.03439,,,,,Community Hall,,,"Canning Highway, MELVILLE WA 6156",Bicton,Melville Recreation Centre,Bicton,WA
,115.80444,FALSE,FALSE,FALSE,FALSE,,,,,,-32.046,,,,,Public School,,,"18 Potts Street, MELVILLE WA 6156",Bicton,Melville Senior High School,Bicton,WA
,115.77693,FALSE,FALSE,FALSE,FALSE,,,,,,-32.03942,,,,,Church,,,"2 Hammad Street, PALMYRA WA 6157",Bicton,St Peter's Anglican Church Hall,Bicton,WA
,115.768282,FALSE,FALSE,FALSE,FALSE,,,,,,-32.028128,,,,,Community Hall,,,"Wauhop Road, EAST FREMANTLE WA 6158",Bicton,Tricolore Community Centre,Bicton,WA
,115.65088,FALSE,FALSE,FALSE,FALSE,,,,,,-33.349,,,,,Public School,,,"Ecclestone Street , CAREY PARK WA 6230",Bunbury,Carey Park Primary School,Bunbury,WA
,115.622182,FALSE,FALSE,FALSE,FALSE,,,,,,-33.400185,,,,,Public School,,,"14 Hartog Road, DALYELLUP WA 6230",Bunbury,Dalyellup Primary School,Bunbury,WA
,115.62827,FALSE,FALSE,FALSE,FALSE,,,,,,-33.3692,,,,,Public School,,,"Westwood Street, WITHERS WA 6230",Bunbury,Maidens Park Primary School,Bunbury,WA
,115.657596,FALSE,FALSE,FALSE,FALSE,,,,,,-33.358891,,,,,Pre-School,,,"35 Milligan Street, CAREY PARK WA 6230",Bunbury,Milligan House Child Care Centre,Bunbury,WA
,115.68816,FALSE,FALSE,FALSE,FALSE,,,,,,-33.34016,,,,,Public School,,,"123 Jeffrey Road, GLEN IRIS WA 6230",Bunbury,Picton Primary School,Bunbury,WA
,115.6426,FALSE,FALSE,FALSE,FALSE,,,,,,-33.34031,,,,,Pre-School,,,"19 Prosser Street, SOUTH BUNBURY WA 6230",Bunbury,South Bunbury Pre-Primary Centre,Bunbury,WA
,115.64773,FALSE,FALSE,FALSE,FALSE,,,,,,-33.36681,,,,,Other,,,"Bussell Highway, COLLEGE GROVE WA 6230",Bunbury,South West Health Campus,Bunbury,WA
,115.732358,FALSE,FALSE,FALSE,FALSE,,,,,,-31.726537,,,,,Community Hall,,,"14 Mattingsley Approach, BURNS BEACH WA 6028",Burns Beach,Bramston Park Community Centre,Burns Beach,WA
,115.719509,FALSE,FALSE,FALSE,FALSE,,,,,,-31.691082,,,,,Private School,,,"59 Key Largo Drive, CLARKSON WA 6030",Burns Beach,Comet School,Burns Beach,WA
,115.73883,FALSE,FALSE,FALSE,FALSE,,,,,,-31.73087,,,,,Private School,,,"25 Peterborough Drive, CURRAMBINE WA 6028",Burns Beach,Francis Jordan Catholic School,Burns Beach,WA
,115.74209,FALSE,FALSE,FALSE,FALSE,,,,,,-31.71706,,,,,Other,,,"9 MacNaughton Crescent, KINROSS WA 6028",Burns Beach,MacNaughton Clubrooms,Burns Beach,WA
,115.70893,FALSE,FALSE,FALSE,FALSE,,,,,,-31.687,,,,,Public School,,,"90 Rothesay Heights, MINDARIE WA 6030",Burns Beach,Mindarie Primary School,Burns Beach,WA
,115.78549,FALSE,FALSE,TRUE,TRUE,,,2017-03-04 12:48:03.900682+00,2017-03-04 12:48:03.900682+00,,-32.04548,,,Facebook,"{""has_coffee"":true}",Public School,,,"60 McKimmie Road, PALMYRA WA 6157",Bicton,Palmyra Primary School,Bicton,WA
"Sausage sizzle, bacon and egg rolls, home baked goodies, second hand books",115.75865,FALSE,FALSE,TRUE,TRUE,,,2017-03-07 12:52:26.006905+00,2017-03-07 12:52:26.006905+00,,-31.84405,"Marmion Primary School P&C sausage sizzle, cake stall and book sale",,User-submitted,"{""has_vego"":true,""has_bacon_and_eggs"":true}",Public School,,,"7 Cliverton Court, MARMION WA 6020",Carine,Marmion Primary School,Carine,WA
,115.92035,FALSE,FALSE,FALSE,TRUE,,,2017-03-11 05:49:47.147612+00,2017-03-11 05:49:47.147612+00,,-32.03632,,,Twitter,{},Private School,,,"12 Karri Way, FERNDALE WA 6148",Cannington,Fountain College,Cannington,WA
"Snags, cakes, drinks",115.71171,FALSE,FALSE,TRUE,TRUE,,,2017-03-08 12:48:40.381993+00,2017-03-08 12:48:40.381993+00,,-31.6446,East Butler Primary School P & C Association,,User-submitted,{},Public School,,,"7 Amersham Crescent, BUTLER WA 6036",Butler,East Butler Primary School,Butler,WA
Camp fundraising for Beverley DHS,116.92416,FALSE,FALSE,FALSE,TRUE,,,2017-03-09 00:53:03.737192+00,2017-03-09 00:53:03.737192+00,http://beverleydhs.wa.edu.au/uploaded_files/media/fortnightly_newsletter_23_feb_2017.pdf,-32.10917,,,,{},Community Hall,,,"142 Vincent Street, BEVERLEY WA 6304",Central Wheatbelt,Beverley Lesser Hall,Central Wheatbelt,WA
"Sausage Sizzle, Drinks, Slushies, Cake Stall & Lucky Dip to raise funds for our schools shade projects.",115.63198,FALSE,FALSE,TRUE,TRUE,,,2017-03-08 13:16:30.996818+00,2017-03-08 13:16:30.996818+00,,-31.54344,"Snags, Cakes & Slushies!",,User-submitted,{},Public School,,,"100 Linsay Beach Blvd, YANCHEP WA 6035",Butler,Yanchep Beach Primary School,Butler,WA
,115.77537,FALSE,FALSE,FALSE,TRUE,,,2017-03-08 13:39:10.400665+00,2017-03-08 13:39:10.400665+00,,-31.84205,,Farmers market also on site!,Twitter,{},Public School,,,"39 Poynter Drive, DUNCRAIG WA 6023",Carine,Poynter Primary School,Carine,WA
"Cake stall, book stall, kids colouring in station, ",115.78725,FALSE,FALSE,TRUE,TRUE,,,2017-03-09 09:12:30.565785+00,2017-03-09 09:12:30.565785+00,,-31.84117,Davallia Primary School P&C ,,User-Submitted,"{""has_free_text"":""Book stall""}",Public School,,,"6 Juniper Way, DUNCRAIG WA 6023",Carine,Davallia Primary School,Carine,WA
,115.70505,FALSE,FALSE,FALSE,TRUE,,,2017-03-10 23:51:45.22293+00,2017-03-10 23:51:45.22293+00,,-31.67239,,Hosted by Quinns Calisthenics,Twitter,{},Community Hall,,,"17 Tapping Way, QUINNS ROCKS WA 6030",Butler,Gumblossom Community Centre,Butler,WA
its all there,115.77091,FALSE,FALSE,TRUE,TRUE,,,2017-03-10 01:17:31.384649+00,2017-03-09 13:02:54.279568+00,,-31.83227,primary school sausage sizzle and cake,,User-Submitted,"{""has_halal"":true}",Public School,,,"21 Roche Road, DUNCRAIG WA 6023",Carine,Duncraig Primary School,Carine,WA
Sausage sizzle & cake stall,115.77588,FALSE,FALSE,TRUE,TRUE,,,2017-03-11 00:04:13.193826+00,2017-03-07 09:28:30.662548+00,,-31.87046,Karrinyup Primary School,,Twitter,{},Public School,,,"15 Hampton Street, KARRINYUP WA 6018",Carine,Karrinyup Primary School,Carine,WA
,115.59182,FALSE,FALSE,FALSE,TRUE,,,2017-03-11 02:51:47.289121+00,2017-03-11 02:51:47.289121+00,,-31.488789,,,,{},Public School,,,"51 Resolute Drive, TWO ROCKS WA 6037",Butler,Two Rocks Primary School,Butler,WA
,115.93884,FALSE,FALSE,TRUE,TRUE,,,2017-03-11 02:53:07.727343+00,2017-03-11 02:53:07.727343+00,,-32.03749,,,Twitter,{},Public School,,,"34 Brookman Avenue, LANGFORD WA 6147",Cannington,Brookman Primary School,Cannington,WA
"Sausage Sizzle, Cold Drinks plus an appearance by Ethel, The Cream Kombi, serving Coffees and Milkshakes all day",115.71336,TRUE,FALSE,FALSE,TRUE,,,2017-03-11 05:14:02.471066+00,2017-03-08 12:41:23.987485+00,,-31.66817,Primary School Sausage Sizzle,,User-submitted,"{""has_coffee"":true}",Public School,,,"67 Baltimore Parade, MERRIWA WA 6030",Butler,Merriwa Primary School,Butler,WA
,115.91409,FALSE,TRUE,FALSE,FALSE,,,2017-03-11 06:00:09.717828+00,2017-03-11 06:00:09.717828+00,,-32.04267,,,Twitter,{},Public School,,,"9 Zelkova Road, PARKWOOD WA 6147",Cannington,Parkwood Primary School,Cannington,WA
,115.70615,FALSE,FALSE,FALSE,FALSE,,,,,,-31.6772,,,,,Public School,,,"14 Elliston Parade, MINDARIE WA 6030",Burns Beach,Mindarie Senior College,Burns Beach,WA
,115.702576,FALSE,FALSE,FALSE,FALSE,,,,,,-31.645721,,,,,Public School,,,"30 Tollesbury Avenue, BUTLER WA 6036",Butler,Butler Primary School,Butler,WA
,115.962319,FALSE,FALSE,FALSE,FALSE,,,,,,-32.025976,,,,,Church,,,"22 Sydenham Street, BECKENHAM WA 6107",Cannington,Beckenham Community Church,Cannington,WA
,115.72782,FALSE,TRUE,FALSE,FALSE,,,2017-03-11 08:35:20.912924+00,2017-03-11 08:35:20.912924+00,,-31.68481,,,Facebook,{},Public School,,,"15 Somerly Drive, CLARKSON WA 6030",Burns Beach,Somerly Primary School,Burns Beach,WA
,115.930111,FALSE,FALSE,FALSE,FALSE,,,,,,-32.028992,,,,,Church,,,"32 Latham Road, FERNDALE WA 6148",Cannington,Lynwood Christian Church,Cannington,WA
,115.938812,FALSE,FALSE,FALSE,FALSE,,,,,,-32.004726,,,,,Private School,,,"135 Treasure Road, QUEENS PARK WA 6107",Cannington,St Norbert College,Cannington,WA
,115.75481,FALSE,FALSE,FALSE,FALSE,,,,,,-31.855982,,,,,Community Hall,,,"20 Castle Street, NORTH BEACH WA 6020",Carine,North Beach Community Centre,Carine,WA
,116.462336,FALSE,FALSE,FALSE,FALSE,,,,,,-31.747725,,,,,Public School,,,"33 St George Street, BAKERS HILL WA 6562",Central Wheatbelt,Bakers Hill Primary School,Central Wheatbelt,WA
,117.865606,FALSE,FALSE,FALSE,FALSE,,,,,,-30.449822,,,,,Community Hall,,,"11 Rowlands Street, BEACON WA 6472",Central Wheatbelt,Beacon Community Resource Centre,Central Wheatbelt,WA
,117.859244,FALSE,FALSE,FALSE,FALSE,,,,,,-30.8094889,,,,,Community Hall,,,"283 Monger Street, BENCUBBIN WA 6477",Central Wheatbelt,Bencubbin Community Resource Centre,Central Wheatbelt,WA
,116.475155,FALSE,FALSE,FALSE,FALSE,,,,,,-32.802301,,,,,Other,,,"39 Bannister Road, BODDINGTON WA 6390",Central Wheatbelt,Boddington Shire Chambers,Central Wheatbelt,WA
,117.00921,FALSE,FALSE,FALSE,FALSE,,,,,,-32.37238,,,,,Public School,,,"20 Tiller Street, BROOKTON WA 6306",Central Wheatbelt,Brookton District High School,Central Wheatbelt,WA
,117.875984,FALSE,FALSE,FALSE,FALSE,,,,,,-32.331911,,,,,Senior Citizens Centre,,,"8 Lynch Street, CORRIGIN WA 6375",Central Wheatbelt,Corrigin Senior Citizens Centre,Central Wheatbelt,WA
,115.95317,FALSE,TRUE,FALSE,FALSE,,,2017-03-11 02:34:16.107609+00,2017-03-11 02:34:16.107609+00,,-32.00825,,,Twitter,{},Public School,,,"79-93 Gibbs Street, EAST CANNINGTON WA 6107",Cannington,Gibbs Street Primary School,Cannington,WA
,117.4018,FALSE,FALSE,FALSE,TRUE,,,2017-03-08 13:27:50.248712+00,2017-03-08 13:27:50.248712+00,,-32.00997,,,Twitter,{},Community Hall,,,"2 Jennaberring Road, QUAIRADING WA 6383",Central Wheatbelt,Quairading Town Hall,Central Wheatbelt,WA
Sausage Sizzle to raise money for school equipment,116.759925,FALSE,FALSE,FALSE,TRUE,,,2017-03-09 02:04:09.481297+00,2017-03-09 02:04:09.481297+00,,-31.893065,York DHS P&C,,,{},Public School,,,"2 Trews Road, YORK WA 6302",Central Wheatbelt,York District High School,Central Wheatbelt,WA
"Sausages, bread, drinks, cakes, cookies & other treats!",115.76495,FALSE,FALSE,TRUE,TRUE,,,2017-03-10 12:37:29.938408+00,2017-03-09 07:15:41.782152+00,,-31.93599,City Beach Primary Sausage Sizzle & Cake Stall,,User-Submitted,{},Public School,,,"30 Marapana Road, CITY BEACH WA 6015",Churchlands,City Beach Primary School,Churchlands,WA
"Sausage Sizzle, cake stall, drinks",115.80972,FALSE,FALSE,TRUE,TRUE,,,2017-03-10 06:22:30.975775+00,2017-03-09 12:12:20.511789+00,,-31.93462,Wembley Primary School,,"Facebook, User-Submitted",{},Public School,,,"41 Grantham Street, WEMBLEY WA 6014",Churchlands,Wembley Primary School,Churchlands,WA
,117.24454,FALSE,FALSE,FALSE,FALSE,,,,,,-31.65534,,,,,Public School,,,"Cubbine Street, CUNDERDIN WA 6407",Central Wheatbelt,Cunderdin District High School,Central Wheatbelt,WA
,115.82164,FALSE,FALSE,TRUE,TRUE,,,2017-03-11 04:54:06.811467+00,2017-03-11 04:54:06.811467+00,,-31.92438,,,,{},Public School,,,"Dodd Street, WEMBLEY WA 6014",Churchlands,Lake Monger Primary School,Churchlands,WA
,117.03249,FALSE,FALSE,FALSE,FALSE,,,,,,-31.19396,,,,,Community Hall,,,"15 Cottrell Street, DOWERIN WA 6461",Central Wheatbelt,Dowerin Lesser Hall,Central Wheatbelt,WA
,116.826801,FALSE,FALSE,FALSE,FALSE,,,,,,-31.299118,,,,,Community Hall,,,"51 - 53 Railway Terrace, GOOMALLING WA 6460",Central Wheatbelt,Goomalling Community Resource Centre,Central Wheatbelt,WA
,116.795558,FALSE,FALSE,FALSE,FALSE,,,,,,-31.636046,,,,,Community Hall,,,"67 Wilson Street, GRASS VALLEY WA 6403",Central Wheatbelt,Grass Valley Hall,Central Wheatbelt,WA
,116.963939,FALSE,FALSE,FALSE,FALSE,,,,,,-31.9207,,,,,Community Hall,,,"Greenhills Road, GREENHILLS WA 6302",Central Wheatbelt,Greenhills Hall,Central Wheatbelt,WA
,117.72171,FALSE,FALSE,FALSE,FALSE,,,,,,-31.63363,,,,,Community Hall,,,"Lot/56 Massingham Street, KELLERBERRIN WA 6410",Central Wheatbelt,Kellerberrin Memorial Hall,Central Wheatbelt,WA
,118.26443,FALSE,FALSE,FALSE,FALSE,,,,,,-32.49388,,,,,Public School,,,"75 Graham Street, KONDININ WA 6367",Central Wheatbelt,Kondinin Primary School,Central Wheatbelt,WA
,117.48444,FALSE,FALSE,FALSE,FALSE,,,,,,-30.826,,,,,Other,,,"21 Ninghan Road, KOORDA WA 6475",Central Wheatbelt,Koorda Emergency Centre,Central Wheatbelt,WA
,117.01055,FALSE,FALSE,FALSE,FALSE,,,,,,-31.62815,,,,,Public School,,,"14 Knight Street, MECKERING WA 6405",Central Wheatbelt,Meckering Primary School,Central Wheatbelt,WA
,118.2808343,FALSE,FALSE,FALSE,FALSE,,,,,,-31.4819695,,,,,Community Hall,,,"110 Barrack Street, MERREDIN WA 6415",Central Wheatbelt,Merredin Community Resource Centre,Central Wheatbelt,WA
,118.277671,FALSE,FALSE,FALSE,FALSE,,,,,,-31.485621,,,,,Senior Citizens Centre,,,"15 French Avenue, MERREDIN WA 6415",Central Wheatbelt,Merredin Senior Centre,Central Wheatbelt,WA
,118.20748,FALSE,FALSE,FALSE,FALSE,,,,,,-30.91595,,,,,Other,,,"15 Maddock Street, MUKINBUDIN WA 6479",Central Wheatbelt,Mukinbudin Shire Chambers,Central Wheatbelt,WA
,118.39134,FALSE,FALSE,FALSE,FALSE,,,,,,-32.06311,,,,,Public School,,,"7 Ada Street, NAREMBEEN WA 6369",Central Wheatbelt,Narembeen District High School,Central Wheatbelt,WA
,116.669392,FALSE,FALSE,FALSE,FALSE,,,,,,-31.655863,,,,,Community Hall,,,"265 Fitzgerald Street, NORTHAM WA 6401",Central Wheatbelt,Northam Memorial Hall,Central Wheatbelt,WA
,118.101059,FALSE,FALSE,FALSE,FALSE,,,,,,-31.18759,,,,,Public School,,,"Danberrin Road, NUNGARIN WA 6490",Central Wheatbelt,Nungarin Primary School,Central Wheatbelt,WA
,117.08428,FALSE,FALSE,FALSE,FALSE,,,,,,-32.53476,,,,,Community Hall,,,"20 Parade Street, PINGELLY WA 6308",Central Wheatbelt,Pingelly Town Hall,Central Wheatbelt,WA
,119.328169,FALSE,FALSE,FALSE,FALSE,,,,,,-31.231243,,,,,Community Hall,,,"Antares Street, SOUTHERN CROSS WA 6426",Central Wheatbelt,Southern Cross Community Centre,Central Wheatbelt,WA
,117.4840623,FALSE,FALSE,FALSE,FALSE,,,,,,-31.6414415,,,,,Community Hall,,,"1 Donnan Street, TAMMIN WA 6409",Central Wheatbelt,Tammin Lesser Hall,Central Wheatbelt,WA
,116.672868,FALSE,FALSE,FALSE,FALSE,,,,,,-32.677287,,,,,Public School,,,"2 Watts Street, WANDERING WA 6308",Central Wheatbelt,Wandering Primary School,Central Wheatbelt,WA
,118.69695,FALSE,FALSE,FALSE,FALSE,,,,,,-31.30224,,,,,Other,,,"41 Wolfram Street, WESTONIA WA 6423",Central Wheatbelt,Westonia Shire Office,Central Wheatbelt,WA
,116.71624,FALSE,FALSE,FALSE,FALSE,,,,,,-30.89305,,,,,Community Hall,,,"The Station, Lot/1 Wongan Road, WONGAN HILLS WA 6603",Central Wheatbelt,Wongan Hills Community Resource Centre,Central Wheatbelt,WA
,116.382921,FALSE,FALSE,FALSE,FALSE,,,,,,-31.761234,,,,,Public School,,,"Boronia Avenue, WUNDOWIE WA 6560",Central Wheatbelt,Wundowie Primary School,Central Wheatbelt,WA
,117.37947,FALSE,FALSE,FALSE,FALSE,,,,,,-31.17983,,,,,Community Hall,,,"Lot/5700 Railway Tce, WYALKATCHEM WA 6485",Central Wheatbelt,Wyalkatchem Community Resource Centre,Central Wheatbelt,WA
,115.76243,FALSE,FALSE,FALSE,FALSE,,,,,,-31.92549,,,,,Public School,,,"2 Catesby Street, CITY BEACH WA 6015",Churchlands,Kapinara Primary School,Churchlands,WA
cake stall to fund school p&c,115.801567,FALSE,FALSE,TRUE,FALSE,,,2017-03-10 06:24:00.136688+00,2017-03-09 12:28:38.835199+00,,-31.939071,Kindy cake stall,,"Facebook, User-Submitted",{},Pre-School,,,"Birkdale Street, FLOREAT WA 6014",Churchlands,Floreat Primary - Early Education Centre,Churchlands,WA
"Sausage Sizzle, Drinks and sweet treats",115.79767,FALSE,FALSE,TRUE,TRUE,,,2017-03-08 13:07:49.080022+00,2017-03-08 13:07:49.080022+00,,-32.12909,South Coogee Primary School,,User-submitted,{},Public School,,,"40 Ivankovich Avenue, BEELIAR WA 6164",Cockburn,South Coogee Primary School,Cockburn,WA
,115.78965,FALSE,FALSE,FALSE,TRUE,,,2017-03-09 00:55:01.239661+00,2017-03-09 00:55:01.239661+00,,-31.91029,,,http://woodlandsps.wa.edu.au/pc-events/,{},Public School,,,"7 Bentwood Avenue, WOODLANDS WA 6018",Churchlands,Woodlands Primary School,Churchlands,WA
"bacon&egg rolls, sausage sizzle, bake sale, coffee van, cold drinks, freshly squeezed orange juice, raffles",115.78898,FALSE,FALSE,TRUE,TRUE,,,2017-03-09 11:04:43.252761+00,2017-03-09 11:04:43.252761+00,,-32.11146,Newton Primary School,,User-Submitted,"{""has_coffee"":true,""has_bacon_and_eggs"":true,""has_free_text"":""Freshly-squeezed orange juice, Raffles""}",Public School,,,"4 Marvell Avenue, SPEARWOOD WA 6163",Cockburn,Newton Primary School,Cockburn,WA
Sausages and soft drinks to fund Theatre Extension ,115.699838,FALSE,FALSE,FALSE,TRUE,,,2017-03-10 12:31:07.805404+00,2017-03-10 12:31:07.805404+00,,-33.312771,Bunbury Repertory Club,,User-Submitted,{},Community Hall,,,"Pratt Road, EATON WA 6232",Collie-Preston,Eaton Hall,Collie-Preston,WA
bacon and egg roll sausage and onion roll bake stall and drinks,115.81949,FALSE,FALSE,TRUE,TRUE,,,2017-03-10 14:14:12.215556+00,2017-03-10 14:14:12.215556+00,,-32.11967,yangebup primary school,,User-Submitted,"{""has_bacon_and_eggs"":true}",Public School,,,"55 Moorhen Drive, YANGEBUP WA 6164",Cockburn,Yangebup Primary School,Cockburn,WA
,115.755708,FALSE,TRUE,FALSE,FALSE,,,2017-03-11 03:52:52.406212+00,2017-03-11 03:52:52.406212+00,,-31.993707,,,,{},Community Hall,,,"109 Broome Street, COTTESLOE WA 6011",Cottesloe,Cottesloe Civic Centre Lesser Hall,Cottesloe,WA
,115.84643,FALSE,FALSE,TRUE,TRUE,,,2017-03-11 00:27:41.152023+00,2017-03-11 00:21:46.193457+00,,-32.138897,,,Twitter,"{""has_bacon_and_eggs"":true}",Public School,,,"53 Baningan Avenue, SUCCESS WA 6164",Cockburn,Jandakot Primary School,Cockburn,WA
Sausage Sizzle,115.84964,TRUE,FALSE,FALSE,TRUE,,,2017-03-11 07:18:17.152113+00,2017-03-09 07:19:08.606606+00,,-32.15304,Success Primary School,,User-Submitted,{},Public School,,,"390 Wentworth Parade, SUCCESS WA 6164",Cockburn,Success Primary School,Cockburn,WA
,115.81509,FALSE,FALSE,FALSE,FALSE,,,,,,-31.9356,,,,,Church,,,"63 Nanson Street, WEMBLEY WA 6014",Churchlands,WestCity Church - Wembley,Churchlands,WA
,115.77172,FALSE,FALSE,FALSE,FALSE,,,,,,-32.12648,,,,,Public School,,,"22 Mayor Road, COOGEE WA 6166",Cockburn,Coogee Primary School,Cockburn,WA
,115.82614,FALSE,FALSE,FALSE,FALSE,,,,,,-32.12409,,,,,Private School,,,"340 Yangebup Road, YANGEBUP WA 6164",Cockburn,Mater Christi Catholic Primary School,Cockburn,WA
,115.776769,FALSE,FALSE,FALSE,FALSE,,,,,,-32.11016,,,,,Church,,,"15 Mell Road, SPEARWOOD WA 6163",Cockburn,St Michael Church,Cockburn,WA
,116.09857,FALSE,FALSE,FALSE,FALSE,,,,,,-33.335871,,,,,Public School,,,"25 Cameron Street, ALLANSON WA 6225",Collie-Preston,Allanson Primary School,Collie-Preston,WA
,115.982159,FALSE,FALSE,FALSE,FALSE,,,,,,-33.786805,,,,,Public School,,,"Steere Street, BALINGUP WA 6253",Collie-Preston,Balingup Primary School,Collie-Preston,WA
,115.73001,FALSE,FALSE,FALSE,FALSE,,,,,,-33.48606,,,,,Public School,,,"45 Thomas Street, BOYANUP WA 6237",Collie-Preston,Boyanup Primary School,Collie-Preston,WA
,115.562782,FALSE,FALSE,FALSE,FALSE,,,,,,-33.553736,,,,,Community Hall,,,"35 Forrest Road, CAPEL WA 6271",Collie-Preston,Capel Community Centre,Collie-Preston,WA
,115.711,FALSE,FALSE,FALSE,FALSE,,,,,,-33.3085,,,,,Public School,,,"Lucy Victoria Avenue , CLIFTON PARK WA 6233",Collie-Preston,Clifton Park Primary School,Collie-Preston,WA
,116.15671,FALSE,FALSE,FALSE,FALSE,,,,,,-33.3628,,,,,Public School,,,"Wittenoom Street, COLLIE WA 6225",Collie-Preston,Collie Senior High School,Collie-Preston,WA
,115.757028,FALSE,FALSE,FALSE,FALSE,,,,,,-33.398483,,,,,Community Hall,,,"19 Ferguson Road, DARDANUP WA 6236",Collie-Preston,Dardanup Hall,Collie-Preston,WA
,115.823174,FALSE,FALSE,FALSE,FALSE,,,,,,-33.575945,,,,,Community Hall,,,"1 Bentley Street, DONNYBROOK WA 6239",Collie-Preston,Donnybrook Soldiers Memorial Hall,Collie-Preston,WA
,115.72104,FALSE,FALSE,FALSE,FALSE,,,,,,-33.31865,,,,,Public School,,,"20 Recreation Drive, EATON WA 6232",Collie-Preston,Eaton Community College,Collie-Preston,WA
,115.837585,FALSE,FALSE,FALSE,FALSE,,,,,,-33.431638,,,,,Community Hall,,,"Ferguson Road, FERGUSON WA 6236",Collie-Preston,Ferguson Hall,Collie-Preston,WA
,115.641645,FALSE,FALSE,FALSE,FALSE,,,,,,-33.409916,,,,,Community Hall,,,"40 Hasties Road, GELORUP WA 6230",Collie-Preston,Gelorup Community Centre,Collie-Preston,WA
,115.893,FALSE,FALSE,FALSE,FALSE,,,,,,-33.7058,,,,,Community Hall,,,"South Western Hwy, KIRUP WA 6251",Collie-Preston,Kirup Hall,Collie-Preston,WA
,116.151999,FALSE,FALSE,FALSE,FALSE,,,,,,-33.35859,,,,,Senior Citizens Centre,,,"99 Forrest Street, COLLIE WA 6225",Collie-Preston,Margaretta Wilson Centre,Collie-Preston,WA
,116.161387,FALSE,FALSE,FALSE,FALSE,,,,,,-33.34303,,,,,Community Hall,,,"Princep Street, COLLIE WA 6225",Collie-Preston,North Collie Hall,Collie-Preston,WA
,116.139232,FALSE,FALSE,FALSE,FALSE,,,,,,-33.366243,,,,,Public School,,,"Porter Street, COLLIE WA 6225",Collie-Preston,Wilson Park Primary School,Collie-Preston,WA
,116.007369,FALSE,FALSE,FALSE,FALSE,,,,,,-33.537189,,,,,Community Hall,,,"5 Yabberup Road, LOWDEN WA 6240",Collie-Preston,Yabberup Hall,Collie-Preston,WA
,115.763146,FALSE,FALSE,FALSE,FALSE,,,,,,-32.011826,,,,,Public School,,,"91 Victoria Street, MOSMAN PARK WA 6012",Cottesloe,Mosman Park Primary School,Cottesloe,WA
,115.783112,FALSE,FALSE,FALSE,FALSE,,,,,,-31.968405,,,,,Public School,,,"103 Alfred Road, MOUNT CLAREMONT WA 6010",Cottesloe,Mount Claremont Primary School,Cottesloe,WA
"bacon and egg rolls, sausage sizzle, drinks",115.99967,FALSE,FALSE,FALSE,TRUE,,,2017-03-08 12:31:28.767799+00,2017-03-08 12:31:28.767799+00,http://www.dawsonparkps.wa.edu.au/,-31.97835,Dawson Park Primary Sausage sizzle,,User-submitted,"{""has_bacon_and_eggs"":true}",Public School,,,"120 Bougainvillea Avenue, FORRESTFIELD WA 6058",Forrestfield,Dawson Park Primary School,Forrestfield,WA
"Sausages, drinks, cupcakes, dad jokes",116.00824,FALSE,FALSE,TRUE,TRUE,,,2017-03-08 23:32:26.941007+00,2017-03-08 23:32:26.941007+00,,-31.99081,Forrestfield Primary School,,,"{""has_vego"":true,""has_halal"":true}",Public School,,,"45 Sussex Road, FORRESTFIELD WA 6058",Forrestfield,Forrestfield Primary School,Forrestfield,WA
"Cakes, Bacon and Egg Burgers Sausage sizzle!!!",116.02152,FALSE,FALSE,TRUE,TRUE,,,2017-03-10 01:18:16.227609+00,2017-03-10 01:18:16.227609+00,,-32.109033,Clifton Hills Primary School,,User-Submitted,"{""has_bacon_and_eggs"":true}",Public School,,,"50 Connell Avenue, KELMSCOTT WA 6111",Darling Range,Clifton Hills Primary School,Darling Range,WA
Sausages and beverages ,115.979064,FALSE,FALSE,FALSE,TRUE,,,2017-03-09 00:57:13.567188+00,2017-03-09 00:57:13.567188+00,,-32.215274,West Byford Primary School ,,,{},Public School,,,"101 Kardan Boulevard, BYFORD WA 6122",Darling Range,West Byford Primary School,Darling Range,WA
Sausage Sizzle and Cold Drinks,115.703856,FALSE,FALSE,FALSE,TRUE,,,2017-03-10 01:16:27.010963+00,2017-03-08 12:49:54.099476+00,,-32.542691,Sausage Sizzle,,User-submitted,{},Public School,,,"12 Brigadoon Close, HALLS HEAD WA 6210",Dawesville,Glencoe Primary School,Dawesville,WA
Cake Stall and Coffee Van,116.0027906,FALSE,FALSE,TRUE,FALSE,,,2017-03-09 15:56:17.854227+00,2017-03-09 12:15:41.206415+00,,-31.94029682,High Wycombe Primary P&C,,Facebook,"{""has_coffee"":true,""has_vego"":true}",Public School,,,"60 Newburn Road, HIGH WYCOMBE WA 6057",Forrestfield,High Wycombe Primary School,Forrestfield,WA
Sausage Sizzle and Cake Stall,115.759048,FALSE,FALSE,TRUE,TRUE,,,2017-03-10 07:50:31.374754+00,2017-03-10 07:50:31.374754+00,,-32.069074,Beaconsfield Primary School,,User-Submitted,{},Public School,,,"5 Hale Street, BEACONSFIELD WA 6162",Fremantle,Beaconsfield Primary School,Fremantle,WA
,115.73561,FALSE,FALSE,FALSE,TRUE,,,2017-03-10 23:56:49.721106+00,2017-03-10 23:56:49.721106+00,,-32.54182,,,,{},Public School,,,"64 Gillark Street, DUDLEY PARK WA 6210",Dawesville,Dudley Park Primary School,Dawesville,WA
,115.693747,FALSE,FALSE,TRUE,TRUE,,,2017-03-11 01:15:35.435197+00,2017-03-11 01:15:35.435197+00,,-32.539634,,,,{},Church,,,"240 McLarty Road, HALLS HEAD WA 6210",Dawesville,Metro Church Hall,Dawesville,WA
,116.069288,FALSE,FALSE,FALSE,TRUE,,,2017-03-11 02:09:11.997644+00,2017-03-11 02:09:11.997644+00,,-32.112463,,,Twitter,{},Community Hall,,,"44 Jarrah Road, ROLEYSTONE WA 6111",Darling Range,Roleystone Hall,Darling Range,WA
,115.91778,FALSE,TRUE,FALSE,FALSE,,,2017-03-11 04:19:03.187423+00,2017-03-11 04:19:03.187423+00,,-32.19056,,,,{},Community Hall,,,"Foxton Drive, OAKFORD WA 6121",Darling Range,Oakford Community Hall,Darling Range,WA
,115.661045,FALSE,FALSE,FALSE,TRUE,,,2017-03-11 04:57:10.198535+00,2017-03-11 04:57:10.198535+00,,-32.579044,,,,{},Other,,,"49 Lynda Street, FALCON WA 6210",Dawesville,Falcon Reserve Football Pavilion,Dawesville,WA
,115.77325,FALSE,FALSE,FALSE,FALSE,,,,,,-32.020387,,,,,Private School,,,"McCabe Street, MOSMAN PARK WA 6012",Cottesloe,Saint Hilda's Anglican School for Girls - Chidley Campus,Cottesloe,WA
,116.02618,FALSE,FALSE,FALSE,FALSE,,,,,,-32.14763,,,,,Public School,,,"1 Carradine Road, ARMADALE WA 6112","Darling Range, Armadale",Armadale Primary School,"Darling Range, Armadale",WA
,116.058597,FALSE,FALSE,FALSE,FALSE,,,,,,-32.193118,,,,,Community Hall,,,"Admiral Road, BEDFORDALE WA 6112",Darling Range,Bedfordale District Hall,Darling Range,WA
,116.062471,FALSE,FALSE,FALSE,FALSE,,,,,,-32.337721,,,,,Community Hall,,,"Munro Street, JARRAHDALE WA 6124",Darling Range,Bruno Gianetti Hall,Darling Range,WA
,115.872383,FALSE,FALSE,FALSE,FALSE,,,,,,-32.255845,,,,,Other,,,"Cnr Mortimer and Barker Road, WELLARD WA 6170",Darling Range,Kwinana South Bush Fire Brigade,Darling Range,WA
,116.165493,FALSE,FALSE,FALSE,FALSE,,,,,,-31.903308,,,,,Community Hall,,,"Cnr Jacoby and Nichol Streets, MUNDARING WA 6073",Darling Range,Mundaring Hall,Darling Range,WA
,115.985171,FALSE,FALSE,FALSE,FALSE,,,,,,-32.290688,,,,,Public School,,,"Livesey Street, MUNDIJONG WA 6123",Darling Range,Mundijong Primary School,Darling Range,WA
,116.131555,FALSE,FALSE,FALSE,FALSE,,,,,,-32.034876,,,,,Public School,,,"241 Pickering Brook Road, PICKERING BROOK WA 6076",Darling Range,Pickering Brook Primary School,Darling Range,WA
,116.00053,FALSE,FALSE,FALSE,FALSE,,,,,,-32.22554,,,,,Community Hall,,,"Mead Street, BYFORD WA 6122",Darling Range,Serpentine Jarrahdale Community Recreation Centre,Darling Range,WA
,116.009357,FALSE,TRUE,FALSE,FALSE,,,2017-03-11 05:59:11.256804+00,2017-03-11 05:59:11.256804+00,,-32.220643,,,Twitter,{},Community Hall,,,"9 Clifton Street, BYFORD WA 6122",Darling Range,Byford Hall,Darling Range,WA
,115.69552,FALSE,FALSE,FALSE,FALSE,,,,,,-32.55072,,,,,Public School,,,"21 Oleander Place, HALLS HEAD WA 6210",Dawesville,Halls Head Primary School,Dawesville,WA
,115.70755,FALSE,FALSE,FALSE,FALSE,,,,,,-32.52247,,,,,Other,,,"Mary Street, HALLS HEAD WA 6210",Dawesville,Mandurah Yacht Club,Dawesville,WA
,115.63044,FALSE,FALSE,FALSE,FALSE,,,,,,-32.62423,,,,,Public School,,,"15 Ocean Road, DAWESVILLE WA 6211",Dawesville,Ocean Road Primary School,Dawesville,WA
,115.67874,FALSE,FALSE,FALSE,FALSE,,,,,,-32.5641,,,,,Public School,,,"38 Karon Vista, HALLS HEAD WA 6210",Dawesville,South Halls Head Primary School,Dawesville,WA
,115.64265,FALSE,FALSE,FALSE,FALSE,,,,,,-32.609868,,,,,Community Hall,,,"Estuary Road, DAWESVILLE WA 6210",Dawesville,Southern Estuary Progress Association Hall,Dawesville,WA
,116.009668,FALSE,FALSE,FALSE,FALSE,,,,,,-31.97593,,,,,Other,,,"117 Berkshire Road, FORRESTFIELD WA 6058",Forrestfield,Darling Range Sports College,Forrestfield,WA
,115.980327,FALSE,FALSE,FALSE,FALSE,,,,,,-32.032309,,,,,Public School,,,"96 Kenwick Road, KENWICK WA 6107",Forrestfield,East Kenwick Primary School,Forrestfield,WA
,114.635649,FALSE,FALSE,FALSE,TRUE,,,2017-03-05 13:46:33.29785+00,2017-03-05 13:46:33.29785+00,,-28.816933,,,Twitter,{},Public School,,,"Lot/475 Ajax Drive, WANDINA WA 6530",Geraldton,Wandina Primary School,Geraldton,WA
,115.75961,FALSE,FALSE,TRUE,TRUE,,,2017-03-11 02:25:40.72341+00,2017-03-11 01:30:40.297194+00,,-32.04824,,,Twitter,"{""has_free_text"":""Iced tea, biscuits""}",Public School,,,"8 Forrest Street, EAST FREMANTLE WA 6158",Fremantle,East Fremantle Primary School,Fremantle,WA
"Cake Stall, Cold Drinks, Sausage in Bread",114.637503,FALSE,FALSE,TRUE,TRUE,,,2017-03-08 12:28:39.128096+00,2017-03-08 12:28:39.128096+00,,-28.718264,Waggrakine Primary School P&C ,,User-submitted,"{""has_halal"":true}",Public School,,,"9 Hall Road, WAGGRAKINE WA 6530",Geraldton,Waggrakine Primary School,Geraldton,WA
"Sausage sizzle, cold drinks, bake stall",115.85322,FALSE,FALSE,TRUE,TRUE,,,2017-03-08 13:11:12.75812+00,2017-03-08 13:11:12.75812+00,,-31.84076,Roseworth P&C,,User-submitted,{},Public School,,,"30 Stebbing Way, GIRRAWHEEN WA 6064",Girrawheen,Roseworth Primary School,Girrawheen,WA
Sausage sizzle & drinks,115.84383,FALSE,FALSE,FALSE,TRUE,,,2017-03-09 02:27:13.470027+00,2017-03-09 02:27:13.470027+00,,-31.80856,ASHDALE PRIMARY P&C,,,"{""has_halal"":true}",Public School,,,"51 Ashdale Boulevard, DARCH WA 6065",Girrawheen,Ashdale Primary School,Girrawheen,WA
"We are selling bacon & egg sandwiches, sausage sizzle, cake stall and have a coffee van. We will also have some tunes going, to lessen the boredom of queuing!",115.78954,FALSE,FALSE,TRUE,TRUE,,,2017-03-10 09:22:52.878869+00,2017-03-09 03:43:25.428813+00,,-32.07695,East Hamilton Hill Primary P&C,,User-Submitted,"{""has_coffee"":true,""has_bacon_and_eggs"":true}",Public School,,,"27 Bradbury Road, HAMILTON HILL WA 6163",Fremantle,East Hamilton Hill Primary School,Fremantle,WA
"Awesome sausage sizzle, cold drinks and sweet treats at the cake stall",114.608055,FALSE,FALSE,TRUE,TRUE,,,2017-03-09 12:29:02.950579+00,2017-03-09 12:29:02.950579+00,facebook.com/geraldton.primarypc,-28.778895,Geraldton Primary School P&C Sausage sizzle & Cake Stall,,User-Submitted,{},Public School,,,"75 Fitzgerald Street, GERALDTON WA 6530",Geraldton,Geraldton Primary School,Geraldton,WA
"Sausage sizzle, drinks and a cake stall",115.82705,FALSE,FALSE,TRUE,TRUE,,,2017-03-11 02:45:42.263068+00,2017-03-11 02:45:42.263068+00,,-31.82843,Marangaroo P&C,,,{},Public School,,,"88 Giralt Road, MARANGAROO WA 6064",Girrawheen,Marangaroo Primary School,Girrawheen,WA
Sausage and cool drink ,115.86241,FALSE,FALSE,FALSE,TRUE,,,2017-03-10 12:37:04.191788+00,2017-03-09 12:29:11.651186+00,,-31.80382,Landsdale Primary School P&C,,"Facebook, User-Submitted",{},Public School,,,"The Broadview , LANDSDALE WA 6065",Girrawheen,Landsdale Primary School,Girrawheen,WA
Sizzle and cakes available all proceeds go to the school.,114.62875,FALSE,FALSE,TRUE,TRUE,,,2017-03-11 01:44:46.662814+00,2017-03-11 01:44:46.662814+00,,-28.80037,Mt Tarcoola Primary School,,,{},Public School,,,"57 Forden Street, MOUNT TARCOOLA WA 6530",Geraldton,Mt Tarcoola Primary School,Geraldton,WA
"sausage sizzle, bacon and egg rolls and cake stall",115.773357,FALSE,FALSE,TRUE,TRUE,,,2017-03-11 01:59:30.068761+00,2017-03-07 09:25:47.021646+00,,-32.072125,CtK p&f sausage sizzle,,,{},Private School,,,"87 York Street, BEACONSFIELD WA 6162",Fremantle,Christ The King School,Fremantle,WA
,115.84409,FALSE,FALSE,FALSE,TRUE,,,2017-03-11 02:56:19.065332+00,2017-03-11 02:56:19.065332+00,,-31.82784,,,,{},Public School,,,"27 Rawlinson Drive, MARANGAROO WA 6064",Girrawheen,Rawlinson Primary School,Girrawheen,WA
,115.75286,FALSE,TRUE,FALSE,FALSE,,,2017-03-11 08:32:13.405766+00,2017-03-11 08:32:13.405766+00,,-31.812603,,,Twitter,{},Public School,,,"75 Lymburner Drive, HILLARYS WA 6025",Hillarys,Hillarys Primary School,Hillarys,WA
,115.74774,FALSE,FALSE,FALSE,FALSE,,,,,,-32.05423,,,,,Community Hall,,,"William Street, FREMANTLE WA 6160",Fremantle,Fremantle Town Hall,Fremantle,WA
,115.539865,FALSE,FALSE,FALSE,FALSE,,,,,,-31.99744,,,,,Community Hall,,,"Brand Way, ROTTNEST ISLAND WA 6161",Fremantle,Rottnest Island Picture Hall,Fremantle,WA
,114.6227,FALSE,FALSE,FALSE,FALSE,,,,,,-28.73974,,,,,Public School,,,"18 Mitchell Street, BLUFF POINT WA 6530",Geraldton,Bluff Point Primary School,Geraldton,WA
,114.6418661,FALSE,FALSE,FALSE,FALSE,,,,,,-28.8607589,,,,,Other,,,"5 Hull Street, CAPE BURNEY WA 6532",Geraldton,Cape Burney Volunteer Fire Brigade,Geraldton,WA
,114.61173,FALSE,FALSE,FALSE,FALSE,,,,,,-28.77988,,,,,Public School,,,"Carson Terrace, GERALDTON WA 6530",Geraldton,Geraldton Senior College,Geraldton,WA
,114.612293,FALSE,FALSE,FALSE,FALSE,,,,,,-28.670393,,,,,Community Hall,,,"62 Whitehill Road, DRUMMOND COVE WA 6532",Geraldton,John Batten Drummond Cove Community Centre,Geraldton,WA
,114.73445,FALSE,FALSE,FALSE,FALSE,,,,,,-28.78212,,,,,Other,,,"Geraldton-Mt Magnet Road, MOONYOONOOKA WA 6532",Geraldton,Moonyoonooka Polocrosse Club,Geraldton,WA
,114.61404,FALSE,FALSE,FALSE,FALSE,,,,,,-28.77575,,,,,Senior Citizens Centre,,,"88 Durlacher Street, GERALDTON WA 6530",Geraldton,Queen Elizabeth II Centre,Geraldton,WA
,114.62863,FALSE,FALSE,FALSE,FALSE,,,,,,-28.77983,,,,,Public School,,,"4 Cassia Street, RANGEWAY WA 6530",Geraldton,Rangeway Primary School,Geraldton,WA
,114.629961,FALSE,FALSE,FALSE,FALSE,,,,,,-28.74152,,,,,Other,,,"75 Mitchell Street, SPALDING WA 6530",Geraldton,Spalding Family Centre,Geraldton,WA
,114.799222,FALSE,FALSE,FALSE,FALSE,,,,,,-28.939752,,,,,Public School,,,"8 Evans Road, WALKAWAY WA 6528",Geraldton,Walkaway Primary School,Geraldton,WA
,115.83706,FALSE,FALSE,FALSE,FALSE,,,,,,-31.83985,,,,,Public School,,,"23 Arnos Way, GIRRAWHEEN WA 6064",Girrawheen,Hudson Park Primary School,Girrawheen,WA
,115.839525,FALSE,FALSE,FALSE,FALSE,,,,,,-31.830601,,,,,Other,,,"46 Highclere Boulevard, MARANGAROO WA 6064",Girrawheen,Marangaroo Family Centre,Girrawheen,WA
,115.76071,FALSE,FALSE,FALSE,FALSE,,,,,,-31.83104,,,,,Public School,,,"14 Elfreda Avenue, SORRENTO WA 6020",Hillarys,Sorrento Primary School,Hillarys,WA
"Sausages, Barista Coffee, homemade cakes",115.753066,FALSE,FALSE,TRUE,TRUE,,,2017-02-22 00:00:48.333329+00,2017-02-22 00:00:48.333329+00,,-32.058634,Election Day Sizzle,,,"{""has_coffee"":true}",Public School,,,"1 Brennan Street, FREMANTLE WA 6160",Fremantle,Fremantle Primary School,Fremantle,WA
"Sausage Sizzle, Cake Stall, Cold Drinks, Coffee Van, Raffle",116.07019,FALSE,FALSE,TRUE,TRUE,,,2017-03-10 01:54:50.832089+00,2017-03-09 09:15:50.774152+00,,-31.99878,Walliston Primary School,,User-Submitted,"{""has_coffee"":true,""has_free_text"":""Raffle""}",Public School,,,"11 Dianella Road, WALLISTON WA 6076",Kalamunda,Walliston Primary School,Kalamunda,WA
Sausage Sizzle and drinks available,121.45171,FALSE,FALSE,FALSE,TRUE,,,2017-03-07 09:28:22.443659+00,2017-03-07 09:28:22.443659+00,www.hannansps.wa.edu.au,-30.72423,Hannans PS Year 6 Camp Fundraising Sausage Sizzle,,,{},Public School,,,"2 A Nankiville Road , KALGOORLIE WA 6430",Kalgoorlie,Hannans Primary School,Kalgoorlie,WA
"Sausage sizzle, cake stall",116.045722,FALSE,FALSE,TRUE,TRUE,,,2017-03-07 09:27:56.534148+00,2017-03-04 12:36:53.590523+00,,-32.004457,Lesmurdie Primary School,,Word of mouth,{},Public School,,,"49 Sanderson Road, LESMURDIE WA 6076",Kalamunda,Lesmurdie Primary School,Kalamunda,WA
Sausage Sizzle and Bacon and egg rolls,115.93703,FALSE,FALSE,FALSE,TRUE,,,2017-03-08 12:49:17.863758+00,2017-03-08 12:49:17.863758+00,,-32.12481,Harrisdale Primary School Year 6 Camp ,,User-submitted,"{""has_bacon_and_eggs"":true}",Public School,,,"7 Fairhaven Ave, HARRISDALE WA 6112",Jandakot,Harrisdale Primary School,Jandakot,WA
"Sausages, bacon and egg rolls, drinks to fundraise for the school",115.78043,FALSE,FALSE,FALSE,TRUE,,,2017-03-08 23:30:46.220302+00,2017-03-08 23:30:46.220302+00,,-31.76341,Edgewater Primary School ,,,"{""has_halal"":true,""has_bacon_and_eggs"":true}",Public School,,,"76 Treetop Avenue, EDGEWATER WA 6027",Joondalup,Edgewater Primary School,Joondalup,WA
yummy cakes and snags,116.078555,FALSE,FALSE,TRUE,TRUE,,,2017-03-08 13:04:30.743254+00,2017-03-08 13:04:30.743254+00,,-31.920129,sausage sizzle and cake stall,,User-submitted,"{""has_vego"":true}",Public School,,,"2-14 Amherst Avenue, DARLINGTON WA 6070",Kalamunda,Darlington Primary School,Kalamunda,WA
,115.74402,FALSE,FALSE,FALSE,TRUE,,,2017-03-09 00:49:25.816725+00,2017-03-09 00:49:25.816725+00,,-31.79994,,,http://www.melvilleps.wa.edu.au/useruploads/files/09.02.17.pdf,{},Public School,,,"St Marks Drive, HILLARYS WA 6025",Hillarys,St Mark's Anglican Community School,Hillarys,WA
,115.77342,FALSE,TRUE,FALSE,FALSE,,,2017-03-11 05:57:14.420283+00,2017-03-11 05:57:14.420283+00,,-31.7436,,,Twitter,{},Other,,,"102 Boas Avenue, JOONDALUP WA 6027",Joondalup,Joondalup Public Library,Joondalup,WA
EVERETTS SAUSAGES AND DRINKS. FUNDRAISER FOR LUAN WRIGHT 17 YEAR OLD FORMER KALGOORLIE STUDENT FIGHTING FOR LIFE,121.47602,FALSE,FALSE,FALSE,TRUE,,,2017-03-10 06:02:26.863476+00,2017-03-10 06:02:26.863476+00,https://chuffed.org/project/luan-wrights-fight-for-survival,-30.7504,LUAN WRIGHT FUNDRAISER,,User-Submitted,{},Other,,,"35 Cheetham Street, KALGOORLIE WA 6430",Kalgoorlie,Goldfields Arts Centre,Kalgoorlie,WA
Sausages in a bun and Egg n Bacon Rolls,115.91252,FALSE,FALSE,FALSE,TRUE,,,2017-03-10 23:33:09.815597+00,2017-03-08 13:42:01.91372+00,,-32.07606,Caning Vale Primary School P&C,,"Twitter, User-Submitted","{""has_bacon_and_eggs"":true}",Public School,,,"The Ramble , CANNING VALE WA 6155",Jandakot,Canning Vale Primary School,Jandakot,WA
,115.91625,FALSE,TRUE,FALSE,FALSE,,,2017-03-11 03:21:07.16557+00,2017-03-11 03:21:07.16557+00,,-32.12697,,,,{},Public School,,,"440 Wright Road, PIARA WATERS WA 6112",Jandakot,Piara Waters Primary School,Jandakot,WA
,115.734821,FALSE,TRUE,FALSE,FALSE,,,2017-03-11 03:33:57.193394+00,2017-03-11 03:33:57.193394+00,,-31.751077,,,,{},Community Hall,,,"66 Constellation Drive, OCEAN REEF WA 6027",Joondalup,Beaumaris Community Centre,Joondalup,WA
Sausage Sizzle and drinks,116.100898,FALSE,FALSE,TRUE,TRUE,,,2017-03-11 04:06:36.325085+00,2017-03-08 23:41:14.420393+00,,-31.915557,Ride to Conquer Cancer Sausage Sizzle,,Facebook,"{""has_free_text"":""Burgers""}",Public School,,,"Tillbrook Street, GLEN FORREST WA 6071",Kalamunda,Glen Forrest Primary School,Kalamunda,WA
,115.7389,FALSE,TRUE,FALSE,FALSE,,,2017-03-11 05:29:20.417178+00,2017-03-11 05:29:20.417178+00,,-31.75974,,,,{},Public School,,,"21 Venturi Drive, OCEAN REEF WA 6027",Joondalup,Ocean Reef Senior High School,Joondalup,WA
,115.910891,FALSE,FALSE,FALSE,FALSE,,,,,,-32.093748,,,,,Public School,,,"Orkney Crescent, CANNING VALE WA 6155",Jandakot,Ranford Primary School,Jandakot,WA
,115.76863,FALSE,FALSE,FALSE,FALSE,,,,,,-31.76668,,,,,Public School,,,"Littorina Avenue, HEATHRIDGE WA 6027",Joondalup,Eddystone Primary School,Joondalup,WA
"sausages, egg/bacon roll, cookies",115.74872,TRUE,FALSE,TRUE,TRUE,,,2017-03-11 07:44:44.622451+00,2017-03-08 12:38:51.250138+00,,-31.77744,Mullaloo Heights Primary Schl ,,User-submitted,"{""has_bacon_and_eggs"":true}",Public School,,,"27 Charonia Road, MULLALOO WA 6027",Joondalup,Mullaloo Heights Primary School,Joondalup,WA
,115.750666,FALSE,TRUE,FALSE,FALSE,,,2017-03-11 05:46:45.509854+00,2017-03-11 05:46:45.509854+00,,-31.792983,,,Twitter,{},Public School,,,"31 Bridgewater Drive, KALLAROO WA 6025",Hillarys,Springfield Primary School,Hillarys,WA
,116.090593,FALSE,FALSE,FALSE,FALSE,,,,,,-32.019397,,,,,Community Hall,,,"152 Carmel Road, CARMEL WA 6076",Kalamunda,Carmel Hall,Kalamunda,WA
,116.0560662,FALSE,FALSE,FALSE,FALSE,,,,,,-31.95611254,,,,,Public School,,,"24 Ledger Road, GOOSEBERRY HILL WA 6076",Kalamunda,Gooseberry Hill Primary School,Kalamunda,WA
,116.05147,FALSE,FALSE,FALSE,FALSE,,,,,,-31.9714,,,,,Public School,,,"32 Heath Road, KALAMUNDA WA 6076",Kalamunda,Kalamunda Primary School,Kalamunda,WA
,116.056834,FALSE,FALSE,FALSE,FALSE,,,,,,-31.97735,,,,,Public School,,,"12 Cotherstone Road, KALAMUNDA WA 6076",Kalamunda,Kalamunda Senior High School,Kalamunda,WA
,116.137556,FALSE,FALSE,FALSE,FALSE,,,,,,-31.906247,,,,,Community Hall,,,"3060 Strettle Road, MAHOGANY CREEK WA 6072",Kalamunda,Mahogany Creek Hall,Kalamunda,WA
,116.1723326,FALSE,FALSE,FALSE,FALSE,,,,,,-31.89503577,,,,,Public School,,,"855 Stevens Street, MUNDARING WA 6073",Kalamunda,Mundaring Primary School,Kalamunda,WA
,116.167886,FALSE,FALSE,FALSE,FALSE,,,,,,-31.870171,,,,,Pre-School,,,"Bentley Street, STONEVILLE WA 6081",Kalamunda,Stoneville Playgroup Centre,Kalamunda,WA
,121.164179,FALSE,FALSE,FALSE,FALSE,,,,,,-30.953704,,,,,Community Hall,,,"69 Sylvester Street, COOLGARDIE WA 6429",Kalgoorlie,Coolgardie Community Recreation Centre,Kalgoorlie,WA
,121.47896,FALSE,FALSE,FALSE,FALSE,,,,,,-30.7636,,,,,Private School,,,"Lionel Street, SOUTH KALGOORLIE WA 6430",Kalgoorlie,John Paul College,Kalgoorlie,WA
,121.46941,FALSE,FALSE,FALSE,FALSE,,,,,,-30.74063,,,,,Other,,,"Piccadilly Street, PICCADILLY WA 6430",Kalgoorlie,Kalgoorlie Health Campus,Kalgoorlie,WA
"Sausage Sizzle & Cake Stall, drinks, to raise funds for the Year 6 Geaduation",115.861362,FALSE,FALSE,TRUE,TRUE,,,2017-03-08 13:03:10.906006+00,2017-03-08 13:03:10.906006+00,,-32.17272,Primary School Sausage Sizzle & Cake Stall,,User-submitted,{},Public School,,,"85 Camden Boulevard, AUBIN GROVE WA 6164",Kwinana,Aubin Grove Primary School,Kwinana,WA
"sausage sizzle and drinks, Year 6 cake stall, 2nd hand book sale and meat raffle",115.808459,FALSE,FALSE,TRUE,TRUE,,,2017-03-10 09:31:02.886063+00,2017-03-10 09:31:02.886063+00,,-31.828768,"Greenwood Primary school sausage sizzle and cake stall, Merivale Way, Greenwood",,,{},Public School,,,"12 Merivale Way, GREENWOOD WA 6024",Kingsley,Greenwood Primary School,Kingsley,WA
"sausage sizzle, cake stall, drinks",115.803967,FALSE,FALSE,TRUE,TRUE,,,2017-03-08 12:16:12.58536+00,2017-03-08 12:16:12.58536+00,,-32.260218,Leda Primary School,,User-submitted,{},Public School,,,"1-25 Feilman Drive, LEDA WA 6170","Kwinana, Baldivis",Leda Primary School,"Kwinana, Baldivis",WA
scrummy sausages and ice cold drinks all funds to support our P&C,115.78801,FALSE,FALSE,FALSE,TRUE,,,2017-03-08 12:21:38.008144+00,2017-03-08 12:21:38.008144+00,,-31.78425,North Woodvale P&C Primary School ,,User-submitted,{},Public School,,,"4 Chichester Drive, WOODVALE WA 6026",Kingsley,North Woodvale Primary School,Kingsley,WA
sausage sizzle and cake stall ,115.826167,FALSE,FALSE,TRUE,TRUE,,,2017-03-09 12:22:15.167046+00,2017-03-07 09:26:02.652276+00,,-32.252542,St Vincents primary school ,,,{},Private School,,,"114 Parmelia Avenue, PARMELIA WA 6167",Kwinana,St Vincent's School,Kwinana,WA
"Breakfast bacon and egg rolls, sausage sizzle",121.460163,FALSE,FALSE,FALSE,TRUE,,,2017-03-08 13:21:52.243481+00,2017-03-08 13:21:52.243481+00,,-30.738687,Sausage sizzle!,,User-submitted,"{""has_bacon_and_eggs"":true}",Public School,,,"Campbell Street, LAMINGTON WA 6430",Kalgoorlie,North Kalgoorlie Primary School,Kalgoorlie,WA
Hotdogs & Drinks,122.216806,FALSE,FALSE,FALSE,TRUE,,,2017-03-08 13:24:26.239705+00,2017-03-08 13:24:26.239705+00,,-17.959338,Cable Beach Primary P&C,,User-submitted,{},Public School,,,"Dakas Street, CABLE BEACH WA 6726",Kimberley,Cable Beach Primary School,Kimberley,WA
coffee van,115.740307,FALSE,FALSE,TRUE,FALSE,,,2017-03-08 15:52:35.914495+00,2017-03-08 15:52:35.914495+00,,-32.532313,Coffee Van,,,"{""has_coffee"":true}",Community Hall,,,"41 Dower Street, MANDURAH WA 6210",Mandurah,Billy Dower Youth Centre,Mandurah,WA
Garage Sale and Sausage Sizzle Fundraiser at Kununurra Neighbourhood House!,128.73836,FALSE,FALSE,FALSE,TRUE,,,2017-03-10 23:08:00.335436+00,2017-03-10 23:08:00.335436+00,www.kununurraneighbourhoodhouse.org,-15.77314,Kununurra Neighbourhood House Garage Sale and Ssausage Sizzle!,,,{},Community Hall,,,"Coolibah Drive, KUNUNURRA WA 6743",Kimberley,Kununurra Leisure Centre,Kimberley,WA
,122.238564,FALSE,FALSE,TRUE,TRUE,,,2017-03-11 02:02:28.656689+00,2017-03-11 02:02:28.656689+00,,-17.96071,,,,{},Public School,,,"Weld Street, BROOME WA 6725",Kimberley,Broome Primary School,Kimberley,WA
,115.81067,FALSE,TRUE,FALSE,FALSE,,,2017-03-11 02:51:23.764469+00,2017-03-11 02:51:23.764469+00,,-32.24559,,,Facebook,{},Public School,,,"Chilcott Street, CALISTA WA 6167",Kwinana,Calista Primary School,Kwinana,WA
,115.8907,FALSE,FALSE,FALSE,TRUE,,,2017-03-11 03:03:04.401203+00,2017-03-11 03:03:04.401203+00,,-32.19395,,,,{},Community Hall,,,"302 De Haer Road, WANDI WA 6167",Kwinana,Wandi Pavilion,Kwinana,WA
,128.120831,FALSE,FALSE,FALSE,TRUE,,,2017-03-11 03:26:13.874253+00,2017-03-11 03:26:13.874253+00,,-15.488004,,,Instagram,{},Public School,,,"Coverley Street, WYNDHAM WA 6740",Kimberley,Wyndham District High School,Kimberley,WA
,115.8092,FALSE,TRUE,FALSE,FALSE,,,2017-03-11 05:10:02.181101+00,2017-03-11 05:07:14.429275+00,,-31.84174,,,Democracy Sausage family member,"{""has_free_text"":""Cactus and jam stall""}",Church,,,"77 Ellersdale Avenue, WARWICK WA 6024",Kingsley,Church of Christ Warwick,Kingsley,WA
,121.665594,FALSE,FALSE,FALSE,FALSE,,,,,,-31.203832,,,,,Public School,,,"8 Larkin Street, KAMBALDA WA 6442",Kalgoorlie,Kambalda Primary School,Kalgoorlie,WA
,121.61909,FALSE,FALSE,FALSE,FALSE,,,,,,-31.20617,,,,,Public School,,,"Salmon Gums Road, KAMBALDA WEST WA 6442",Kalgoorlie,Kambalda West District High School,Kalgoorlie,WA
,122.4038,FALSE,FALSE,FALSE,FALSE,,,,,,-28.6273,,,,,Public School,,,"Lancefield Street, LAVERTON WA 6440",Kalgoorlie,Laverton Primary School,Kalgoorlie,WA
,120.69769,FALSE,FALSE,FALSE,FALSE,,,,,,-27.91328,,,,,Community Hall,,,"Link Road, LEINSTER WA 6437",Kalgoorlie,Leinster Community Hall,Kalgoorlie,WA
,121.331093,FALSE,FALSE,FALSE,FALSE,,,,,,-28.881999,,,,,Community Hall,,,"Tower Street, LEONORA WA 6438",Kalgoorlie,Leonora Recreation Centre,Kalgoorlie,WA
,121.77913,FALSE,FALSE,FALSE,FALSE,,,,,,-32.19884,,,,,Community Hall,,,"88-92 Prinsep Street, NORSEMAN WA 6443",Kalgoorlie,Norseman Town Hall,Kalgoorlie,WA
,123.633547,FALSE,FALSE,FALSE,FALSE,,,,,,-17.308145,,,,,Public School,,,"10 Anderson Street, DERBY WA 6728",Kimberley,Derby District High School,Kimberley,WA
,125.564315,FALSE,FALSE,FALSE,FALSE,,,,,,-18.188082,,,,,Public School,,,"Flynn Drive, FITZROY CROSSING WA 6765",Kimberley,Fitzroy Valley District High School,Kimberley,WA
,127.668935,FALSE,FALSE,FALSE,FALSE,,,,,,-18.225227,,,,,Public School,,,"Thomas Street, HALLS CREEK WA 6770",Kimberley,Halls Creek District High School,Kimberley,WA
,122.23247,FALSE,FALSE,FALSE,FALSE,,,,,,-17.93988,,,,,Public School,,,"Spoonbill Avenue, BROOME WA 6725",Kimberley,Roebuck Bay Primary School,Kimberley,WA
,128.217013,FALSE,FALSE,FALSE,FALSE,,,,,,-17.016648,,,,,Other,,,"Warmun Aboriginal Community, WARMUN WA 6743",Kimberley,Warmun Council Chambers,Kimberley,WA
,115.80048,FALSE,FALSE,FALSE,FALSE,,,,,,-31.7913,,,,,Public School,,,"110 Woodvale Drive, WOODVALE WA 6026",Kingsley,Woodvale Secondary College,Kingsley,WA
,115.86853,FALSE,FALSE,FALSE,FALSE,,,,,,-32.13562,,,,,Public School,,,"160 Lydon Boulevard, ATWELL WA 6164",Kwinana,Atwell Primary School,Kwinana,WA
,115.804771,FALSE,FALSE,FALSE,FALSE,,,,,,-32.235927,,,,,Public School,,,"Medina Avenue, MEDINA WA 6167",Kwinana,Medina Primary School,Kwinana,WA
,115.74697,FALSE,FALSE,FALSE,FALSE,,,,,,-32.51048,,,,,Private School,,,"22-34 Gordon Road, MANDURAH WA 6210",Mandurah,Assumption Catholic Primary School,Mandurah,WA
,115.84478,FALSE,FALSE,TRUE,TRUE,,,2017-03-06 03:51:20.52718+00,2017-03-06 03:51:20.52718+00,,-31.86099,,Book sale,Facebook,{},Public School,,,"11 Fernhurst Crescent, BALGA WA 6061",Mirrabooka,Balga Primary School,Mirrabooka,WA
$2.50 sausage sizzle $1.50 drinks,116.027655,FALSE,FALSE,FALSE,TRUE,,,2017-03-09 11:02:55.780952+00,2017-03-09 11:02:55.780952+00,,-31.899515,Midland Scout Troop,,User-Submitted,{},Community Hall,,,"10 Helen Street, BELLEVUE WA 6056",Midland,Bellevue Hall,Midland,WA
,115.83413,FALSE,FALSE,FALSE,TRUE,,,2017-03-06 03:53:36.199823+00,2017-03-06 03:53:36.199823+00,,-31.85243,,,Facebook,"{""has_coffee"":true}",Public School,,,"30 Maitland Road, BALGA WA 6061",Mirrabooka,North Balga Primary School,Mirrabooka,WA
,115.838157,FALSE,FALSE,FALSE,TRUE,,,2017-03-06 03:54:17.68223+00,2017-03-06 03:54:17.68223+00,,-31.869631,,,Facebook,{},Public School,,,"30 Marloo Road, WESTMINSTER WA 6061",Mirrabooka,Westminster Primary School,Mirrabooka,WA
"Sausage sizzle, cakes and drinks",115.886426,FALSE,FALSE,TRUE,TRUE,,,2017-03-08 12:22:50.58661+00,2017-03-08 12:22:50.58661+00,,-31.917235,Inglewood Primary School,,User-submitted,{},Public School,,,"34 Normanby Road, INGLEWOOD WA 6052",Maylands,Inglewood Primary School,Maylands,WA
Sausage sizzle and Drinks,115.909042,FALSE,FALSE,FALSE,TRUE,,,2017-03-08 12:50:44.577272+00,2017-03-08 12:50:44.577272+00,,-31.902103,Embleton Primary School P&C,,User-submitted,{},Public School,,,"51 Priestly Street, EMBLETON WA 6062",Maylands,Embleton Primary School,Maylands,WA
"Sausage Sizzles, Bacon and Egg Rolls, Softdrinks",115.97201,FALSE,FALSE,FALSE,TRUE,,,2017-03-08 13:59:45.587975+00,2017-03-08 13:59:45.587975+00,,-31.89957,Guildford Primary School Sausage Sizzle,,User-submitted,"{""has_bacon_and_eggs"":true}",Community Hall,,,"Cnr James and Meadows Street, GUILDFORD WA 6055",Midland,Guildford Town Hall,Midland,WA
,115.88183,FALSE,FALSE,FALSE,TRUE,,,2017-03-09 00:43:45.168438+00,2017-03-06 03:52:40.458903+00,,-31.82825,,Car wash,Facebook,{},Public School,,,"Illawarra Crescent North, BALLAJURA WA 6066",Mirrabooka,Illawarra Primary School,Mirrabooka,WA
,115.896252,FALSE,TRUE,FALSE,FALSE,,,2017-03-11 02:55:27.686922+00,2017-03-11 02:55:27.686922+00,,-31.915035,,,,{},Community Hall,,,"Birkett Street, BAYSWATER WA 6053",Maylands,Beaufort Park Hall,Maylands,WA
"sausage sizzle ($3.50), sausage + drink ($5.00), egg & bacon burger ($4.50), egg & bacon burger + drink ($6.50)",115.903887,FALSE,FALSE,FALSE,TRUE,,,2017-03-09 13:58:12.697354+00,2017-03-09 13:58:12.697354+00,http://www.mpps.wa.edu.au/upload/pages/publications2017/issue-no-3-3-march-2017.pdf,-31.932301,P&C Sausage Sizzle,,User-Submitted,"{""has_bacon_and_eggs"":true}",Public School,,,"60 Kelvin Street, MAYLANDS WA 6051",Maylands,Maylands Peninsula Primary School,Maylands,WA
,115.873457,FALSE,FALSE,FALSE,TRUE,,,2017-03-11 00:15:06.127696+00,2017-03-11 00:15:06.127696+00,,-31.85771,,,Twitter,{},Public School,,,"9 Threadleaf Way, MIRRABOOKA WA 6061",Mirrabooka,Boyare Primary School,Mirrabooka,WA
Sausage Sizzle,116.035028,FALSE,FALSE,TRUE,TRUE,,,2017-03-10 07:49:58.614115+00,2017-03-10 05:55:27.193349+00,https://www.facebook.com/194809957283506/photos/a.212433788854456.43781.194809957283506/1229323367165488/?type=3&theater,-31.868617,Swan Suburbs Rugby,,User-Submitted,{},Community Hall,,,"Jecks Place, STRATTON WA 6056",Midland,Stratton Community Hall,Midland,WA
,115.7609,FALSE,TRUE,FALSE,FALSE,,,2017-03-11 01:09:21.257159+00,2017-03-11 01:09:21.257159+00,,-32.47738,,,,{},Private School,,,"Catalina Drive, LAKELANDS WA 6180",Mandurah,Mandurah Baptist College,Mandurah,WA
,115.888429,FALSE,TRUE,FALSE,FALSE,,,2017-03-11 01:09:43.269498+00,2017-03-11 01:09:43.269498+00,,-31.92465,,,,{},Community Hall,,,"125 Ninth Avenue, INGLEWOOD WA 6052",Maylands,Inglewood Masonic Hall,Maylands,WA
,115.902074,FALSE,FALSE,TRUE,TRUE,,,2017-03-11 02:32:24.055969+00,2017-03-09 12:10:02.706205+00,,-31.909777,,,Facebook,"{""has_bacon_and_eggs"":true}",Public School,,,"2 Bay View Street, BAYSWATER WA 6053",Maylands,Hillcrest Primary School,Maylands,WA
,115.72524,FALSE,TRUE,FALSE,FALSE,,,2017-03-11 04:14:31.904743+00,2017-03-11 04:14:31.904743+00,,-32.52878,,,Twitter,{},Public School,,,"18 Hackett Street, MANDURAH WA 6210",Mandurah,Mandurah Primary School,Mandurah,WA
,115.752066,FALSE,TRUE,FALSE,FALSE,,,2017-03-11 04:20:15.311847+00,2017-03-11 04:20:15.311847+00,,-32.472715,,,,{},Community Hall,,,"Orelia Street, MADORA BAY WA 6210",Mandurah,Madora Bay Community Hall,Mandurah,WA
,115.75025,FALSE,FALSE,FALSE,FALSE,,,,,,-32.54713,,,,,Public School,,,"Wanjeep Street, COODANUP WA 6210","Mandurah, Dawesville",Coodanup Community College,"Mandurah, Dawesville",WA
,115.75345,FALSE,FALSE,FALSE,FALSE,,,,,,-32.50288,,,,,Other,,,"41 Portrush Parade, MEADOW SPRINGS WA 6210",Mandurah,McNamara Lodge - RAAFA Estate,Mandurah,WA
,115.76789,FALSE,FALSE,FALSE,FALSE,,,,,,-32.53179,,,,,Public School,,,"1 Minilya Parkway, GREENFIELDS WA 6210",Mandurah,Riverside Primary School,Mandurah,WA
,115.891538,FALSE,FALSE,FALSE,FALSE,,,,,,-31.931831,,,,,Other,,,"150 Guildford Road, MAYLANDS WA 6051",Maylands,School of Instrumental Music,Maylands,WA
,115.884891,FALSE,FALSE,FALSE,FALSE,,,,,,-31.912322,,,,,Church,,,"91 Wood Street, BEDFORD WA 6052",Maylands,St Peters Parish Hall,Maylands,WA
,116.045642,FALSE,FALSE,FALSE,FALSE,,,,,,-31.862217,,,,,Pre-School,,,"165 Talbot Road, STRATTON WA 6056",Midland,Goodstart Early Learning Stratton,Midland,WA
,116.00214,FALSE,FALSE,FALSE,FALSE,,,,,,-31.88948,,,,,Community Hall,,,"Cnr Great Eastern Highway and Old Great Northern Highway, MIDLAND WA 6056",Midland,Midland Town Hall,Midland,WA
,116.019298,FALSE,FALSE,FALSE,FALSE,,,,,,-31.878068,,,,,Other,,,"Eddie Barron Drive, MIDDLE SWAN WA 6056",Midland,North Metropolitan TAFE Midland Campus,Midland,WA
,116.04381,FALSE,FALSE,FALSE,FALSE,,,,,,-31.88843,,,,,Public School,,,"Gladstone Avenue, SWAN VIEW WA 6056",Midland,Swan View Senior High School,Midland,WA
,115.853601,FALSE,FALSE,FALSE,FALSE,,,,,,-31.828529,,,,,Community Hall,,,"18 Linto Way, ALEXANDER HEIGHTS WA 6064",Mirrabooka,Alexander Heights Community Hall,Mirrabooka,WA
,115.49866,FALSE,FALSE,FALSE,FALSE,,,,,,-30.38721,,,,,Community Hall,,,"2 North West Road, BADGINGARRA WA 6521",Moore,Badgingarra Community Centre,Moore,WA
,115.870322,FALSE,FALSE,TRUE,TRUE,,,2017-03-06 03:48:41.265608+00,2017-03-06 03:48:41.265608+00,,-31.830074,,,Facebook,{},Public School,,,"33 Northumberland Avenue, ALEXANDER HEIGHTS WA 6064",Mirrabooka,Alinjarra Primary School,Mirrabooka,WA
"Sausage sizzle, drinks, cakes, cupcakes",115.85274,FALSE,FALSE,TRUE,TRUE,,,2017-03-09 12:34:09.327855+00,2017-03-09 12:34:09.327855+00,,-31.87822,Dianella Secondary College Sausage Sizzle & Bake Sale,,Facebook,"{""has_halal"":true}",Public School,,,"180 Nollamara Avenue, DIANELLA WA 6059",Morley,Dianella Secondary College,Morley,WA
A classice democracy sausage sizzle to raise money for school camp. ,116.510466,FALSE,FALSE,FALSE,TRUE,,,2017-03-09 13:57:43.298985+00,2017-03-09 13:57:43.298985+00,,-31.273895,P&C Sausage Sizzle,,User-Submitted,{},Public School,,,"28 Smith Street, BOLGART WA 6568",Moore,Bolgart Primary School,Moore,WA
,115.866002,FALSE,FALSE,TRUE,TRUE,,,2017-03-11 02:49:34.485604+00,2017-03-11 02:49:34.485604+00,,-31.883642,,,,"{""has_bacon_and_eggs"":true}",Public School,,,"9 Beaman Street, DIANELLA WA 6059",Morley,Dianella Heights Primary School,Morley,WA
,116.00801,FALSE,FALSE,FALSE,TRUE,,,2017-03-11 03:24:05.396227+00,2017-03-11 03:24:05.396227+00,,-30.641874,,,Instagram,{},Other,,,"Padbury Street, MOORA WA 6510",Moore,Moora Performing Arts Centre,Moore,WA
,116.0966,FALSE,FALSE,FALSE,FALSE,,,,,,-31.38055,,,,,Public School,,,"19 Learners Way, BINDOON WA 6502",Moore,Bindoon Primary School,Moore,WA
,116.449177,FALSE,FALSE,FALSE,FALSE,,,,,,-31.090154,,,,,Public School,,,"18 Cavell Street, CALINGIRI WA 6569",Moore,Calingiri Primary School,Moore,WA
,115.89191,FALSE,FALSE,FALSE,FALSE,,,,,,-29.68695,,,,,Public School,,,"48 McPherson Street, CARNAMAH WA 6517",Moore,Carnamah District High School,Moore,WA
,115.070205,FALSE,FALSE,FALSE,FALSE,,,,,,-30.499586,,,,,Community Hall,,,"7 Aragon Street, CERVANTES WA 6511",Moore,Cervantes Recreation Centre,Moore,WA
,116.023975,FALSE,FALSE,FALSE,FALSE,,,,,,-29.880944,,,,,Community Hall,,,"Main Street, COOROW WA 6515",Moore,Coorow Community Centre,Moore,WA
,116.662037,FALSE,FALSE,FALSE,FALSE,,,,,,-30.270294,,,,,Public School,,,"97 Johnston Street, DALWALLINU WA 6609",Moore,Dalwallinu District High School,Moore,WA
,115.70262,FALSE,FALSE,FALSE,FALSE,,,,,,-30.67287,,,,,Public School,,,"Dandaragan Road, DANDARAGAN WA 6507",Moore,Dandaragan Primary School,Moore,WA
,115.268769,FALSE,FALSE,FALSE,FALSE,,,,,,-29.81944,,,,,Public School,,,"20 Dewar Street, ENEABBA WA 6518",Moore,Eneabba Primary School,Moore,WA
,115.905184,FALSE,FALSE,FALSE,FALSE,,,,,,-31.348989,,,,,Community Hall,,,"3 Jones Street, GINGIN WA 6503",Moore,Granville Centre,Moore,WA
,115.504375,FALSE,FALSE,FALSE,FALSE,,,,,,-31.348772,,,,,Community Hall,,,"Hall Road, GUILDERTON WA 6041",Moore,Guilderton Hall,Moore,WA
,114.430262,FALSE,FALSE,FALSE,FALSE,,,,,,-28.379944,,,,,Community Hall,,,"North Court, HORROCKS WA 6535",Moore,Horrocks Community Recreation Centre,Moore,WA
,114.924604,FALSE,FALSE,FALSE,FALSE,,,,,,-29.265293,,,,,Community Hall,,,"1 Ridley Street, DONGARA WA 6525",Moore,Irwin Recreation Centre,Moore,WA
,115.03962,FALSE,FALSE,FALSE,FALSE,,,,,,-30.30761,,,,,Public School,,,"19 Hamersley Street, JURIEN BAY WA 6516",Moore,Jurien Bay District High School,Moore,WA
,117.11542,FALSE,FALSE,FALSE,FALSE,,,,,,-30.36294,,,,,Public School,,,"41 Locke Street, KALANNIE WA 6468",Moore,Kalannie Primary School,Moore,WA
,114.16368,FALSE,FALSE,FALSE,FALSE,,,,,,-27.71251,,,,,Public School,,,"Hackney Street, KALBARRI WA 6536",Moore,Kalbarri District High School,Moore,WA
,115.37788,FALSE,FALSE,FALSE,FALSE,,,,,,-31.1087,,,,,Community Hall,,,"381 Turner Street, LEDGE POINT WA 6043",Moore,Ledge Point Community Hall,Moore,WA
,114.97841,FALSE,FALSE,FALSE,FALSE,,,,,,-29.94823,,,,,Public School,,,"10 Spencer Street, LEEMAN WA 6514",Moore,Leeman Primary School,Moore,WA
,116.361831,FALSE,FALSE,FALSE,FALSE,,,,,,-30.492704,,,,,Public School,,,"Nardy Street, MILING WA 6575",Moore,Miling Primary School,Moore,WA
,115.440919,FALSE,FALSE,FALSE,FALSE,,,,,,-29.194401,,,,,Public School,,,"70 Phillip Street, MINGENEW WA 6522",Moore,Mingenew Primary School,Moore,WA
,116.009123,FALSE,FALSE,FALSE,FALSE,,,,,,-29.209793,,,,,Other,,,"66 Winfield Street, MORAWA WA 6623",Moore,Morawa Shire Council Chambers,Moore,WA
,115.97096,FALSE,FALSE,FALSE,FALSE,,,,,,-31.58197,,,,,Community Hall,,,"Archibald Street, MUCHEA WA 6501",Moore,Muchea Community Hall,Moore,WA
,115.5124,FALSE,FALSE,FALSE,FALSE,,,,,,-28.53676,,,,,Public School,,,"Jose Street, MULLEWA WA 6630",Moore,Mullewa District High School,Moore,WA
,114.79279,FALSE,FALSE,FALSE,FALSE,,,,,,-28.499113,,,,,Community Hall,,,"Chapman Valley Road, NABAWA WA 6532",Moore,Nabawa Community Hall,Moore,WA
,116.21604,FALSE,FALSE,FALSE,FALSE,,,,,,-30.96852,,,,,Other,,,"Great Northern Highway, NEW NORCIA WA 6509",Moore,New Norcia Education Centre,Moore,WA
,114.63102,FALSE,FALSE,FALSE,FALSE,,,,,,-28.347788,,,,,Community Hall,,,"Essex Street, NORTHAMPTON WA 6535",Moore,Northampton RSL Hall,Moore,WA
,116.28611,FALSE,FALSE,FALSE,FALSE,,,,,,-29.443671,,,,,Public School,,,"Carnamah-Perenjori Road, PERENJORI WA 6620",Moore,Perenjori Primary School,Moore,WA
,115.444111,FALSE,FALSE,FALSE,FALSE,,,,,,-31.277632,,,,,Public School,,,"Chalon Avenue, SEABIRD WA 6042",Moore,Seabird Community Hall,Moore,WA
,115.332349,FALSE,FALSE,FALSE,FALSE,,,,,,-31.016264,,,,,Other,,,"28 Atkinson Way, LANCELIN WA 6044",Moore,St John Ambulance Subcentre,Moore,WA
,115.761234,FALSE,FALSE,FALSE,FALSE,,,,,,-29.534606,,,,,Public School,,,"30 Carter Street, THREE SPRINGS WA 6519",Moore,Three Springs Primary School,Moore,WA
,116.059946,FALSE,FALSE,FALSE,FALSE,,,,,,-30.299172,,,,,Public School,,,"Cnr Watheroo Miling Road & Marah Street, WATHEROO WA 6513",Moore,Watheroo Primary School,Moore,WA
,115.90366,FALSE,FALSE,FALSE,FALSE,,,,,,-31.88553,,,,,Community Hall,,,"Crimea Street, MORLEY WA 6062",Morley,Crimea Park Hall,Morley,WA
,115.89537,FALSE,FALSE,FALSE,FALSE,,,,,,-31.89212,,,,,Public School,,,"36 Wellington Road, MORLEY WA 6062",Morley,Morley Primary School,Morley,WA
Sausage rolls & drinks,115.83962,FALSE,FALSE,FALSE,TRUE,,,2017-03-07 09:25:35.657301+00,2017-03-07 09:25:35.657301+00,,-31.88463,Nollamara P&C,,,"{""has_halal"":true}",Public School,,,"101 Harrison Street, NOLLAMARA WA 6061",Morley,Nollamara Primary School,Morley,WA
Fundraising for our upcoming trip to our Sister School in Japan ,115.744086,FALSE,FALSE,FALSE,TRUE,,,2017-03-08 12:16:55.596031+00,2017-03-08 12:16:55.596031+00,,-33.259605,KIC Team fundraiser in assoc with KPS P&C,,User-submitted,{},Public School,,,"Macquarie Drive, AUSTRALIND WA 6233",Murray-Wellington,Kingston Primary School,Murray-Wellington,WA
"Sausage Sizzle, Bacon and Egg Rolls, Coffee Van and Cake Stall",115.88597,FALSE,FALSE,TRUE,TRUE,,,2017-03-08 12:17:52.989919+00,2017-03-08 12:17:52.989919+00,,-31.89078,WMPS Sausages Sizzle,,User-submitted,"{""has_coffee"":true,""has_bacon_and_eggs"":true}",Public School,,,"Fitzroy Street, DIANELLA WA 6059",Mount Lawley,West Morley Primary School,Mount Lawley,WA
sausage sizzle and cold drinks (water and soft drink ) available ,115.89157,FALSE,FALSE,FALSE,TRUE,,,2017-03-08 13:06:15.417534+00,2017-03-08 13:06:15.417534+00,,-33.08275,Election Day Sausage Sizzle at Saint Annes School,,User-submitted,{},Private School,,,"Young Street, HARVEY WA 6220",Murray-Wellington,St Anne's Primary School,Murray-Wellington,WA
,115.876417,FALSE,FALSE,FALSE,TRUE,,,2017-03-09 12:51:32.960139+00,2017-03-09 12:51:32.960139+00,,-31.928727,,,Twitter,{},Church,,,"65 First Avenue, MOUNT LAWLEY WA 6050",Mount Lawley,St Patrick's Anglican Church,Mount Lawley,WA
Sausages in bread or rolls to help support YouthCARE,115.85971,FALSE,FALSE,TRUE,TRUE,,,2017-03-11 02:25:02.27233+00,2017-03-04 12:24:48.524044+00,,-31.91367,YouthCARE,,User-submitted,{},Public School,,,"104 Bradford Street, COOLBINIA WA 6050",Mount Lawley,Coolbinia Primary School,Mount Lawley,WA
,115.874627,FALSE,TRUE,FALSE,FALSE,,,2017-03-11 08:36:54.498342+00,2017-03-11 08:36:54.498342+00,,-31.897008,,,Facebook,{},Community Hall,,,"18 Kerry Street, DIANELLA WA 6059",Mount Lawley,Dianella Community Centre,Mount Lawley,WA
,115.87555,FALSE,TRUE,FALSE,FALSE,,,2017-03-11 05:06:06.184685+00,2017-03-11 05:06:06.184685+00,,-31.9397,,,,{},Other,,,"397 Lord Street, MOUNT LAWLEY WA 6050",Mount Lawley,Central Metropolitan College of TAFE - Mt Lawley Campus,Mount Lawley,WA
delicious artisan treats and juicy snags on the barbie!,115.808305,FALSE,FALSE,TRUE,TRUE,,,2017-03-11 06:36:53.331762+00,2017-03-11 02:51:24.516668+00,,-31.948235,Jolimont Primary School P&C,,User-submitted,{},Public School,,,"657 Hay Street, JOLIMONT WA 6014",Nedlands,Jolimont Primary School,Nedlands,WA
,115.87489,FALSE,FALSE,FALSE,FALSE,,,,,,-31.90275,,,,,Private School,,,"81 Cleveland Street, DIANELLA WA 6059",Mount Lawley,Australian Islamic College - Dianella,Mount Lawley,WA
,115.864507,FALSE,FALSE,FALSE,FALSE,,,,,,-31.916886,,,,,Senior Citizens Centre,,,"16 Freedman Road, MENORA WA 6050",Mount Lawley,RSL Aged Care Menora Gardens Village,Mount Lawley,WA
,115.845865,FALSE,FALSE,FALSE,FALSE,,,,,,-31.897389,,,,,Church,,,"Corner Lockwood and Golf View Streets, YOKINE WA 6060",Mount Lawley,Vedanta Church Hall,Mount Lawley,WA
,115.851943,FALSE,FALSE,FALSE,FALSE,,,,,,-31.90197,,,,,Pre-School,,,"26 Ranger Road, YOKINE WA 6060",Mount Lawley,Yokine Community Playgroup,Mount Lawley,WA
,115.80526,FALSE,FALSE,FALSE,FALSE,,,,,,-32.59213,,,,,Private School,,,"Inlet Boulevard, SOUTH YUNDERUP WA 6208",Murray-Wellington,Austin Cove Baptist College,Murray-Wellington,WA
,115.694709,FALSE,FALSE,FALSE,FALSE,,,,,,-33.150469,,,,,Community Hall,,,"Driftwood Way, BINNINGUP WA 6233",Murray-Wellington,Binningup Community Hall,Murray-Wellington,WA
,115.833924,FALSE,FALSE,FALSE,FALSE,,,,,,-33.252447,,,,,Public School,,,"6 Vincent Street, BRUNSWICK JUNCTION WA 6224",Murray-Wellington,Brunswick Junction Primary School,Murray-Wellington,WA
,115.893445,FALSE,FALSE,FALSE,FALSE,,,,,,-32.605545,,,,,Public School,,,"Wisteria Crescent, NORTH PINJARRA WA 6208",Murray-Wellington,Carcoola Primary School,Murray-Wellington,WA
,115.874662,FALSE,FALSE,FALSE,FALSE,,,,,,-32.739638,,,,,Community Hall,,,"Murray Street, COOLUP WA 6214",Murray-Wellington,Coolup Community Hall,Murray-Wellington,WA
,116.06358,FALSE,FALSE,FALSE,FALSE,,,,,,-32.71531,,,,,Public School,,,"10 Newton Street, DWELLINGUP WA 6213",Murray-Wellington,Dwellingup Primary School,Murray-Wellington,WA
,115.69047,FALSE,FALSE,FALSE,FALSE,,,,,,-32.80116,,,,,Community Hall,,,"Tuart Grove Avenue, LAKE CLIFTON WA 6215",Murray-Wellington,Lake Clifton Community Centre,Murray-Wellington,WA
,115.972372,FALSE,FALSE,FALSE,FALSE,,,,,,-32.518076,,,,,Community Hall,,,"South Western Highway, NORTH DANDALUP WA 6207",Murray-Wellington,North Dandalup Community Hall,Murray-Wellington,WA
,115.788343,FALSE,FALSE,FALSE,FALSE,,,,,,-32.580107,,,,,Community Hall,,,"45 Culeenup Road, NORTH YUNDERUP WA 6208",Murray-Wellington,North Yunderup CWA Centre,Murray-Wellington,WA
,115.87207,FALSE,FALSE,FALSE,FALSE,,,,,,-32.63306,,,,,Public School,,,"16 McLarty Road, PINJARRA WA 6208",Murray-Wellington,Pinjarra Senior High School,Murray-Wellington,WA
,115.65759,FALSE,FALSE,FALSE,FALSE,,,,,,-32.880925,,,,,Community Hall,,,"Panorama Drive, PRESTON BEACH WA 6215",Murray-Wellington,Preston Beach Community Centre,Murray-Wellington,WA
,115.734881,FALSE,FALSE,FALSE,FALSE,,,,,,-33.272422,,,,,Community Hall,,,"1 Leisure Drive, AUSTRALIND WA 6233",Murray-Wellington,Riverlinks Community Centre,Murray-Wellington,WA
,115.734436,FALSE,FALSE,FALSE,FALSE,,,,,,-33.2514,,,,,Community Hall,,,"Marine Drive, LESCHENAULT WA 6233",Murray-Wellington,Settlers Hall,Murray-Wellington,WA
"Sausages, cupcakes, tea, coffee, soft drinks",115.726335,FALSE,FALSE,TRUE,TRUE,,,2017-03-10 12:27:12.927485+00,2017-03-10 12:27:12.927485+00,,-33.26555,Parkfield Primary School P&C,,User-Submitted,"{""has_coffee"":true}",Public School,,,"Chapple Drive, AUSTRALIND WA 6233",Murray-Wellington,Parkfield Primary School,Murray-Wellington,WA
,115.841557,FALSE,FALSE,TRUE,FALSE,,,2017-03-09 01:01:13.252986+00,2017-03-09 01:01:13.252986+00,,-31.927627,,,https://www.aranmore.wa.edu.au/newsletter/view/1/136-newsletter-22-02-2017,{},Private School,,,"41 Franklin Street, LEEDERVILLE WA 6007",Perth,Aranmore Catholic College,Perth,WA
"Kyilla Primary School P&C run the Kyilla Farmers Market every Saturday, and it will be on for the election. Theres multiple food stalls and more.",115.8517,FALSE,FALSE,TRUE,FALSE,,,2017-03-09 11:30:45.545571+00,2017-03-09 11:30:45.545571+00,http://www.kcfm.com.au/,-31.91928,Kyilla Farmers Market,,,{},Public School,,,"4 Selkirk Street, NORTH PERTH WA 6006",Perth,Kyilla Primary School,Perth,WA
cakes,115.810652,FALSE,FALSE,TRUE,FALSE,,,2017-03-09 13:59:03.562861+00,2017-03-09 13:59:03.562861+00,,-31.960724,Rosalie Primary School Cake Stall,,User-Submitted,{},Community Hall,,,"240 Onslow Road, SHENTON PARK WA 6008",Nedlands,Shenton Park Community Centre,Nedlands,WA
,115.82277,FALSE,FALSE,FALSE,TRUE,,,2017-03-11 01:33:42.849188+00,2017-03-11 01:33:42.849188+00,,-31.950744,,,,{},Public School,,,"271 Bagot Road, SUBIACO WA 6008",Nedlands,Subiaco Primary School,Nedlands,WA
,115.841898,FALSE,TRUE,FALSE,FALSE,,,2017-03-11 02:45:15.983897+00,2017-03-11 02:45:15.983897+00,,-31.921743,,,,{},Church,,,"98 Hobart Street, MOUNT HAWTHORN WA 6016",Perth,Mt Hawthorn Baptist Church Hall,Perth,WA
,115.815901,FALSE,TRUE,FALSE,FALSE,,,2017-03-11 03:57:32.63429+00,2017-03-11 03:57:32.63429+00,,-31.96755,,,,{},Other,,,"""E"" Block, Verdun Street, NEDLANDS WA 6009",Nedlands,Sir Charles Gairdner Hospital,Nedlands,WA
,115.86136,FALSE,TRUE,FALSE,FALSE,,,2017-03-11 05:19:20.686149+00,2017-03-11 05:19:20.686149+00,,-31.94788,,,,{},Other,,,"25 Aberdeen Street, NORTHBRIDGE WA 6003",Perth,North Metropolitan TAFE Northbridge Campus,Perth,WA
,115.793568,FALSE,FALSE,FALSE,FALSE,,,,,,-31.98049,,,,,Church,,,"177 Stirling Highway, NEDLANDS WA 6009",Nedlands,St Andrew's Church Hall - Nedlands,Nedlands,WA
,115.825286,FALSE,FALSE,FALSE,FALSE,,,,,,-31.950576,,,,,Community Hall,,,"203 Bagot Road, SUBIACO WA 6008",Nedlands,Subiaco Community Centre,Nedlands,WA
,115.808729,FALSE,FALSE,FALSE,FALSE,,,,,,-31.981242,,,,,Community Hall,,,"21 Tyrell Street, NEDLANDS WA 6009",Nedlands,Tresillian Community Centre,Nedlands,WA
,115.812023,FALSE,FALSE,FALSE,FALSE,,,,,,-31.976887,,,,,Other,,,"Clifton Street entrance, NEDLANDS WA 6009",Nedlands,University of Western Australia - Nedlands Campus,Nedlands,WA
,113.65963,FALSE,FALSE,FALSE,FALSE,,,,,,-24.88804,,,,,Public School,,,"19 Cleaver Street, CARNARVON WA 6701",North West Central,Carnarvon Community College (Cleaver St Campus),North West Central,WA
,113.67744,FALSE,FALSE,FALSE,FALSE,,,,,,-24.86678,,,,,Public School,,,"27 Marmion Street, EAST CARNARVON WA 6701",North West Central,Carnarvon Community College (Marmion St Campus),North West Central,WA
,113.7722,FALSE,FALSE,FALSE,FALSE,,,,,,-23.14537,,,,,Other,,,"Banksia Drive, CORAL BAY WA 6701",North West Central,Coral Bay Learning Centre,North West Central,WA
,117.897364,FALSE,FALSE,FALSE,FALSE,,,,,,-27.42035,,,,,Public School,,,"Simpson Street, CUE WA 6640",North West Central,Cue Primary School,North West Central,WA
,113.535867,FALSE,FALSE,FALSE,FALSE,,,,,,-25.927242,,,,,Community Hall,,,"Cnr Hughes and Durlacher Street , DENHAM WA 6537",North West Central,Denham Hall,North West Central,WA
,114.12375,FALSE,FALSE,FALSE,FALSE,,,,,,-21.92916,,,,,Community Hall,,,"22 Maidstone Crescent, EXMOUTH WA 6707",North West Central,Exmouth Shire Hall,North West Central,WA
,118.495756,FALSE,FALSE,FALSE,FALSE,,,,,,-26.593012,,,,,Community Hall,,,"Main Street, MEEKATHARRA WA 6642",North West Central,Meekatharra Shire Hall,North West Central,WA
,117.849588,FALSE,FALSE,FALSE,FALSE,,,,,,-28.062546,,,,,Community Hall,,,"Naughton Street, MOUNT MAGNET WA 6638",North West Central,Mount Magnet Anzac Memorial Hall,North West Central,WA
,115.110272,FALSE,FALSE,FALSE,FALSE,,,,,,-21.638092,,,,,Public School,,,"Simpson Street, ONSLOW WA 6710",North West Central,Onslow Primary School,North West Central,WA
,116.32444,FALSE,FALSE,FALSE,FALSE,,,,,,-21.63714,,,,,Public School,,,"Sports Way, PANNAWONICA WA 6716",North West Central,Pannawonica Primary School,North West Central,WA
,117.673072,FALSE,FALSE,FALSE,FALSE,,,,,,-23.197359,,,,,Public School,,,"De Grey Road, PARABURDOO WA 6754",North West Central,Paraburdoo Primary School,North West Central,WA
,120.227235,FALSE,FALSE,FALSE,FALSE,,,,,,-26.598658,,,,,Public School,,,"Scotia Street, WILUNA WA 6646",North West Central,Wiluna Remote Community School,North West Central,WA
,116.68019,FALSE,FALSE,FALSE,FALSE,,,,,,-28.34001,,,,,Public School,,,"23 Henty Street, YALGOO WA 6635",North West Central,Yalgoo Primary School,North West Central,WA
,115.843934,FALSE,FALSE,FALSE,FALSE,,,,,,-31.951434,,,,,Other,,,"40 Havelock Street, WEST PERTH WA 6005",Perth,Constitutional Centre,Perth,WA
,115.86609,FALSE,TRUE,FALSE,FALSE,,,2017-03-11 07:18:37.503902+00,2017-03-11 07:18:37.503902+00,,-31.95454,,,,{},Other,,,"Victoria Avenue, PERTH WA 6000",Perth,Royal Perth Hospital,Perth,WA
,115.835257,FALSE,FALSE,FALSE,FALSE,,,,,,-31.919603,,,,,Community Hall,,,"197 Scarborough Beach Road, MOUNT HAWTHORN WA 6016",Perth,Mt Hawthorn Community Centre Lesser Hall,Perth,WA
,115.87228,FALSE,FALSE,FALSE,FALSE,,,,,,-31.95149,,,,,Other,,,"140 Royal Street, EAST PERTH WA 6004",Perth,North Metropolitan TAFE East Perth Campus,Perth,WA
,115.8417,FALSE,FALSE,FALSE,FALSE,,,,,,-31.93374,,,,,Other,,,"196-244 Richmond Street, LEEDERVILLE WA 6007",Perth,North Metropolitan TAFE Leederville Campus,Perth,WA
,115.85201,FALSE,FALSE,FALSE,TRUE,,,2017-03-11 06:50:55.062181+00,2017-03-11 06:50:55.062181+00,,-31.94016,,,Twitter,{},Church,,,"59 Carr Street, WEST PERTH WA 6005",Perth,Greek Orthodox Church,Perth,WA
,115.87445,FALSE,TRUE,FALSE,FALSE,,,2017-03-11 08:11:19.37067+00,2017-03-11 08:11:19.37067+00,,-31.959027,,,Twitter,{},Community Hall,,,"160 Hay Street, EAST PERTH WA 6004",Perth,Rod Evans Community Centre,Perth,WA
,115.856278,FALSE,FALSE,FALSE,FALSE,,,,,,-31.954802,,,,,Other,,,"111 St Georges Terrace, PERTH WA 6000",Perth,WAEC (BOQ building),Perth,WA
"sausages, bread, drinks to support your local school ",115.74022,FALSE,FALSE,FALSE,TRUE,,,2017-03-08 14:00:25.089016+00,2017-03-08 14:00:25.089016+00,,-32.30401,Safety Bay SHS P&C ,,User-submitted,{},Public School,,,"80 Malibu Road, SAFETY BAY WA 6169",Rockingham,Safety Bay Senior High School,Rockingham,WA
"Bacon and Egg rolls 8-11, sausage sizzle 11-1",117.14076,FALSE,FALSE,FALSE,TRUE,,,2017-03-08 13:05:38.354222+00,2017-03-08 13:05:38.354222+00,,-20.68013,Wickham Primary School P&C ,,User-submitted,"{""has_bacon_and_eggs"":true}",Public School,,,"289 Tamarind Place, WICKHAM WA 6720",Pilbara,Wickham Primary School,Pilbara,WA
"Cake stall, sausage sizzle, drinks",115.8607,FALSE,FALSE,TRUE,TRUE,,,2017-03-08 13:09:20.664814+00,2017-03-08 12:22:27.578441+00,,-32.06058,Bull Creek Primary School P&C,,User-submitted,{},Public School,,,"32 Hardy Street, BULLCREEK WA 6149",Riverton,Bull Creek Primary School,Riverton,WA
Sausage Sambos and Cool Drinks - part proceeds to Rockingham PCYC Gymnastics ,115.73628,FALSE,FALSE,FALSE,TRUE,,,2017-03-09 07:25:32.652773+00,2017-03-09 07:25:32.652773+00,,-32.28423,Cocktails n Dreamz,,User-Submitted,{},Public School,,,"15 Read Street, ROCKINGHAM WA 6168",Rockingham,Rockingham Senior High School,Rockingham,WA
,115.885567,FALSE,FALSE,TRUE,TRUE,,,2017-03-09 12:24:16.159077+00,2017-03-09 12:24:16.159077+00,,-32.031543,,,Facebook,{},Public School,,,"Monota Avenue, SHELLEY WA 6148",Riverton,Shelley Primary School,Riverton,WA
,116.80094,FALSE,FALSE,FALSE,TRUE,,,2017-03-11 00:18:20.227605+00,2017-03-11 00:18:20.227605+00,,-20.74238,,,,{},Public School,,,"Tambrey Drive, KARRATHA WA 6714",Pilbara,Tambrey Primary School,Pilbara,WA
Sausages,116.860769,FALSE,FALSE,FALSE,TRUE,,,2017-03-10 12:36:17.649395+00,2017-03-10 12:36:17.649395+00,,-20.729777,KPS Sausage Sizzle,,User-Submitted,{},Public School,,,"Turner Way , KARRATHA WA 6714",Pilbara,Karratha Primary School,Pilbara,WA
,115.8661,FALSE,FALSE,TRUE,TRUE,,,2017-03-11 02:17:24.727358+00,2017-03-11 02:16:50.11845+00,,-32.04032,,,Twitter,"{""has_bacon_and_eggs"":true}",Public School,,,"90 Second Avenue, ROSSMOYNE WA 6148",Riverton,Rossmoyne Primary School,Riverton,WA
,115.761059,FALSE,TRUE,FALSE,FALSE,,,2017-03-11 02:33:19.106174+00,2017-03-11 02:33:19.106174+00,,-32.304219,,,Twitter,{},Public School,,,"21 Gibb Road, COOLOONGUP WA 6168","Rockingham, Baldivis",East Waikiki Primary School,"Rockingham, Baldivis",WA
,115.71408,FALSE,TRUE,FALSE,FALSE,,,2017-03-11 03:11:15.737276+00,2017-03-11 03:11:15.737276+00,,-32.29819,,,,{},Public School,,,"2 Waimea Road, SAFETY BAY WA 6169",Rockingham,Safety Bay Primary School,Rockingham,WA
,115.89951,FALSE,FALSE,FALSE,TRUE,,,2017-03-11 04:11:39.923472+00,2017-03-11 04:11:39.923472+00,,-32.03426,,,,{},Public School,,,"255 Corinthian Road East, RIVERTON WA 6148",Riverton,Riverton Primary School,Riverton,WA
,115.888751,FALSE,TRUE,FALSE,FALSE,,,2017-03-11 04:57:00.515858+00,2017-03-11 04:57:00.515858+00,,-32.039331,,,Twitter,{},Senior Citizens Centre,,,"2 Herald Avenue, WILLETTON WA 6155",Riverton,Herald Avenue Senior Citizens Centre,Riverton,WA
,115.87776,FALSE,FALSE,FALSE,TRUE,,,2017-03-11 05:07:53.461671+00,2017-03-11 05:07:53.461671+00,,-32.06112,,,,{},Public School,,,"120 Pinetree Gully Road, WILLETTON WA 6155",Riverton,Willetton Senior High School,Riverton,WA
,116.707152,FALSE,FALSE,FALSE,FALSE,,,,,,-20.664492,,,,,Pre-School,,,"Church Road, DAMPIER WA 6713",Pilbara,Dampier Pre-Primary School,Pilbara,WA
,118.59729,FALSE,FALSE,FALSE,FALSE,,,,,,-20.39952,,,,,Public School,,,"45 Roberts Street, SOUTH HEDLAND WA 6722",Pilbara,Hedland Senior High School,Pilbara,WA
,119.745717,FALSE,FALSE,FALSE,FALSE,,,,,,-21.172909,,,,,Community Hall,,,"Francis Street, MARBLE BAR WA 6760",Pilbara,Marble Bar Community Resource Centre,Pilbara,WA
,116.817504,FALSE,FALSE,FALSE,FALSE,,,,,,-20.74246428,,,,,Public School,,,"Gawthorne Drive, KARRATHA WA 6714",Pilbara,Millars Well Primary School,Pilbara,WA
,119.73377,FALSE,FALSE,FALSE,FALSE,,,,,,-23.36146,,,,,Public School,,,"Gregory Avenue, NEWMAN WA 6753",Pilbara,Newman Senior High School,Pilbara,WA
,117.144535,FALSE,FALSE,FALSE,FALSE,,,,,,-20.767275,,,,,Community Hall,,,"1 Sholl Street, ROEBOURNE WA 6718",Pilbara,PCYC Roebourne,Pilbara,WA
,118.63414,FALSE,TRUE,FALSE,FALSE,,,2017-03-11 08:20:39.76974+00,2017-03-11 08:20:39.76974+00,,-20.30435,,,Word of mouth,{},Public School,,,"Corney Street, PORT HEDLAND WA 6721",Pilbara,Port Hedland Primary School,Pilbara,WA
,115.85773,FALSE,FALSE,FALSE,FALSE,,,,,,-32.04887,,,,,Other,,,"12-18 Bull Creek Drive, BULL CREEK WA 6149",Riverton,RAAFA Estate - Bull Creek,Riverton,WA
,115.73766,FALSE,FALSE,FALSE,FALSE,,,,,,-32.29065,,,,,Public School,,,"9 Centaurus Street, ROCKINGHAM WA 6168",Rockingham,Bungaree Primary School,Rockingham,WA
,115.763015,FALSE,FALSE,FALSE,FALSE,,,,,,-32.283405,,,,,Public School,,,"35 Unnaro Street, HILLMAN WA 6168",Rockingham,Hillman Primary School,Rockingham,WA
,115.745934,FALSE,FALSE,FALSE,FALSE,,,,,,-32.283598,,,,,Senior Citizens Centre,,,"277 McNicholl Street, ROCKINGHAM WA 6168",Rockingham,Rockingham Autumn Centre (Drive-In),Rockingham,WA
,117.035017,FALSE,FALSE,FALSE,FALSE,,,,,,-33.332,,,,,Community Hall,,,"Albany Highway, ARTHUR RIVER WA 6315",Roe,Arthur River Hall,Roe,WA
,118.262935,FALSE,FALSE,FALSE,FALSE,,,,,,-34.072504,,,,,Public School,,,"31 Stone Street, BORDEN WA 6338",Roe,Borden Primary School,Roe,WA
,117.638608,FALSE,FALSE,FALSE,FALSE,,,,,,-33.845186,,,,,Community Hall,,,"8 Journal Street, BROOMEHILL WA 6318",Roe,Broomehill RSL Hall,Roe,WA
,121.9084,FALSE,FALSE,FALSE,FALSE,,,,,,-33.83254,,,,,Public School,,,"Easton Road, CASTLETOWN WA 6450",Roe,Castletown Primary School,Roe,WA
,122.52715,FALSE,FALSE,FALSE,FALSE,,,,,,-33.75503,,,,,Public School,,,"Sutcliffe Street, CONDINGUP WA 6450",Roe,Condingup Primary School,Roe,WA
,117.55379,FALSE,FALSE,FALSE,FALSE,,,,,,-34.29598,,,,,Community Hall,,,"17 Gathorne Street, CRANBROOK WA 6321",Roe,Cranbrook Memorial Hall,Roe,WA
,117.17769,FALSE,FALSE,FALSE,FALSE,,,,,,-32.81908,,,,,Community Hall,,,"189 Campbell Street, CUBALLING WA 6311",Roe,Cuballing Agricultural Hall,Roe,WA
,115.754339,FALSE,TRUE,FALSE,FALSE,,,2017-03-11 02:19:03.863995+00,2017-03-11 02:19:03.863995+00,,-32.298641,,,Twitter,{},Public School,,,"21 Westerly Way, COOLOONGUP WA 6168",Rockingham,Cooloongup Primary School,Rockingham,WA
"Sausages, Drinks and Cakes",115.76725,FALSE,FALSE,TRUE,TRUE,,,2017-03-11 00:08:05.257131+00,2017-03-11 00:08:05.257131+00,,-31.88303,Primary Sausage Sizzle and Cake Stall,,,{},Public School,,,"21 Deanmore Road, KARRINYUP WA 6018",Scarborough,Deanmore Primary School,Scarborough,WA
coffee van,115.797245,FALSE,FALSE,TRUE,TRUE,,,2017-03-09 10:19:46.970722+00,2017-03-08 13:02:05.162949+00,,-31.871064,Lake Gwelup Primary School,,User-submitted,"{""has_coffee"":true,""has_vego"":false}",Public School,,,"59 Porter Street, GWELUP WA 6018",Scarborough,Lake Gwelup Primary School,Scarborough,WA
sausage sizzle,121.873468,FALSE,FALSE,FALSE,TRUE,,,2017-03-11 01:12:56.017293+00,2017-03-11 01:12:56.017293+00,,-33.858288,fundraiser,,,{},Public School,,,"Victoria Street, ESPERANCE WA 6450",Roe,Nulsen Primary School,Roe,WA
,117.334116,FALSE,TRUE,FALSE,FALSE,,,2017-03-11 04:03:25.118795+00,2017-03-11 04:03:25.118795+00,,-33.306037,,,,{},Other,,,"Kitchener Street, WAGIN WA 6315",Roe,Woolorama Wagin Show Grounds,Roe,WA
,117.16023,FALSE,FALSE,TRUE,TRUE,,,2017-03-11 07:00:29.257129+00,2017-03-11 07:00:29.257129+00,,-33.83674,,,Word of mouth,{},Community Hall,,,"2 Spencer Street, KOJONUP WA 6395",Roe,Kojonup RSL Hall,Roe,WA
,116.741401,FALSE,FALSE,FALSE,FALSE,,,,,,-33.337487,,,,,Community Hall,,,"Cnr of Butler and Hillman Street, DARKAN WA 6392",Roe,Darkan Town Hall,Roe,WA
,117.73882,FALSE,FALSE,FALSE,FALSE,,,,,,-33.31244,,,,,Public School,,,"49 Taylor Street, DUMBLEYUNG WA 6350",Roe,Dumbleyung Primary School,Roe,WA
,116.802156,FALSE,FALSE,FALSE,FALSE,,,,,,-33.51527,,,,,Community Hall,,,"Horley Street, DURANILLIN WA 6393",Roe,Duranillin Hall,Roe,WA
,117.188051,FALSE,FALSE,FALSE,FALSE,,,,,,-32.936176,,,,,Public School,,,"37-41 Homer Street, NARROGIN WA 6312",Roe,East Narrogin Primary School,Roe,WA
,121.89029,FALSE,FALSE,FALSE,FALSE,,,,,,-33.85929,,,,,Senior Citizens Centre,,,"183 Forrest Street, ESPERANCE WA 6450",Roe,Esperance Senior Citizens Centre,Roe,WA
,121.805919,FALSE,FALSE,FALSE,FALSE,,,,,,-33.647178,,,,,Other,,,"Starr Street, GIBSON WA 6448",Roe,Gibson Football Club,Roe,WA
,118.007094,FALSE,FALSE,FALSE,FALSE,,,,,,-33.936725,,,,,Community Hall,,,"47 Yougenup Road, GNOWANGERUP WA 6335",Roe,Gnowangerup CRC,Roe,WA
,117.86044,FALSE,FALSE,FALSE,FALSE,,,,,,-32.93611,,,,,Community Hall,,,"18 Railway Avenue, HARRISMITH WA 6361",Roe,Harrismith Community Hall,Roe,WA
,117.23889,FALSE,FALSE,FALSE,FALSE,,,,,,-33.05738,,,,,Community Hall,,,"Burley Street, HIGHBURY WA 6313",Roe,Highbury Hall,Roe,WA
,120.126625,FALSE,FALSE,FALSE,FALSE,,,,,,-33.947961,,,,,Community Hall,,,"46 Veal Street, HOPETOUN WA 6348",Roe,Hopetoun Community Centre,Roe,WA
,117.554032,FALSE,FALSE,FALSE,FALSE,,,,,,-33.690191,,,,,Community Hall,,,"16 Austral Tce, KATANNING WA 6317",Roe,Katanning Town Hall,Roe,WA
,118.15454,FALSE,FALSE,FALSE,FALSE,,,,,,-32.67131,,,,,Community Hall,,,"Johnston Street, KULIN WA 6365",Roe,Kulin Resource Centre,Roe,WA
,118.458637,FALSE,FALSE,FALSE,FALSE,,,,,,-33.103516,,,,,Community Hall,,,"Bishop Street, LAKE GRACE WA 6353",Roe,Lake Grace Community Resource Centre,Roe,WA
,119.674477,FALSE,FALSE,FALSE,FALSE,,,,,,-33.088854,,,,,Public School,,,"Newdegate-Ravensthorpe Road, LAKE KING WA 6356",Roe,Lake King Primary School,Roe,WA
,120.858203,FALSE,FALSE,FALSE,FALSE,,,,,,-33.704025,,,,,Public School,,,"Budjan Street, MUNGLINUP WA 6450",Roe,Munglinup Primary School,Roe,WA
,116.98181,FALSE,FALSE,FALSE,FALSE,,,,,,-33.84114,,,,,Community Hall,,,"Piesse Street, MURADUP WA 6394",Roe,Muradup Hall,Roe,WA
,117.175168,FALSE,FALSE,FALSE,FALSE,,,,,,-32.936,,,,,Senior Citizens Centre,,,"1-3 Fathom Street, NARROGIN WA 6312",Roe,Narrogin Senior Citizens Centre,Roe,WA
,119.022035,FALSE,FALSE,FALSE,FALSE,,,,,,-33.093699,,,,,Community Hall,,,"Collier Street, NEWDEGATE WA 6355",Roe,Newdegate Community Resource Centre,Roe,WA
,118.148469,FALSE,FALSE,FALSE,FALSE,,,,,,-33.541323,,,,,Community Hall,,,"14 Richmond Street, NYABING WA 6341",Roe,Nyabing Town Hall,Roe,WA
,118.48653,FALSE,FALSE,FALSE,FALSE,,,,,,-33.96344,,,,,Public School,,,"Lamont Street, ONGERUP WA 6336",Roe,Ongerup Primary School,Roe,WA
,116.56885,FALSE,FALSE,FALSE,FALSE,,,,,,-33.05105,,,,,Community Hall,,,"Pinjarra-Williams Road, QUINDANNING WA 6391",Roe,Quindanning Community Hall,Roe,WA
,120.051961,FALSE,FALSE,FALSE,FALSE,,,,,,-33.582198,,,,,Public School,,,"102 Morgans Street, RAVENSTHORPE WA 6346",Roe,Ravensthorpe District High School,Roe,WA
,121.645732,FALSE,FALSE,FALSE,FALSE,,,,,,-32.982894,,,,,Public School,,,"Rogers Street, SALMON GUMS WA 6445",Roe,Salmon Gums Primary School,Roe,WA
,117.641315,FALSE,FALSE,FALSE,FALSE,,,,,,-34.044172,,,,,Community Hall,,,"42 Norrish Street, TAMBELLUP WA 6320",Roe,Tambellup Shire Lesser Hall,Roe,WA
,117.342063,FALSE,FALSE,FALSE,FALSE,,,,,,-33.310296,,,,,Church,,,"8 Ranford Street, WAGIN WA 6315",Roe,Wagin Uniting Church,Roe,WA
,117.497197,FALSE,FALSE,FALSE,FALSE,,,,,,-32.785561,,,,,Public School,,,"44 Henry Street, WICKEPIN WA 6370",Roe,Wickepin Primary School,Roe,WA
,116.881155,FALSE,FALSE,FALSE,FALSE,,,,,,-33.025871,,,,,Community Hall,,,"9 Brooking Street, WILLIAMS WA 6391",Roe,Williams RSL Hall,Roe,WA
,117.625999,FALSE,FALSE,FALSE,FALSE,,,,,,-32.593985,,,,,Community Hall,,,"Sewell Street, YEALERING WA 6372",Roe,Yealering Hall,Roe,WA
,116.00349,FALSE,FALSE,FALSE,FALSE,,,,,,-32.07107,,,,,Other,,,"2 Astley Street, GOSNELLS WA 6110",Thornlie,Addie Mills Centre,Thornlie,WA
,115.772571,FALSE,FALSE,FALSE,FALSE,,,,,,-31.890606,,,,,Church,,,"121 Northstead Street, SCARBOROUGH WA 6019",Scarborough,Scarborough Uniting Church,Scarborough,WA
"sausage sizzle and bacon and egg burgers, soft drink and water. money to P&C to help our kids",115.96527,FALSE,FALSE,FALSE,TRUE,,,2017-03-08 13:17:32.391419+00,2017-03-08 13:17:32.391419+00,,-31.78475,ESC P&C,,User-submitted,"{""has_bacon_and_eggs"":true}",Public School,,,"100 Main Street, ELLENBROOK WA 6069",Swan Hills,Ellenbrook Secondary College,Swan Hills,WA
"Sausage Sizzle with egg & bacon rolls, drinks being available.",115.972637,FALSE,FALSE,FALSE,TRUE,,,2017-03-07 12:50:00.361259+00,2017-03-07 12:50:00.361259+00,,-32.077186,Huntingdale Primary School P & C Association Election Sausage Sizzle,,User-submitted,"{""has_bacon_and_eggs"":true}",Public School,,,"85 Matilda Street, HUNTINGDALE WA 6110",Southern River,Huntingdale Primary School,Southern River,WA
"Egg and Bacon rolls, sausage sizzle, coffee van,cake stall, 2nd hand books, cold drinks",115.789673,FALSE,FALSE,TRUE,TRUE,,,2017-03-08 12:27:46.470597+00,2017-03-08 12:27:46.470597+00,,-31.891797,Yuluma Primary School Innaloo,,User-submitted,"{""has_coffee"":true,""has_vego"":true,""has_bacon_and_eggs"":true}",Public School,,,"21 Ambrose Street, INNALOO WA 6018",Scarborough,Yuluma Primary School,Scarborough,WA
"Sausages, potted plants.",115.862673,FALSE,FALSE,FALSE,TRUE,,,2017-03-11 00:52:48.493463+00,2017-03-11 00:52:48.493463+00,,-32.003456,Church Sausage Sizzle,,,{},Church,,,"21 Cale Street, COMO WA 6152",South Perth,St Augustine's Church Hall,South Perth,WA
,115.872996,FALSE,FALSE,TRUE,TRUE,,,2017-03-09 00:59:22.907844+00,2017-03-09 00:59:22.907844+00,,-31.991098,,,,{},Public School,,,"17 Hobbs Avenue, COMO WA 6152",South Perth,Collier Primary School,South Perth,WA
"Sausage in bun, drinks.",115.9651583,FALSE,FALSE,FALSE,TRUE,,,2017-03-09 07:21:12.132984+00,2017-03-09 07:21:12.132984+00,,-32.05349185,Thornlie Anglican Church - funds raised will be divided between Youth Care and our food hamper charity,,User-Submitted,"{""has_halal"":true}",Public School,,,"86 Thornlie Avenue, THORNLIE WA 6108",Thornlie,Thornlie Primary School,Thornlie,WA
"sausage sizzle, bacon & egg burgers and drinks to fund Year 6 camp",116.201376,FALSE,FALSE,FALSE,TRUE,,,2017-03-09 09:15:01.853513+00,2017-03-09 09:15:01.853513+00,www.gidgegannupps.wa.edu.au,-31.791248,Gidgegannup Primary School Year 6 Class,,User-Submitted,"{""has_bacon_and_eggs"":true}",Community Hall,,,"Lot 210 Toodyay Road, GIDGEGANNUP WA 6083",Swan Hills,Gidgegannup Shire Hall,Swan Hills,WA
sausage sizzle,116.003119,FALSE,FALSE,FALSE,TRUE,,,2017-03-09 09:17:54.338864+00,2017-03-09 09:17:54.338864+00,,-32.077387,Sausage Sizzle,,User-Submitted,{},Public School,,,"173 Hicks Street, GOSNELLS WA 6110","Southern River, Thornlie",Gosnells Primary School,"Southern River, Thornlie",WA
,116.03378,FALSE,FALSE,TRUE,TRUE,,,2017-03-09 12:31:02.328344+00,2017-03-09 12:31:02.328344+00,,-31.66158,,,Facebook,"{""has_free_text"":""Soup""}",Public School,,,"Chittering Road, BULLSBROOK WA 6084",Swan Hills,Bullsbrook College,Swan Hills,WA
,116.312269,FALSE,FALSE,FALSE,TRUE,,,2017-03-09 12:54:58.581837+00,2017-03-09 12:54:58.581837+00,,-31.803839,,,Twitter,{},Public School,,,"Wade Street, WOOROLOO WA 6558",Swan Hills,Wooroloo Primary School,Swan Hills,WA
sausage sizzle icy poles drinks,115.98477,FALSE,FALSE,FALSE,TRUE,,,2017-03-09 13:56:52.582323+00,2017-03-09 13:56:52.582323+00,,-32.08664,Vote for Snags,,User-Submitted,"{""has_free_text"":""Icy poles""}",Public School,,,"6 Nullagine Way, GOSNELLS WA 6110",Southern River,Ashburton Drive Primary School,Southern River,WA
"Sausages, rolls, bacon and egg buns, cakes, preserves, and plants.",115.8616,FALSE,FALSE,TRUE,TRUE,,,2017-03-10 07:51:11.256619+00,2017-03-05 13:40:00.128515+00,,-31.99662,At. Augustines Anglican Church Como,,User-submitted,"{""has_bacon_and_eggs"":true,""has_free_text"":""Preserves, Plants""}",Public School,,,"29 Thelma Street, COMO WA 6152",South Perth,Como Primary School,South Perth,WA
,116.220597,FALSE,FALSE,FALSE,TRUE,,,2017-03-11 04:13:52.779964+00,2017-03-11 04:13:52.779964+00,,-31.875296,,,,{},Community Hall,,,"Keane Street East , MOUNT HELENA WA 6082",Swan Hills,Mt Helena Recreation Centre,Swan Hills,WA
,115.86806,FALSE,FALSE,FALSE,TRUE,,,2017-03-11 05:12:31.138619+00,2017-03-11 05:12:31.138619+00,,-31.98176,,,,{},Church,,,"Angelo Street, SOUTH PERTH WA 6151",South Perth,South Perth Uniting Church Hall,South Perth,WA
,115.87378,FALSE,FALSE,FALSE,FALSE,,,,,,-32.00809,,,,,Public School,,,"20 Goss Avenue, MANNING WA 6152",South Perth,Curtin Primary School,South Perth,WA
,116.02396,FALSE,FALSE,FALSE,TRUE,,,2017-03-11 07:32:50.343081+00,2017-03-11 07:32:50.343081+00,,-31.78697,,,Facebook,{},Public School,,,"1204 Great Northern Highway, UPPER SWAN WA 6069",Swan Hills,Upper Swan Primary School,Swan Hills,WA
,115.89201,FALSE,FALSE,FALSE,FALSE,,,,,,-31.9851,,,,,Public School,,,"89 Kent Street, EAST VICTORIA PARK WA 6101",South Perth,Kent Street Senior High School,South Perth,WA
,115.87424,FALSE,FALSE,FALSE,FALSE,,,,,,-32.01731,,,,,Other,,,"Challenger Avenue, MANNING WA 6152",South Perth,South Perth United FC Pavilion Challenger Reserve,South Perth,WA
,116.203629,FALSE,TRUE,FALSE,FALSE,,,2017-03-11 05:28:54.817469+00,2017-03-11 05:28:54.817469+00,,-31.901702,,,Facebook,{},Public School,,,"17 Barlow Street, SAWYERS VALLEY WA 6074",Swan Hills,Sawyers Valley Primary School,Swan Hills,WA
,115.86331,FALSE,FALSE,FALSE,FALSE,,,,,,-32.01563,,,,,Church,,,"23 Paterson Street, MANNING WA 6152",South Perth,St Pius X Parish Hall,South Perth,WA
,115.9335,FALSE,FALSE,FALSE,FALSE,,,,,,-32.07577,,,,,Public School,,,"89 Fraser Road North, CANNING VALE WA 6155",Southern River,Caladenia Primary School,Southern River,WA
,115.92209,FALSE,FALSE,FALSE,FALSE,,,,,,-32.08287,,,,,Public School,,,"30 Dumbarton Road, CANNING VALE WA 6155",Southern River,Canning Vale College,Southern River,WA
,115.975284,FALSE,FALSE,FALSE,FALSE,,,,,,-31.770221,,,,,Public School,,,"23 Strathmore Parkway, ELLENBROOK WA 6069",Swan Hills,Ellen Stirling Primary School,Swan Hills,WA
,115.974327,FALSE,FALSE,FALSE,FALSE,,,,,,-31.79115,,,,,Church,,,"66 Woodlake Boulevard, ELLENBROOK WA 6069",Swan Hills,GracieLife Church,Swan Hills,WA
,115.86461,FALSE,FALSE,FALSE,TRUE,,,2017-03-11 07:08:43.95028+00,2017-03-11 07:08:43.95028+00,,-31.987026,,,,{},Other,,,"Pilgrim Street, SOUTH PERTH WA 6151",South Perth,Ernest Johnson Oval Pavilion,South Perth,WA
,115.942882,FALSE,FALSE,FALSE,TRUE,,,2017-03-11 08:59:03.666747+00,2017-03-11 08:59:03.666747+00,,-32.081542,,,Instagram,{},Public School,,,"63 Shreeve Road, CANNING VALE WA 6155",Southern River,Excelsior Primary School,Southern River,WA
,115.76461,FALSE,TRUE,FALSE,FALSE,,,2017-03-11 03:53:41.574395+00,2017-03-11 03:53:41.574395+00,,-32.4157,,,,{},Public School,,,"2 Allatoona Ave, SECRET HARBOUR WA 6173",Warnbro,Comet Bay College,Warnbro,WA
,115.78508,FALSE,FALSE,FALSE,TRUE,,,2017-03-08 13:44:50.35727+00,2017-03-08 13:44:50.35727+00,,-31.71166,,,Twitter,{},Public School,,,"71 Houghton Drive, CARRAMAR WA 6031",Wanneroo,Carramar Primary School,Wanneroo,WA
,115.80454,FALSE,FALSE,FALSE,TRUE,,,2017-03-08 13:45:59.142775+00,2017-03-08 13:45:59.142775+00,,-31.74929,,,Twitter,{},Private School,,,"7 Servite Terrace, WANNEROO WA 6065",Wanneroo,St Anthony's School,Wanneroo,WA
,115.814,FALSE,FALSE,FALSE,TRUE,,,2017-03-08 13:46:22.536825+00,2017-03-08 13:46:22.536825+00,,-31.75772,,,Twitter,{},Public School,,,"56 Quarkum Street, WANNEROO WA 6065",Wanneroo,Wanneroo Secondary College,Wanneroo,WA
Sausages and drinks to fund Central Australia service trip,115.3822,FALSE,FALSE,FALSE,TRUE,,,2017-03-09 09:13:30.785445+00,2017-03-09 09:13:30.785445+00,,-33.6616,GMAS sausage sizzle,,User-Submitted,{},Private School,,,"2 Hawker Approach, YALYALUP WA 6280",Vasse,Georgiana Molloy Anglican School,Vasse,WA
,115.96006,FALSE,FALSE,FALSE,FALSE,,,,,,-32.06503,,,,,Public School,,,"2 Ovens Road, THORNLIE WA 6108",Thornlie,Thornlie Senior High School,Thornlie,WA
,115.91132,FALSE,FALSE,TRUE,TRUE,,,2017-03-10 04:59:05.895483+00,2017-03-10 04:59:05.895483+00,https://www.facebook.com/events/1303427849696032/,-32.01726,,,User-Submitted,{},Public School,,,"60 Armstrong Road, WILSON WA 6107",Victoria Park,Wilson Primary School,Victoria Park,WA
,115.916389,FALSE,FALSE,FALSE,TRUE,,,2017-03-10 23:40:53.134085+00,2017-03-10 23:40:53.134085+00,,-32.007952,,,Twitter,{},Church,,,"59 Chapman Road, BENTLEY WA 6102",Victoria Park,Bentley Baptist Church,Victoria Park,WA
,115.893633,FALSE,TRUE,FALSE,FALSE,,,2017-03-11 00:22:56.059866+00,2017-03-11 00:22:56.059866+00,,-31.97214,,,,{},Other,,,"5 Mackie Street, VICTORIA PARK WA 6100",Victoria Park,Connect Victoria Park Inc,Victoria Park,WA
,115.89903,FALSE,TRUE,FALSE,FALSE,,,2017-03-11 00:58:31.498763+00,2017-03-11 00:58:31.498763+00,,-31.98387,,,Twitter,{},Other,,,"Cnr of Kent and Gloucester Street, EAST VICTORIA PARK WA 6101",Victoria Park,Leisurelife Centre,Victoria Park,WA
Grab a snag to support the Cowaramup P&C,115.106906,TRUE,FALSE,FALSE,TRUE,,,2017-03-11 04:05:24.022301+00,2017-03-10 03:01:22.754096+00,,-33.851281,Primary School Sausage Sizzle,,User-Submitted,{},Public School,,,"Waverley Road, COWARAMUP WA 6284",Vasse,Cowaramup Primary School,Vasse,WA
,115.951772,FALSE,FALSE,FALSE,FALSE,,,,,,-32.050007,,,,,Public School,,,"Sage Road, THORNLIE WA 6108",Thornlie,Yale Primary School,Thornlie,WA
,116.00851,FALSE,FALSE,FALSE,FALSE,,,,,,-32.04815,,,,,Public School,,,"61 Dellar Road, MADDINGTON WA 6109",Thornlie,Yule Brook College,Thornlie,WA
,115.38091,FALSE,FALSE,FALSE,FALSE,,,,,,-33.767491,,,,,Community Hall,,,"804 Acton Park Road, ACTON PARK WA 6280",Vasse,Acton Park Hall,Vasse,WA
,115.37683,FALSE,FALSE,FALSE,FALSE,,,,,,-33.64003,,,,,Public School,,,"23-25 Avocet Boulevard, BUSSELTON WA 6280",Vasse,Busselton Primary School,Vasse,WA
,115.32464,FALSE,FALSE,FALSE,FALSE,,,,,,-33.65734,,,,,Public School,,,"136-156 Bussell Highway, BUSSELTON WA 6280",Vasse,Busselton Senior High School,Vasse,WA
,115.2455556,FALSE,FALSE,FALSE,FALSE,,,,,,-33.67777777,,,,,Public School,,,"30 Vasse Yallingup Siding Road, VASSE WA 6280",Vasse,Cape Naturaliste College,Vasse,WA
,115.35029,FALSE,FALSE,FALSE,FALSE,,,,,,-33.646662,,,,,Community Hall,,,"Adelaide Street, BUSSELTON WA 6280",Vasse,Churchill Park Hall,Vasse,WA
,115.102105,FALSE,FALSE,FALSE,FALSE,,,,,,-33.603517,,,,,Community Hall,,,"44 Gifford Road, DUNSBOROUGH WA 6281",Vasse,Dunsborough Hall,Vasse,WA
,115.105138,FALSE,FALSE,FALSE,FALSE,,,,,,-33.621059,,,,,Community Hall,,,"Dunsborough Lakes Drive, DUNSBOROUGH WA 6281",Vasse,Naturaliste Community Centre,Vasse,WA
,115.197903,FALSE,FALSE,FALSE,FALSE,,,,,,-33.940409,,,,,Community Hall,,,"Rosa Brook Road, ROSA BROOK WA 6285",Vasse,Rosa Brook Hall,Vasse,WA
,115.3145,FALSE,FALSE,FALSE,FALSE,,,,,,-33.65457,,,,,Public School,,,"11-17 Bower Road, BUSSELTON WA 6280",Vasse,West Busselton Primary School,Vasse,WA
,115.034256,FALSE,FALSE,FALSE,FALSE,,,,,,-33.64654,,,,,Community Hall,,,"2305 Caves Road, YALLINGUP WA 6282",Vasse,Yallingup Hall,Vasse,WA
,115.910128,FALSE,FALSE,FALSE,FALSE,,,,,,-32.009919,,,,,Community Hall,,,"Nyamup Way, BENTLEY WA 6102",Victoria Park,Bentley Community Centre,Victoria Park,WA
,115.912318,FALSE,FALSE,FALSE,FALSE,,,,,,-31.981062,,,,,Community Hall,,,"2 Memorial Avenue, CARLISLE WA 6101",Victoria Park,Carlisle Memorial Hall,Victoria Park,WA
,115.901115,FALSE,FALSE,FALSE,FALSE,,,,,,-31.971239,,,,,Community Hall,,,"61 Kitchener Avenue, VICTORIA PARK WA 6100",Victoria Park,Handa Hall (with-in Perron Centre),Victoria Park,WA
,115.900873,FALSE,FALSE,FALSE,FALSE,,,,,,-32.003814,,,,,Other,,,"26 Plantation Drive, BENTLEY WA 6102",Victoria Park,Swan Village Of Care,Victoria Park,WA
,115.80791,FALSE,FALSE,FALSE,FALSE,,,,,,-31.77924,,,,,Church,,,"Calabrese Avenue, WANNEROO WA 6065",Wanneroo,Crossways Uniting Church,Wanneroo,WA
,115.792725,FALSE,FALSE,FALSE,FALSE,,,,,,-31.715304,,,,,Public School,,,"87 St Stephens Crescent, TAPPING WA 6065",Wanneroo,Tapping Primary School,Wanneroo,WA
,115.756493,FALSE,FALSE,FALSE,FALSE,,,,,,-32.424137,,,,,Community Hall,,,"Tangadee Road, GOLDEN BAY WA 6174",Warnbro,Coastal Community Centre,Warnbro,WA
,115.764814,FALSE,FALSE,FALSE,FALSE,,,,,,-32.342762,,,,,Public School,,,"109 Coronata Drive, WARNBRO WA 6169",Warnbro,Koorana Primary School,Warnbro,WA
"sausage sizzle, drinks, tea and coffee, cakes, craft and Antz cold brew. Vote 1 Millen!!",115.90233,FALSE,FALSE,TRUE,TRUE,,,2017-03-08 13:22:20.976271+00,2017-03-08 13:22:20.976271+00,,-31.99754,Millen Primary School Sausage Sizzle and Cake Stall,,User-submitted,"{""has_coffee"":true}",Public School,,,"Playfield Street, EAST VICTORIA PARK WA 6101",Victoria Park,Millen Primary School,Victoria Park,WA
"Sausage Sizzle, Bacon and Egg rolls, Cake stall",116.02365,FALSE,FALSE,TRUE,TRUE,,,2017-03-08 13:19:22.502881+00,2017-03-08 13:19:22.502881+00,,-31.829561,Sausage Sizzle and Cake Stall,,User-submitted,"{""has_bacon_and_eggs"":true}",Public School,,,"60 Argyle Street, HERNE HILL WA 6056",West Swan,Herne Hill Primary School,West Swan,WA
,115.797147,FALSE,FALSE,FALSE,TRUE,,,2017-03-08 13:49:04.191351+00,2017-03-08 13:49:04.191351+00,,-31.698959,,,Twitter,{},Public School,,,"40 Joseph Banks Blvd, BANKSIA GROVE WA 6031",West Swan,Joseph Banks Secondary College,West Swan,WA
,115.983331,FALSE,FALSE,FALSE,TRUE,,,2017-03-09 12:12:59.980779+00,2017-03-09 12:12:59.980779+00,,-31.858009,,,Facebook,"{""has_bacon_and_eggs"":true}",Public School,,,"65 Coast Road, WEST SWAN WA 6055",West Swan,Caversham Primary School,West Swan,WA
,115.89092,FALSE,FALSE,TRUE,FALSE,,,2017-03-09 12:19:16.308869+00,2017-03-09 12:19:16.308869+00,,-31.8452,,,Facebook,{},Public School,,,"Illawarra Crescent South (cnr Cassowary Road), BALLAJURA WA 6066",West Swan,Ballajura Community College,West Swan,WA
Sausage Sizzle,117.61807,FALSE,FALSE,FALSE,TRUE,,,2017-03-10 06:21:40.23483+00,2017-03-10 06:21:40.23483+00,,-34.48277,Kendenup Primary School,,User-Submitted,{},Public School,,,"111 Austin Street, KENDENUP WA 6323",Warren-Blackwood,Kendenup Primary School,Warren-Blackwood,WA
"Vegan, gluten-free, soy, free trade sausage sizzle",117.3016,FALSE,FALSE,FALSE,TRUE,,,2017-03-11 02:07:19.84353+00,2017-03-11 02:07:19.84353+00,,-34.92911,,,,"{""has_vego"":true}",Community Hall,,,"1 Walter Road, SCOTSDALE WA 6333",Warren-Blackwood,Scotsdale Hall,Warren-Blackwood,WA
,115.754625,FALSE,TRUE,FALSE,FALSE,,,2017-03-11 05:43:43.053395+00,2017-03-11 05:43:43.053395+00,,-32.335073,,,Twitter,{},Public School,,,"45 Axminister Street, WARNBRO WA 6169",Warnbro,Warnbro Primary School,Warnbro,WA
,115.758064,FALSE,FALSE,FALSE,FALSE,,,,,,-32.409313,,,,,Community Hall,,,"4 Oasis Dr, SECRET HARBOUR WA 6173",Warnbro,Secret Harbour Community Hall,Warnbro,WA
,115.757875,FALSE,FALSE,FALSE,FALSE,,,,,,-32.345416,,,,,Public School,,,"2 Swallowtail Parade, WARNBRO WA 6169",Warnbro,Warnbro Community High School,Warnbro,WA
,115.15629,FALSE,FALSE,FALSE,FALSE,,,,,,-34.31411,,,,,Community Hall,,,"66 Allnutt Terrace, AUGUSTA WA 6290",Warren-Blackwood,Augusta Community Resource Centre,Warren-Blackwood,WA
,116.385319,FALSE,FALSE,FALSE,FALSE,,,,,,-33.830901,,,,,Other,,,"37 Abel Street, BOYUP BROOK WA 6244",Warren-Blackwood,Boyup Brook Ambulance Centre,Warren-Blackwood,WA
,116.137513,FALSE,FALSE,FALSE,FALSE,,,,,,-33.958051,,,,,Community Hall,,,"1 Steere Street, BRIDGETOWN WA 6255",Warren-Blackwood,Bridgetown Lesser Hall,Warren-Blackwood,WA
,117.359227,FALSE,FALSE,FALSE,FALSE,,,,,,-34.967241,,,,,Community Hall,,,"Brazier Street, DENMARK WA 6333",Warren-Blackwood,Denmark Recreation Centre,Warren-Blackwood,WA
,116.15079,FALSE,FALSE,FALSE,FALSE,,,,,,-34.24579,,,,,Public School,,,"O'Connor Street, MANJIMUP WA 6258",Warren-Blackwood,East Manjimup Primary School,Warren-Blackwood,WA
,116.05913,FALSE,FALSE,FALSE,FALSE,,,,,,-33.8511,,,,,Public School,,,"7 Blackwood Road, GREENBUSHES WA 6254",Warren-Blackwood,Greenbushes Primary School,Warren-Blackwood,WA
,115.096,FALSE,FALSE,FALSE,FALSE,,,,,,-34.21807,,,,,Public School,,,"12612 Bussell Highway, KARRIDALE WA 6288",Warren-Blackwood,Karridale Primary School,Warren-Blackwood,WA
,116.145127,FALSE,FALSE,FALSE,FALSE,,,,,,-34.240963,,,,,Community Hall,,,"37 Rose Street, MANJIMUP WA 6258",Warren-Blackwood,Manjimup Town Hall,Warren-Blackwood,WA
,115.07344,FALSE,FALSE,FALSE,FALSE,,,,,,-33.95475,,,,,Public School,,,"158 Bussell Highway, MARGARET RIVER WA 6285",Warren-Blackwood,Margaret River Senior High School,Warren-Blackwood,WA
,116.45262,FALSE,FALSE,FALSE,FALSE,,,,,,-33.93213,,,,,Community Hall,,,"Boyup Brook-Cranbrook Road, MAYANUP WA 6244",Warren-Blackwood,Mayanup Hall,Warren-Blackwood,WA
,115.763584,FALSE,FALSE,FALSE,FALSE,,,,,,-33.980864,,,,,Community Hall,,,"7 Cross Street, NANNUP WA 6275",Warren-Blackwood,Nannup RSL Hall,Warren-Blackwood,WA
,117.70245,FALSE,FALSE,FALSE,FALSE,,,,,,-34.77251,,,,,Community Hall,,,"Beech Road, NARRIKUP WA 6326",Warren-Blackwood,Narrikup District Hall,Warren-Blackwood,WA
,116.11805,FALSE,FALSE,FALSE,FALSE,,,,,,-34.6333,,,,,Public School,,,"Zamia Street, NORTHCLIFFE WA 6262",Warren-Blackwood,Northcliffe District High School,Warren-Blackwood,WA
,117.187922,FALSE,FALSE,FALSE,FALSE,,,,,,-34.992107,,,,,Community Hall,,,"2830 South Coast Highway, PARRYVILLE WA 6333",Warren-Blackwood,Parryville Hall,Warren-Blackwood,WA
,116.02794,FALSE,FALSE,FALSE,FALSE,,,,,,-34.44673,,,,,Other,,,"1 Club Road, PEMBERTON WA 6260",Warren-Blackwood,Pemberton Sports Club,Warren-Blackwood,WA
,116.25112,FALSE,FALSE,FALSE,FALSE,,,,,,-34.434186,,,,,Community Hall,,,"Wheatley Coast Road, QUINNINUP WA 6258",Warren-Blackwood,Quinninup Community Centre,Warren-Blackwood,WA
,116.88998,FALSE,FALSE,FALSE,FALSE,,,,,,-34.95693,,,,,Community Hall,,,"976 Valley of the Giants Road, TINGLEDALE WA 6333",Warren-Blackwood,Tingledale Hall,Warren-Blackwood,WA
,116.732523,FALSE,FALSE,FALSE,FALSE,,,,,,-34.977663,,,,,Community Hall,,,"Pier Street, WALPOLE WA 6398",Warren-Blackwood,Walpole Community Centre,Warren-Blackwood,WA
,115.099978,FALSE,FALSE,FALSE,FALSE,,,,,,-34.025623,,,,,Community Hall,,,"10418 Bussell Highway, WITCHCLIFFE WA 6286",Warren-Blackwood,Witchcliffe Druids Hall,Warren-Blackwood,WA
,116.16863,FALSE,FALSE,FALSE,FALSE,,,,,,-34.05297,,,,,Community Hall,,,"South Western Highway, YORNUP WA 6256",Warren-Blackwood,Yornup Hall,Warren-Blackwood,WA
,115.80887,FALSE,FALSE,FALSE,FALSE,,,,,,-31.70206,,,,,Public School,,,"14 Viridian Drive, BANKSIA GROVE WA 6031",West Swan,Banksia Grove Primary School,West Swan,WA
,115.93375,FALSE,FALSE,FALSE,FALSE,,,,,,-31.85587,,,,,Other,,,"375 Marshall Road, BEECHBORO WA 6063",West Swan,Cracovia Club,West Swan,WA
Sausages and Cold Drinks,115.757275,FALSE,FALSE,FALSE,TRUE,,,2017-03-08 13:09:55.784492+00,2017-03-08 13:09:55.784492+00,,-32.439977,P&C Sausage Sizzle,,User-submitted,{},Public School,,,"Naval Avenue, SINGLETON WA 6175",Warnbro,Singleton Primary School,Warnbro,WA
"Sausages, Egg & Bacon rolls, cake stall, book & toy stall we have it all!",115.77102,FALSE,FALSE,TRUE,TRUE,,,2017-02-18 07:22:33.874736+00,2017-02-18 07:22:33.874736+00,https://www.facebook.com/pages/Wembley-Downs-Primary-School-PC/290821727734550,-31.91095,Wembley Downs Primary School,,,"{""has_vego"":true}",Public School,,,"Bournemouth Crescent, WEMBLEY DOWNS WA 6019",Churchlands,Wembley Downs Primary School,Churchlands,WA
"coffee, cakes, book stall, breakfast rolls, sausage sizzle",115.80273,FALSE,FALSE,TRUE,TRUE,,,2017-03-08 13:08:25.637762+00,2017-02-18 07:22:25.12689+00,,-32.07271,Samson PS,,User-submitted,"{""has_vego"":true,""has_halal"":true,""has_bacon_and_eggs"":true}",Public School,,,"22 Lawrence Way, SAMSON WA 6163",Willagee,Samson Primary School,Willagee,WA
"coffee, market stalls, books",115.7642,FALSE,FALSE,TRUE,TRUE,,,2017-03-09 10:17:07.601651+00,2017-02-08 09:50:04.854343+00,,-31.81174,South Padbury Primary School,,User-Submitted,"{""has_coffee"":true,""has_vego"":false,""has_free_text"":""Market, Books""}",Public School,,,"56 Warburton Avenue, PADBURY WA 6025",Hillarys,South Padbury Primary School,Hillarys,WA
Traditional Aussie Sausage Sizzle - snags & onions in fresh rolls!,115.89154,FALSE,FALSE,FALSE,TRUE,,,2017-03-09 12:18:14.462097+00,2017-02-21 09:14:59.121902+00,,-31.83563,Ballajura Primary Sausage Sizzle,,"User-submitted, Facebook",{},Public School,,,"175 Illawarra Crescent South , BALLAJURA WA 6066",West Swan,Ballajura Primary School,West Swan,WA
,115.823018,FALSE,FALSE,TRUE,TRUE,,,2017-03-09 12:27:55.682511+00,2017-03-09 12:27:55.682511+00,,-32.062048,,,Facebook,{},Public School,,,"Ochiltree Way, KARDINYA WA 6163",Willagee,Kardinya Primary School,Willagee,WA
"Sausages, bread rolls, cakes, biscuits, slices, coffee",115.864947,FALSE,FALSE,TRUE,TRUE,,,2017-03-11 01:19:40.114228+00,2017-02-08 09:51:05.21373+00,http://www.sdps.wa.edu.au/,-31.893835,Primary School Sausage Sizzle and Cake Stall,,,{},Public School,,,"5 Sutherland Avenue, DIANELLA WA 6059",Mount Lawley,Sutherland Dianella Primary School,Mount Lawley,WA
"Bacon and egg rolls, Sausage sizzle, cakes and coffee from Hot Shots coffee Van.",116.1330842,FALSE,FALSE,TRUE,TRUE,,,2017-03-11 06:02:35.818504+00,2017-02-22 11:37:04.237426+00,,-31.88329868,Parkerville Primary P & C Fundraiser,,,"{""has_coffee"":true,""has_bacon_and_eggs"":true}",Public School,,,"16 Parker Road, PARKERVILLE WA 6081",Kalamunda,Parkerville Primary School,Kalamunda,WA
"Delicious bacon & egg rolls, sausages,  buns, and drinks - a P&C fundraiser for Applecross Primary School",115.83897,FALSE,FALSE,TRUE,TRUE,,,2017-03-11 02:56:27.609923+00,2017-02-22 00:00:30.968998+00,https://www.facebook.com/ApplecrossPrimaryPandC/,-32.01127,Applecross Primary School P & C,"$3 sausage sizzle, Bacon and Egg Rolls for $5, Soft Drinks for $2. ",Facebook,"{""has_bacon_and_eggs"":true}",Public School,,,"65 Kintail Road, APPLECROSS WA 6153",Bateman,Applecross Primary School,Bateman,WA
"Sausage sizzle, onions, sauces and soft drinks.  A cake stall too.  Yummy baked goods. ",115.8692,TRUE,FALSE,TRUE,TRUE,,,2017-03-11 05:19:46.664333+00,2017-02-22 11:37:39.455599+00,,-32.05924,Oberthure Primary School ,,,"{""has_bacon_and_eggs"":true}",Public School,,,"Nicholls Crescent, BULL CREEK WA 6149",Riverton,Oberthur Primary School,Riverton,WA
,115.805,FALSE,FALSE,FALSE,TRUE,,,2017-03-11 07:26:56.356359+00,2017-03-11 07:26:56.356359+00,,-32.05156,,,,"{""has_bacon_and_eggs"":true}",Public School,,,"24 Winnacott Street, WILLAGEE WA 6156",Willagee,Caralee Community School,Willagee,WA
,116.000505,FALSE,FALSE,FALSE,TRUE,,,2017-03-11 07:33:12.667125+00,2017-03-11 02:57:57.84883+00,,-31.808318,1st Herne Hill Scout Group,,Facebook,"{""has_vego"":true}",Community Hall,,,"Corner West Swan Road and Henley Street, HENLEY BROOK WA 6055",West Swan,West Swan Hall,West Swan,WA
,115.83457,FALSE,FALSE,FALSE,FALSE,,,,,,-32.10552,,,,,Public School,,,"62 Mason Court, SOUTH LAKE WA 6164",Willagee,South Lake Primary School,Willagee,WA
,115.81493,FALSE,FALSE,FALSE,FALSE,,,,,,-32.053574,,,,,Community Hall,,,"Corner North Lake Road and Archibald street, WILLAGEE WA 6156",Willagee,Southern Districts Senior Centre,Willagee,WA
,115.81541,FALSE,FALSE,FALSE,FALSE,,,,,,-32.0541,,,,,Community Hall,,,"Corner North Lake Road and, Archibald Street, WILLAGEE WA 6156",Willagee,Southern Districts Senior Centre (Drive-in),Willagee,WA
"Cake stall, sausage sizzle, cold drinks, books and magazines, produce. Supporting Chaplaincy work at High School",117.12328,FALSE,FALSE,TRUE,TRUE,,,2017-02-08 09:49:08.154691+00,2017-02-08 09:49:08.154691+00,,-32.65884,KDHS Youthcare Cake Stall and Sausage Sizzle,,,{},Community Hall,,,"Great Southern Highway, POPANYINNING WA 6309",Roe,Popanyinning  Agricultural Hall,Roe,WA
"Sausage in a Bun, Drinks and Cakes proceeds going to the Police Ranger unit to help fund Camps and supporting community Events such as the Ellenbrook ANZAC Vigil ",115.98633,FALSE,FALSE,TRUE,TRUE,,,2017-02-08 09:50:34.2569+00,2017-02-08 09:50:34.2569+00,,-31.7945,SVACS Police Rangers,,,{},Public School,,,"Swanleigh Parade, AVELEY WA 6069",Swan Hills,Swan Valley Anglican Community School,Swan Hills,WA
"Sausages, bacon and egg burgers (limited)  and drinks for sale. All proceeds to Melville primary school p&c. ",115.80693,FALSE,FALSE,FALSE,TRUE,,,2017-02-13 01:30:49.18615+00,2017-02-13 01:30:49.18615+00,,-32.03919,Melville primary school sausage sizzle,,,{},Public School,,,"70 Curtis Road, MELVILLE WA 6156",Bicton,Melville Primary School,Bicton,WA
"sausages, cakes and barista coffee",115.760972,FALSE,FALSE,TRUE,TRUE,,,2017-03-10 12:33:23.56371+00,2017-02-21 23:59:22.173437+00,,-32.002046,P&C stall,,User-Submitted,"{""has_coffee"":true}",Public School,,,"530 Stirling Highway, PEPPERMINT GROVE WA 6011",Cottesloe,Cottesloe Primary School,Cottesloe,WA
"Fundraiser run by YDHS P&C with Yummy Cakes, Sausage Sizzle and bargain priced Pre-loved Book Sale",115.636,FALSE,FALSE,TRUE,TRUE,,,2017-02-18 07:22:42.924675+00,2017-02-18 07:22:42.924675+00,,-31.55134,"Yanchep District High School P&C Sausage Sizzle, Cake Stall and Book Sale",,,"{""has_vego"":true}",Public School,,,"15 Primary Road, YANCHEP WA 6035",Butler,Yanchep District High School,Butler,WA
"Sausage sizzle, cakes, coffee and drinks",115.77023,FALSE,FALSE,TRUE,TRUE,,,2017-02-21 09:18:33.372051+00,2017-02-21 09:18:33.372051+00,,-31.973371,Swanbourne Primary School,,,{},Public School,,,"Narla Road, SWANBOURNE WA 6010",Cottesloe,Swanbourne Primary School,Cottesloe,WA
"Bacon & Egg Rolls, Sausage & Egg Rolls, Coffee Van onsite",115.80867,FALSE,FALSE,FALSE,TRUE,,,2017-03-08 12:52:10.796624+00,2017-03-08 12:52:10.796624+00,,-32.08217,Coolbellup Community School P&C ,,User-submitted,"{""has_coffee"":true,""has_bacon_and_eggs"":true}",Public School,,,"15 Waverley Road, COOLBELLUP WA 6163",Willagee,Coolbellup Community School,Willagee,WA
A delicious sausage sizzle and traditional bake sale for all voters and visitors - we will also have a coffee van available on the day!,115.75788,FALSE,FALSE,TRUE,TRUE,,,2017-03-04 12:14:59.988702+00,2017-03-04 12:14:59.988702+00,,-31.74707,Connolly P&C Election Day Sausage Sizzle and Bake Sale,,User-submitted,"{""has_coffee"":true,""has_halal"":false}",Public School,,,"Fairway Circle, CONNOLLY WA 6027",Joondalup,Connolly Primary School,Joondalup,WA
coffee van and ice cream truck,115.778923,FALSE,FALSE,TRUE,TRUE,,,2017-03-09 10:17:21.421245+00,2017-03-04 12:35:53.632272+00,,-32.092476,Phoenix Primary School,,User-submitted,"{""has_coffee"":true,""has_vego"":false,""has_free_text"":""Ice cream van""}",Public School,,,"28 Phoenix Road, HAMILTON HILL WA 6163",Fremantle,Phoenix Primary School,Fremantle,WA
"Sausage-in-a-bun, onions, sauce, drinks. Raising funds to help our school upgrade its undercover area.",115.64322,FALSE,FALSE,FALSE,TRUE,,,2017-03-11 01:44:54.048823+00,2017-03-04 12:31:31.292718+00,http://www.falconps.wa.edu.au,-32.59302,Falcon Primary School P&C Association,,User-submitted,{},Public School,,,"30 Baloo Crescent, FALCON WA 6210",Dawesville,Falcon Primary School,Dawesville,WA
"Come vote and grab a bite to eat and drink, and know youre supporting the next generation of Australian kids.  All proceeds going to our Chook and Kitchen garden project this year",115.84548,FALSE,FALSE,TRUE,TRUE,,,2017-03-04 12:08:02.421902+00,2017-03-04 12:08:02.421902+00,,-32.05127,Bateman Primary School P&C - WA State Election 2017,,User-submitted,"{""has_vego"":true}",Public School,,,"2 Bartling Crescent, BATEMAN WA 6150",Bateman,Bateman Primary School,Bateman,WA
"Sausage Sizzle, soft drinks and coffee",115.75115,FALSE,FALSE,FALSE,TRUE,,,2017-03-04 12:12:01.027611+00,2017-03-04 12:12:01.027611+00,http://www.charthouseps.wa.edu.au/parentsandcommunity.php?id=29,-32.31797,Charthouse P&C,,User-submitted,"{""has_coffee"":true}",Public School,,,"43 Rand Avenue, WAIKIKI WA 6169",Rockingham,Charthouse Primary School,Rockingham,WA
sausages bread rolls cakes drinks ,115.864382,FALSE,FALSE,TRUE,TRUE,,,2017-03-11 04:48:42.104073+00,2017-03-04 12:13:42.05061+00,,-31.925472,st pauls p&c,,User-submitted,"{""has_vego"":true,""has_bacon_and_eggs"":true}",Private School,,,"7 Learoyd Street, MOUNT LAWLEY WA 6050",Mount Lawley,St Paul's Primary School,Mount Lawley,WA
"Bacon and Egg rolls for brekkie, Sausage Sizzle and assorted homemade goodies",116.047699,FALSE,FALSE,TRUE,TRUE,,,2017-03-04 12:20:19.387365+00,2017-02-21 09:15:10.866885+00,,-31.992474,Falls Road P&C Sausage Sizzle & Cake Stall,,User-submitted,"{""has_bacon_and_eggs"":true}",Public School,,,"50 Falls Road, LESMURDIE WA 6076",Kalamunda,Falls Road Primary School,Kalamunda,WA
"cake stall, sausage sizzle, cooldrinks",115.786853,FALSE,FALSE,TRUE,TRUE,,,2017-03-04 12:21:11.932805+00,2017-03-04 12:21:11.932805+00,,-32.03289,Bicton Primary School P&C,,User-submitted,{},Public School,,,"View Terrace, BICTON WA 6157",Bicton,Bicton Primary School,Bicton,WA
"Egg & Bacon Rolls, Sausage Sizzle, Cup Cakes and Cold Drinks (Lamb Shanks at lunchtime)- All proceeds support the Music Program at Greenwood College.  There will also be a Coffee van on site.  Find us at the front of the College (main entrance)",115.7915,FALSE,FALSE,TRUE,TRUE,,,2017-03-04 12:22:02.434285+00,2017-03-04 12:22:02.434285+00,,-31.82782,Greenwood College Parent Music Committee,,User-submitted,"{""has_coffee"":true,""has_bacon_and_eggs"":true}",Public School,,,"79 Coolibah Drive, GREENWOOD WA 6024",Kingsley,Greenwood College,Kingsley,WA
"Bacon and egg burgers for breakfast, with a delicious vegetarian option and a lunch time sausage sizzle.",115.907985,FALSE,FALSE,FALSE,TRUE,,,2017-03-04 12:23:03.283193+00,2017-03-04 12:23:03.283193+00,http://eastvictoriaparkps.wa.edu.au/,-31.979377,East Vic Park Primary sausage sizzle,,User-submitted,"{""has_coffee"":true,""has_vego"":true,""has_bacon_and_eggs"":true}",Public School,,,"28-30 Beatty Avenue, EAST VICTORIA PARK WA 6101",Victoria Park,East Victoria Park Primary School,Victoria Park,WA
"School P&C Fundraiser - Sausages, Bacon Rolls, Cool Drinks, Cake Stall",115.76064,FALSE,FALSE,TRUE,TRUE,,,2017-03-04 12:24:00.064937+00,2017-03-04 12:24:00.064937+00,http://padburyps.wa.edu.au,-31.80478,"Padbury Primary School Sausage Sizzle & Cake Stall, MacDonald & Giles Avenues",,User-submitted,"{""has_bacon_and_eggs"":true}",Public School,,,"MacDonald Avenue, PADBURY WA 6025",Hillarys,Padbury Primary School,Hillarys,WA
"Sausages, Onions, and Rolls and a second hand book stall.",115.78842,FALSE,FALSE,FALSE,TRUE,,,2017-03-04 12:26:05.04433+00,2017-03-04 12:26:05.04433+00,,-31.80365,Creaney Primary School Sausage sizzle and Book Stall,,User-submitted,"{""has_coffee"":false}",Public School,,,"6 Creaney Drive, KINGSLEY WA 6026",Kingsley,Creaney Primary School,Kingsley,WA
"Snags, cold drinks, icy poles fundraising for a playground shade cover",116.67616,FALSE,FALSE,FALSE,TRUE,,,2017-03-04 12:32:28.577853+00,2017-02-18 07:23:50.863625+00,www.northamprimary.com.au,-31.6514,NPS P&C ,,User-submitted,{},Public School,,,"14 Duke Street, NORTHAM WA 6401",Central Wheatbelt,Northam Primary School,Central Wheatbelt,WA
"Bacon and Egg Burgers, Sausage Sizzle, Cake Stall, Cool Drink, Water, Juice Boxes",115.922947,FALSE,FALSE,TRUE,TRUE,,,2017-03-05 13:36:08.312903+00,2017-03-05 13:36:08.312903+00,https://m.facebook.com/WDHSPnC/,-32.845031,Waroona District High School P&C - fundraising fot CCTV!,,User-submitted,"{""has_bacon_and_eggs"":true}",Senior Citizens Centre,,,"Millar Street, WAROONA WA 6215",Murray-Wellington,Waroona Senior Citizens Centre,Murray-Wellington,WA
"bacon and egg wraps, sausage sizzle, cakes, second hand books and jumble",115.856284,FALSE,FALSE,TRUE,TRUE,,,2017-03-05 13:40:39.379625+00,2017-03-05 13:40:39.379625+00,,-31.929998,NPPS mini fete,,User-submitted,"{""has_coffee"":false,""has_vego"":true,""has_halal"":false,""has_bacon_and_eggs"":true}",Public School,,,"3 Albert Street, NORTH PERTH WA 6006",Perth,North Perth Primary School,Perth,WA
9am - 3pm,115.92848,FALSE,FALSE,TRUE,TRUE,,,2017-03-08 23:41:34.510918+00,2017-03-04 12:29:57.860445+00,,-32.03903,Bannister Creek Primary School,,User-submitted,{},Public School,,,"20 Purley Crescent, LYNWOOD WA 6147",Cannington,Bannister Creek Primary School,Cannington,WA
,115.767875,FALSE,FALSE,FALSE,FALSE,,,2017-03-09 11:48:01.820523+00,2017-03-04 12:10:44.615685+00,,-32.357978,,,,"{""has_vego"":false,""has_halal"":false}",Public School,,,"26 Laguardia Loop , PORT KENNEDY WA 6172",Warnbro,Rockingham Lakes Primary School,Warnbro,WA
"Bacon Egg buns, sausage sizzle, drinks, coffee van, cake stall and amazing raffle prizes",115.736233,FALSE,FALSE,TRUE,TRUE,,,2017-03-10 12:28:53.814725+00,2017-03-08 12:27:01.51911+00,,-31.718466,Kinross Primary School P&C,,User-submitted,"{""has_coffee"":true,""has_vego"":true,""has_halal"":true,""has_bacon_and_eggs"":true}",Public School,,,"64 Kinross Drive, KINROSS WA 6028",Burns Beach,Kinross Primary School,Burns Beach,WA
,115.83247,TRUE,FALSE,TRUE,TRUE,,,2017-03-11 08:19:38.217868+00,2017-03-06 03:45:32.626411+00,,-31.93914,,,Twitter,{},Public School,,,"58 Northwood Street, WEST LEEDERVILLE WA 6007",Churchlands,West Leederville Primary School,Churchlands,WA
Hot Cross Buns and Drinks,115.913862,FALSE,FALSE,TRUE,FALSE,,,2017-03-05 13:41:32.33928+00,2017-03-05 13:41:32.33928+00,www.bayswaterfamilycentre.org.au,-31.920288,Bayswater Family Centre,,User-submitted,{},Senior Citizens Centre,,,"27 King William Street, BAYSWATER WA 6053",Maylands,Bayswater Senior Citizens Centre,Maylands,WA
sausage sizzle bacon egg burgers OVER 30 market stalls kids entertainment and much more!!!,115.777276,FALSE,FALSE,TRUE,TRUE,,,2017-03-05 13:57:57.316332+00,2017-03-05 13:57:57.316332+00,,-31.897494,FETE on election Day,,User-submitted,"{""has_vego"":true,""has_bacon_and_eggs"":true}",Public School,,,"203 St Brigids Terrace, DOUBLEVIEW WA 6018",Scarborough,Doubleview Primary School,Scarborough,WA
Awesome Sausage Sizzle with Bacon and Egg Burgers ($5) Sausage Sizzle ($3) and Cold Drinks ($1.50) all profits to the P+C which is in turn spent on the students.,117.85608,FALSE,FALSE,FALSE,TRUE,,,2017-03-06 03:44:39.732676+00,2017-03-06 03:44:39.732676+00,,-35.00205,Mount Lockyer Primary School P+C,,User-submitted,"{""has_bacon_and_eggs"":true}",Public School,,,"Humphreys Street, LOCKYER WA 6330",Albany,Mt Lockyer Primary School,Albany,WA
,115.86288,FALSE,FALSE,FALSE,TRUE,,,2017-03-06 03:52:13.215645+00,2017-03-06 03:52:13.215645+00,,-31.85505,,,Facebook,"{""has_halal"":true,""has_free_text"":""Slushie machine""}",Public School,,,"45 Dryandra Avenue, MIRRABOOKA WA 6061",Mirrabooka,Dryandra Primary School,Mirrabooka,WA
"Sausage Sizzle , Bacon and Egg Rolls and Cake Stall",115.85615,FALSE,FALSE,TRUE,TRUE,,,2017-03-06 13:33:46.773885+00,2017-03-06 13:33:46.773885+00,www.westleeming.wa.edu.au,-32.07039,West Leeming Primary School Sausage Sizzle,,User-submitted,"{""has_halal"":false,""has_bacon_and_eggs"":true}",Public School,,,"20 Westall Terrace, LEEMING WA 6149",Jandakot,West Leeming Primary School,Jandakot,WA
"Bacon and egg rolls, cakes, drinks, coffee, ice cream, sausages and kids entertainment, craft stalls and jumble sale",115.953843,FALSE,FALSE,TRUE,TRUE,,,2017-03-06 13:34:42.610182+00,2017-03-06 13:34:42.610182+00,,-31.907705,Bassendean Primary School,,User-submitted,"{""has_coffee"":true,""has_vego"":false}",Public School,,,"65 West Road, BASSENDEAN WA 6054",Bassendean,Bassendean Primary School,Bassendean,WA
"Sausage, bread rolls, tea, coffee, water and soft drinks to raise funds for Wirrabirra P&C",115.980389,FALSE,FALSE,FALSE,TRUE,,,2017-03-06 13:35:38.739025+00,2017-03-06 13:35:38.739025+00,,-32.074654,Primary School Sausage Sizzle,,User-submitted,"{""has_coffee"":true}",Public School,,,"71 Corfield Street, GOSNELLS WA 6110",Southern River,Wirrabirra Primary School,Southern River,WA
Sausages for the School,115.80116,FALSE,FALSE,FALSE,TRUE,,,2017-03-06 13:37:12.026224+00,2017-03-06 13:37:12.026224+00,,-31.81516,Goollelal Primary School Sausage Sizzle,,User-submitted,"{""has_vego"":true}",Public School,,,"30 Cadogan Street, KINGSLEY WA 6026",Kingsley,Goollelal Primary School,Kingsley,WA
,115.862361,FALSE,FALSE,FALSE,TRUE,,,2017-03-06 13:38:15.726324+00,2017-03-06 03:53:09.966988+00,,-31.837902,,,"Facebook, twitter","{""has_free_text"":""Beef n gravy rolls, breakfast pancakes""}",Public School,,,"50 Burbridge Avenue, KOONDOOLA WA 6064",Mirrabooka,Koondoola Primary School,Mirrabooka,WA
"Sausages, Onions, Cheeseburgers, Various Cool Drinks",115.81685,FALSE,FALSE,FALSE,TRUE,,,2017-03-07 12:51:42.736791+00,2017-03-07 12:51:42.736791+00,facebook.com/HockingPrimarySchoolPc,-31.76971,Hocking Primary School P&C Election BBQ,,User-submitted,{},Public School,,,"50 Gungurru Avenue, HOCKING WA 6065",Wanneroo,Hocking Primary School,Wanneroo,WA
bacon and egg roll cake stall and sausage sizzle,115.940901,FALSE,FALSE,TRUE,TRUE,,,2017-03-08 12:14:41.02202+00,2017-03-08 12:14:41.02202+00,,-31.914852,Ashfield Primary School Bacon and Egg stall,,User-submitted,"{""has_vego"":true,""has_halal"":true,""has_bacon_and_eggs"":true}",Public School,,,"Ashfield Primary School, 65 Margaret Street, ASHFIELD WA 6054",Bassendean,Ashfield Primary School,Bassendean,WA
"Sausages, bun, soft drinks, water",115.815521,FALSE,FALSE,FALSE,TRUE,,,2017-03-08 12:19:16.293079+00,2017-03-08 12:19:16.293079+00,,-32.257132,Peter Carnley Anglican Community School Parents and Friends Assoc,,User-submitted,{},Private School,,,"386 Wellard Road, WELLARD WA 6170","Kwinana, Baldivis",Peter Carnley Anglican Community School,"Kwinana, Baldivis",WA
Sausages and drinks available for sale by the friendly Maddington Primary P&C,115.9871,FALSE,FALSE,FALSE,TRUE,,,2017-03-08 12:19:59.856429+00,2017-03-08 12:19:59.856429+00,,-32.05413,Maddington Primary School,,User-submitted,"{""has_vego"":true,""has_halal"":true}",Public School,,,"1951 Albany Highway, MADDINGTON WA 6109",Thornlie,Maddington Primary School,Thornlie,WA
"Democracy Sausages, Balsamic Onions, Cakes, Biscuits",115.866784,FALSE,FALSE,TRUE,TRUE,,,2017-03-08 12:20:50.521415+00,2017-03-08 12:20:50.521415+00,,-31.940678,Highgate Primary Sausage Sizzle n Cakes,,User-submitted,"{""has_vego"":true,""has_halal"":true}",Public School,,,"147 Lincoln Street, HIGHGATE WA 6003",Perth,Highgate Primary School,Perth,WA
Wattle Grove P&C Bacon & Egg Burger and Sausage Sizzle,115.983154,FALSE,FALSE,FALSE,TRUE,,,2017-03-08 12:29:27.64425+00,2017-03-08 12:29:27.64425+00,,-31.996605,Wattle Grove P&C Bacon & Egg Burger and Sausage Sizzle,,User-submitted,"{""has_vego"":true,""has_bacon_and_eggs"":true}",Public School,,,"73 St John Road, WATTLE GROVE WA 6107",Forrestfield,Wattle Grove Primary School,Forrestfield,WA
Sausage sizzle,115.962571,FALSE,FALSE,FALSE,TRUE,,,2017-03-08 12:30:07.059838+00,2017-03-08 12:30:07.059838+00,,-31.770246,Arbor Grove Primary school sausage sizzle ,,User-submitted,{},Public School,,,"Brookmount Drive, ELLENBROOK WA 6069",Swan Hills,Arbor Grove Primary School,Swan Hills,WA
Bacon & Egg Rolls from 8am - Sausage in a Bun from 9am - Drinks/Icypoles/Entertainment Books 2017/18 available also ,115.94715,FALSE,FALSE,FALSE,TRUE,,,2017-03-08 12:40:19.189434+00,2017-03-04 12:29:00.135999+00,,-32.10206,Bletchley Park Primary School P&C Sausage Sizzle,,User-submitted,"{""has_bacon_and_eggs"":true}",Public School,,,"Balfour Street, SOUTHERN RIVER WA 6110",Southern River,Bletchley Park Primary School,Southern River,WA
"Sausage sizzle, BaconEgg burgers",115.75188,FALSE,FALSE,TRUE,TRUE,,,2017-03-10 08:33:53.653215+00,2017-03-08 12:24:43.65937+00,,-31.76099,Poseidon Primary P&C,,User-submitted,"{""has_bacon_and_eggs"":true}",Public School,,,"97 Poseidon Road, HEATHRIDGE WA 6027",Joondalup,Poseidon Primary School,Joondalup,WA
"Sausage Sizzle , Cold Drinks ",115.948538,FALSE,FALSE,FALSE,TRUE,,,2017-03-08 12:57:56.533458+00,2017-03-08 12:57:56.533458+00,,-32.153018,Forrestdale Primary School P&C,,User-submitted,{},Public School,,,"35 Broome Street, FORRESTDALE WA 6112",Jandakot,Forrestdale Primary School,Jandakot,WA
"Bacon and Egg rolls, sausage sizzle and cakes! ",115.7971,FALSE,FALSE,TRUE,TRUE,,,2017-03-08 13:02:42.847227+00,2017-03-08 13:02:42.847227+00,,-31.84019,Hawker Park Primary School,,User-submitted,"{""has_vego"":true,""has_bacon_and_eggs"":true}",Public School,,,"47 Hawker Avenue, WARWICK WA 6024",Kingsley,Hawker Park Primary School,Kingsley,WA
"bacon and egg rolls, coffee",115.87495,FALSE,FALSE,TRUE,TRUE,,,2017-03-09 11:03:37.306231+00,2017-03-04 12:09:35.908821+00,,-32.07211,Banksia Park Primary School,,User-submitted,"{""has_coffee"":true,""has_vego"":false,""has_bacon_and_eggs"":true}",Public School,,,"2 Hicks Street, LEEMING WA 6149",Jandakot,Banksia Park Primary School,Jandakot,WA
bacon and egg rolls,115.98092,FALSE,FALSE,TRUE,TRUE,,,2017-03-09 11:03:22.262346+00,2017-03-08 12:39:48.629305+00,,-32.36578,Serpentine Primary School,,"User-submitted, Twitter","{""has_coffee"":false,""has_bacon_and_eggs"":true}",Public School,,,"45 Lefroy Street, SERPENTINE WA 6125",Darling Range,Serpentine Primary School,Darling Range,WA
BBQ sausage in a bun with onions & sauce $3.  Drinks $2. Cake stall of homemade treats from 50c.  Charity Raffle.,115.8015,FALSE,FALSE,TRUE,TRUE,,,2017-03-09 12:16:57.969867+00,2017-03-08 12:51:11.90747+00,https://www.facebook.com/events/262364304203297/ ,-31.80828,P&C Sausage Sizzle & Cake Stall & Charity Raffles,,"User-submitted, Facebook","{""has_coffee"":true}",Public School,,,"38 Halidon Street, KINGSLEY WA 6026",Kingsley,Halidon Primary School,Kingsley,WA
"Sausage Sizzle, Bacon and Egg Rolls, Cakes, Muffins, Cookies, Drinks",115.7806479,FALSE,FALSE,TRUE,TRUE,,,2017-03-11 00:52:35.874283+00,2017-03-08 12:33:21.20184+00,,-31.88461373,Newborough Primary Cake Stall & Sausage Sizzle,,"Twitter, User-submitted","{""has_coffee"":true,""has_bacon_and_eggs"":true}",Public School,,,"178 Newborough St, KARRINYUP WA 6018",Scarborough,Newborough Primary School,Scarborough,WA
"Sausage sizzle, bacon & rgg rolls and cake stall",115.8213,FALSE,FALSE,TRUE,TRUE,,,2017-03-08 12:42:19.120763+00,2017-03-08 12:42:19.120763+00,,-32.13237,Beeliar Primary Sausage sizzle and cale stall,,User-submitted,"{""has_bacon_and_eggs"":true}",Public School,,,"86 The Grange , BEELIAR WA 6164",Cockburn,Beeliar Primary School,Cockburn,WA
"Sausages, Buns, Onions Sauces and drinks to fund improvments to our residents standard of living ",115.707756,FALSE,FALSE,FALSE,TRUE,,,2017-03-08 12:44:17.523885+00,2017-03-08 12:44:17.523885+00,,-31.657971,RAAFA Merriwa Hughie Edwards Drive Merriwa,,User-submitted,{},Other,,,"19 Hughie Edwards Drive, MERRIWA WA 6030",Butler,RAAFA Estate - Merriwa,Butler,WA
"Bacon & Egg Burgers (morning), Sausage Sizzle (afternoon), Coffee Van, Cold Drinks, Lollies",116.022876,FALSE,FALSE,FALSE,TRUE,,,2017-03-08 12:44:40.547383+00,2017-03-08 12:44:40.547383+00,www.maidavaleps.wa.edu.au,-31.949431,Maida Vale P & C Bacon & Egg Stall & Sausage Sizzle,,User-submitted,"{""has_coffee"":true,""has_bacon_and_eggs"":true}",Public School,,,"310 Kalamunda Road, MAIDA VALE WA 6057",Forrestfield,Maida Vale Primary School,Forrestfield,WA
"Sausage sizzle, spring rolls, curry puffs, fried rice",118.61282,FALSE,FALSE,FALSE,TRUE,,,2017-03-08 12:46:06.460361+00,2017-03-08 12:46:06.460361+00,,-20.40474,Baler Primary P&C,,User-submitted,"{""has_vego"":true}",Public School,,,"Baler Close, SOUTH HEDLAND WA 6722",Pilbara,Baler Primary School,Pilbara,WA
"Sausage sizzle, bacon & egg burgers, cupcakes and drinks.",115.829737,FALSE,FALSE,TRUE,TRUE,,,2017-03-08 12:54:39.275074+00,2017-03-08 12:54:39.275074+00,,-31.806639,Madeley Primary P&C Sausage Sizzle,,User-submitted,"{""has_bacon_and_eggs"":true}",Public School,,,"Martindale Avenue, MADELEY WA 6065",Girrawheen,Madeley Primary School,Girrawheen,WA
"Cake stall, sausage sizzle, cool drink",115.782624,FALSE,FALSE,TRUE,TRUE,,,2017-03-08 12:57:35.903961+00,2017-03-08 12:26:11.83828+00,,-31.827057,Glengarry Primary School sausage sizzle,,User-submitted,{},Public School,,,"25 Doveridge Drive, DUNCRAIG WA 6023",Carine,Glengarry Primary School,Carine,WA
"Bacon and egg rolls, sausages and Halal",115.90798,FALSE,FALSE,FALSE,TRUE,,,2017-03-08 12:59:05.30966+00,2017-03-08 12:59:05.30966+00,http://www.norandaps.wa.edu.au/,-31.87713,Noranda Primary School ,,User-submitted,"{""has_halal"":true,""has_bacon_and_eggs"":true}",Public School,,,"25 Walmsley Drive, NORANDA WA 6062",Morley,Noranda Primary School,Morley,WA
"Sausages, bread buns, onion and drinks to fund a two-yearly camp for the youth of our church federation.",115.7981819,FALSE,FALSE,FALSE,TRUE,,,2017-03-08 13:01:09.733413+00,2017-03-08 13:00:55.718569+00,,-32.30608822,Church Sausage Sizzle,,User-submitted,{},Private School,,,"879 Mandurah Road, BALDIVIS WA 6171",Baldivis,Rockingham John Calvin School,Baldivis,WA
"Sausage Sizzle, Cold Drink, Raffle",116.459107,FALSE,FALSE,FALSE,TRUE,,,2017-03-08 13:05:08.655774+00,2017-03-08 13:05:08.655774+00,,-31.546854,Toodyay Football Club Sausage Sizzle,,User-submitted,{},Other,,,"Toodyay Street, TOODYAY WA 6566",Moore,Toodyay Show Grounds Pavilion,Moore,WA
"Sausages, Egg & Bacon Rolls, cakes",115.88279,FALSE,FALSE,TRUE,TRUE,,,2017-03-08 13:07:00.909637+00,2017-03-08 13:07:00.909637+00,,-32.04889,Willetton PS BBQ & Cake Stall,,User-submitted,"{""has_vego"":true,""has_bacon_and_eggs"":true}",Public School,,,"14 Woodpecker Avenue, WILLETTON WA 6155",Riverton,Willetton Primary School,Riverton,WA
"Sausage Sizzle, all sorts of foods on offer, Coffee.",115.76318,FALSE,FALSE,TRUE,TRUE,,,2017-03-08 13:11:51.515067+00,2017-03-08 13:11:51.515067+00,www.fcc.wa.edu.au,-32.52873,Foundaation Community Fair,,User-submitted,"{""has_coffee"":true,""has_vego"":true}",Private School,,,"115 Waldron Boulevard, GREENFIELDS WA 6210",Mandurah,Foundation Christian College,Mandurah,WA
"Sausage Sizzle, Cake Stall, Toy & Books",115.76108,FALSE,FALSE,TRUE,TRUE,,,2017-03-08 13:14:07.49777+00,2017-03-08 13:14:07.49777+00,https://www.facebook.com/northbeachpspandc/posts/601408770048098:0,-31.86028,North Beach Primary School,,User-submitted,{},Public School,,,"75 North Beach Road, NORTH BEACH WA 6020",Carine,North Beach Primary School,Carine,WA
"Sausage Sizzle, Hamburgers, Morning Coffee, Drinks",116.07813,FALSE,FALSE,FALSE,TRUE,,,2017-03-08 13:37:41.626975+00,2017-03-08 13:12:39.156536+00,,-31.56069,IHC Parents & Friends Association,,"User-submitted, Twitter","{""has_coffee"":true,""has_free_text"":""Hamburgers""}",Private School,,,"34 Santa Gertrudis Drive, LOWER CHITTERING WA 6084",Moore,Immaculate Heart College,Moore,WA
"Bacon and Egg Rolls, Sausage Sizzle, Cold Drinks",115.93101,FALSE,FALSE,FALSE,TRUE,,,2017-03-08 13:25:23.487979+00,2017-03-08 13:25:23.487979+00,,-32.08827,Campbell Primary School P&C,,User-submitted,"{""has_halal"":true,""has_bacon_and_eggs"":true}",Public School,,,"161 Campbell Road, CANNING VALE WA 6155",Southern River,Campbell Primary School,Southern River,WA
"Bacon and egg rolls, sausage sizzle and drinks for sale",115.910957,FALSE,FALSE,FALSE,TRUE,,,2017-03-09 07:16:40.487152+00,2017-03-09 07:16:40.487152+00,,-31.84942,South Ballajura Primary School Sausage Sizzle,,User-Submitted,"{""has_bacon_and_eggs"":true}",Public School,,,"2-34 Wyperfeld Gardens, BALLAJURA WA 6066",West Swan,South Ballajura Primary School,West Swan,WA
Breaky sausage sizzle drinks ,116.02049,FALSE,FALSE,FALSE,TRUE,,,2017-03-10 13:32:30.731414+00,2017-03-08 23:44:00.274758+00,,-32.11959,Kelmscott Primary ,,User-Submitted,"{""has_bacon_and_eggs"":false}",Public School,,,"River Road, KELMSCOTT WA 6111","Armadale, Darling Range",Kelmscott Primary School,"Armadale, Darling Range",WA
Sausages etc for the Music Tour,115.77662,FALSE,FALSE,TRUE,TRUE,,,2017-03-11 02:25:18.740334+00,2017-03-09 07:14:17.90388+00,,-31.85266,Carine High School Sausage Sizzle,,User-Submitted,"{""has_free_text"":""Drinks""}",Public School,,,"51 Everingham Street, CARINE WA 6020",Carine,Carine Senior High School,Carine,WA
"Sausages, buns, drinks raising money for Concert Band",116.0049,FALSE,FALSE,FALSE,TRUE,,,2017-03-08 13:18:45.994687+00,2017-03-08 13:18:45.994687+00,,-32.14992,Concert Band Sausage Sizzle,,User-submitted,{},Church,,,"84 Fifth Road, ARMADALE WA 6112",Armadale,Free Reformed Church,Armadale,WA
Sausage Sizzle with onions // Bacon and Egg Burgers // Cold Drinks,115.83616,FALSE,FALSE,FALSE,TRUE,,,2017-03-11 04:52:07.86038+00,2017-03-08 13:16:03.808436+00,https://www.facebook.com/groups/1393948977521262/,-32.23544,P&C Fundraising Sausage Sizzle,,User-submitted,"{""has_vego"":false,""has_bacon_and_eggs"":true}",Public School,,,"15-35 Durrant Avenue, PARMELIA WA 6167",Kwinana,North Parmelia Primary School,Kwinana,WA
"bacon & egg muffins, hamburgers with coleslaw, sausage sizzle, drinks",115.76075,FALSE,FALSE,TRUE,TRUE,,,2017-03-08 13:20:02.617744+00,2017-03-08 13:20:02.617744+00,,-31.78955,craigie heights primary school food and drinks stall,,User-submitted,"{""has_bacon_and_eggs"":true,""has_free_text"":""Hamburgers with coleslaw""}",Public School,,,"47 Spinaway Street, CRAIGIE WA 6025",Hillarys,Craigie Heights Primary School,Hillarys,WA
keep canteen open 5 days a week,115.83978,FALSE,FALSE,TRUE,TRUE,,,2017-03-08 13:22:38.699578+00,2017-03-08 13:18:13.838174+00,,-32.0942,Bibra Lake Primary,,User-submitted,"{""has_vego"":true,""has_bacon_and_eggs"":true}",Public School,,,"29 Annois Road, BIBRA LAKE WA 6163",Willagee,Bibra Lake Primary School,Willagee,WA
"Sausages in buns, Bacon & Egg Burgers, Delicious cakes - all to help our P&C fundraising efforts",115.90828,FALSE,FALSE,TRUE,TRUE,,,2017-03-08 13:23:15.186977+00,2017-03-08 12:58:58.798003+00,https://lathlainprimaryschool.wordpress.com/,-31.969973,Lathlain Primary School,,User-submitted,"{""has_bacon_and_eggs"":true}",Public School,,,"120 Howick Street, LATHLAIN WA 6100",Victoria Park,Lathlain Primary School,Victoria Park,WA
"Bacon & egg rolls, sausage sizzle, cake stall",115.840131,FALSE,FALSE,TRUE,TRUE,,,2017-03-08 13:24:39.270739+00,2017-03-08 13:24:03.581258+00,,-31.901238,Tuart Hill Primary School P & C,,User-submitted,"{""has_coffee"":true,""has_bacon_and_eggs"":true}",Public School,,,"Banksia Street, TUART HILL WA 6060",Balcatta,Tuart Hill Primary School,Balcatta,WA
"sausage sizzle, morning & afternoon teas",115.903668,FALSE,FALSE,TRUE,TRUE,,,2017-03-08 13:59:13.30975+00,2017-03-08 13:59:13.30975+00,,-32.961996,Yarloop Primary School P & C,,User-submitted,{},Public School,,,"22 School Road, YARLOOP WA 6218",Murray-Wellington,Yarloop Primary School,Murray-Wellington,WA
"Sausage, Hamburgers and Drinks",117.793256,FALSE,FALSE,FALSE,TRUE,,,2017-03-08 15:53:22.607019+00,2017-03-05 13:52:45.131681+00,No website,-22.68754,Tom Price Senior High School Country Week 2017 Fundraiser,,Twitter,"{""has_free_text"":""Hamburgers""}",Community Hall,,,"Milpera Street, TOM PRICE WA 6751",North West Central,Tom Price Recreation Centre,North West Central,WA
"Sausage Sizzle, Bacon & Egg Rolls, Drinks, Icy Poles, Book Stall, Car Boot Sale, Cake Stall, Bouncy Castle",115.761424,FALSE,FALSE,TRUE,TRUE,,,2017-03-08 23:33:26.464302+00,2017-03-08 23:33:26.464302+00,,-31.72328,Joondalup Primary School & Education Support Centre,,,"{""has_bacon_and_eggs"":true}",Public School,,,"150 Blue Mountain Drive, JOONDALUP WA 6027",Burns Beach,Joondalup Primary School,Burns Beach,WA
drinks too. supporting Bruce Rock Amateur Swimming Club,118.14877,FALSE,FALSE,FALSE,TRUE,,,2017-03-08 23:42:00.795252+00,2017-03-08 13:03:55.392119+00,,-31.873756,Bruce Rock Shire Hall,,User-submitted,{},Community Hall,,,"54 Johnson Street, BRUCE ROCK WA 6418",Central Wheatbelt,Bruce Rock Shire Hall,Central Wheatbelt,WA
"sausage Sizzle, Bacon & Egg rolls, softdrinks ",119.73163,FALSE,FALSE,FALSE,TRUE,,,2017-03-08 23:44:25.565283+00,2017-03-08 23:40:33.065045+00,https://m.facebook.com/newmanps/,-23.3544,Newman PS Sausage Sizzle ,,,"{""has_bacon_and_eggs"":true,""has_free_text"":""Breakfast rolls""}",Public School,,,"Hilditch Avenue, NEWMAN WA 6753",Pilbara,Newman Primary School,Pilbara,WA
"sausage sizzle, bacon and egg burgers, hamburgers, drinks",118.8604,FALSE,FALSE,FALSE,TRUE,,,2017-03-08 23:45:38.789126+00,2017-03-08 23:45:38.789126+00,,-32.448667,Hyden Daycare,,,"{""has_bacon_and_eggs"":true,""has_free_text"":""Hamburgers""}",Community Hall,,,"40 Naughton Street, HYDEN WA 6359",Central Wheatbelt,Hyden Community Resource Centre,Central Wheatbelt,WA
Sausages and Drinks,115.92653,FALSE,FALSE,FALSE,TRUE,,,2017-03-09 07:17:09.43435+00,2017-03-09 07:17:09.43435+00,https://www.facebook.com/HamptonSeniorHighSchool/,-31.8901,Hampton Senior High School,,User-Submitted,{},Public School,,,"72 Morley Drive East, MORLEY WA 6062",Bassendean,Hampton Senior High School,Bassendean,WA
"Egg & bacon rolls, hot dogs, drinks, delicious cakes, slices and biscuits",115.794791,FALSE,FALSE,TRUE,TRUE,,,2017-03-09 07:17:44.810244+00,2017-03-09 07:17:44.810244+00,,-31.92682,"Churchlands Primary Election Day Brunch, Sausage Sizzle and Cake Stall",,User-Submitted,"{""has_vego"":true,""has_halal"":true}",Public School,,,"Cromarty Road, FLOREAT WA 6014",Churchlands,Churchlands Primary School,Churchlands,WA
,115.7918926,FALSE,FALSE,FALSE,TRUE,,,2017-03-10 09:25:44.865263+00,2017-03-08 13:45:20.249599+00,,-31.72371268,,,Twitter,{},Public School,,,"50 Spring Hill Street, TAPPING WA 6065",Wanneroo,Spring Hill Primary School,Wanneroo,WA
"Sausages, cakes, bacon & egg rolls",115.83547,FALSE,FALSE,TRUE,TRUE,,,2017-03-10 05:56:40.21747+00,2017-03-10 05:56:40.21747+00,,-31.91777,Mt Hawthorn Primary School P&C Sausage Sizzle,,User-Submitted,"{""has_bacon_and_eggs"":true}",Public School,,,"1 Killarney Street, MOUNT HAWTHORN WA 6016",Perth,Mt Hawthorn Primary School,Perth,WA
"Sausages in buns, coffee, cakes, drinks, icy poles",115.859724,FALSE,FALSE,TRUE,TRUE,,,2017-03-10 14:00:29.893839+00,2017-03-10 04:56:31.950363+00,,-31.981145,Parents for Ride to Conquer Cancer,,User-Submitted,"{""has_halal"":true,""has_free_text"":""Drinks, icypoles""}",Public School,,,"51 Forrest Street, SOUTH PERTH WA 6151",South Perth,South Perth Primary School,South Perth,WA
,115.81768,FALSE,FALSE,FALSE,TRUE,,,2017-03-11 05:43:05.051309+00,2017-03-08 13:47:00.239694+00,,-31.78096,,,"Twitter, Facebook","{""has_free_text"":""Icecream""}",Public School,,,"Willespie Drive, PEARSALL WA 6065",Wanneroo,Pearsall Primary School,Wanneroo,WA
"Sausage in a bun,  cold drinks ",115.94922,FALSE,FALSE,TRUE,TRUE,,,2017-03-09 07:26:49.24946+00,2017-03-09 07:26:28.274356+00,,-32.07609,Forest Crescent PS Sausage Sizzle ,,User-Submitted,"{""has_halal"":true}",Public School,,,"83 Forest Crescent, THORNLIE WA 6108",Thornlie,Forest Crescent Primary School,Thornlie,WA
"Sausages, barista coffee and cake, will all proceeds going directly to our Vietnam Mission",115.74766,FALSE,FALSE,TRUE,TRUE,,,2017-03-09 07:29:10.80872+00,2017-03-09 07:29:10.80872+00,https://www.facebook.com/SacredHeartCollegeVietnamMission/?ref=aymt_homepage_panel,-31.82664,Sacred Heart College Vietnam Mission ,,User-Submitted,"{""has_coffee"":true}",Private School,,,"15 Hocking Parade, SORRENTO WA 6020",Hillarys,Sacred Heart College,Hillarys,WA
"sausage sizzle, bacon and egg rolls, cakes bakes and sweets and coffee and tea",115.84764,FALSE,FALSE,TRUE,TRUE,,,2017-03-09 08:06:23.292455+00,2017-03-09 00:40:25.884734+00,,-32.04172,Brentwood Primary cake stall & sizzle,,User-Submitted,"{""has_coffee"":true,""has_vego"":true,""has_bacon_and_eggs"":true}",Public School,,,"41-45 Moolyeen Road, BRENTWOOD WA 6153",Bateman,Brentwood Primary School,Bateman,WA
"sausage sizzle, bacon and egg rolls, soft drink.",116.268238,FALSE,FALSE,FALSE,TRUE,,,2017-03-09 10:15:01.408854+00,2017-03-09 10:15:01.408854+00,,-31.864708,Chidlow Primary School P&C,,User-Submitted,"{""has_bacon_and_eggs"":true}",Community Hall,,,"361 Old Northam Road, CHIDLOW WA 6556",Swan Hills,Chidlow Recreation Pavilion,Swan Hills,WA
sausage sizzle and cup cakes,115.86484,FALSE,FALSE,TRUE,TRUE,,,2017-03-09 10:18:35.110913+00,2017-03-04 12:45:08.302776+00,,-32.15076,Harmony Primary School,,"Facebook, User-submitted","{""has_coffee"":false,""has_vego"":false}",Public School,,,"60 Aurora Drive, ATWELL WA 6164",Kwinana,Harmony Primary School,Kwinana,WA
gluten free,115.86302,FALSE,FALSE,TRUE,TRUE,,,2017-03-09 10:19:30.158542+00,2017-03-04 12:27:30.204589+00,,-32.07605,Leeming Primary School,,User-submitted,"{""has_vego"":true,""has_free_text"":""""}",Public School,,,"10 Meharry Road, LEEMING WA 6149",Jandakot,Leeming Primary School,Jandakot,WA
Sausages and drinks,116.00508,FALSE,FALSE,FALSE,TRUE,,,2017-03-09 11:01:29.953923+00,2017-03-09 11:01:29.953923+00,,-32.21192,Marri Grove Primary School P&C,,User-Submitted,{},Public School,,,"Larson Road, BYFORD WA 6122",Darling Range,Marri Grove Primary School,Darling Range,WA
"Sausage Sizzle, Bacon & Egg burgers for early voters, cake stall and coffee",115.8909,FALSE,FALSE,TRUE,TRUE,,,2017-03-09 11:01:47.576062+00,2017-03-09 09:17:24.163817+00,,-31.87691,Camboon Primary School Sausage Sizzle,,User-Submitted,"{""has_coffee"":true,""has_bacon_and_eggs"":true}",Public School,,,"Forder Road, NORANDA WA 6062",Morley,Camboon Primary School,Morley,WA
"Sausage sizzle, Bacon and Egg sandwiches, drinks, cake stall",116.049096,FALSE,FALSE,TRUE,TRUE,,,2017-03-09 12:29:42.059368+00,2017-03-09 12:29:42.059368+00,,-31.924682,Helena Valley Primary P&C sausage sizzle and cake stall,,User-Submitted,"{""has_vego"":true,""has_bacon_and_eggs"":true}",Public School,,,"3700 Helena Valley Road, HELENA VALLEY WA 6056",Midland,Helena Valley Primary School,Midland,WA
,115.87845,FALSE,FALSE,FALSE,TRUE,,,2017-03-09 12:32:04.794631+00,2017-03-09 12:32:04.794631+00,,-31.87846,,,Facebook,{},Public School,,,"81 Gordon Road West, DIANELLA WA 6059",Morley,North Morley Primary School,Morley,WA
,114.62322,FALSE,FALSE,TRUE,TRUE,,,2017-03-10 00:35:13.49311+00,2017-03-10 00:35:13.49311+00,,-28.76407,,,https://www.everythinggeraldton.com.au/geraldton-calendar/2017/3/11/allendale-p-c-sausage-sizzle-and-cake-stall-allendale-polling-booth,{},Public School,,,"52 Wittenoom Street, GERALDTON WA 6530",Geraldton,Allendale Primary School,Geraldton,WA
"Hotdogs, cakes and drinks! ",115.767412,FALSE,FALSE,TRUE,TRUE,,,2017-03-10 01:17:08.472312+00,2017-03-10 01:17:08.472312+00,,-31.820535,Sausage Sizzle and Cake Bake,,User-Submitted,{},Public School,,,"22 Sullivan Road, DUNCRAIG WA 6023",Carine,Duncraig Senior High School,Carine,WA
"Yummy cake stall, sausage sizzle, drinks",115.906475,FALSE,FALSE,TRUE,TRUE,,,2017-03-10 04:56:03.505765+00,2017-03-08 13:29:50.946638+00,,-31.959882,St Augustines Primary School Parents & Friends,,"Twitter, User-Submitted",{},Private School,,,"34 Gladstone Road, RIVERVALE WA 6103",Belmont,St Augustine's School,Belmont,WA
"Sausages in buns, and drinks to support students China Trip 2017",115.81405,FALSE,FALSE,FALSE,TRUE,,,2017-03-10 03:00:47.720587+00,2017-03-10 03:00:47.720587+00,,-32.07395,NLSC Sausage Sizzle,,User-Submitted,{},Public School,,,"188-200 Winterfold Road, KARDINYA WA 6163",Willagee,North Lake Senior Campus,Willagee,WA
Democracy Sausage to fund raise for our cadets,115.78686,FALSE,FALSE,FALSE,TRUE,,,2017-03-10 03:02:04.494088+00,2017-03-10 03:02:04.494088+00,http://www.murray.wa.gov.au/services/emergency-services/about-emergency-services/,-32.55847,West Murray Volunteer Bush Fire Brigade Cadets,,User-Submitted,{},Community Hall,,,"Cnr Pinjarra and Goodooga Road, FURNISSDALE WA 6210",Mandurah,West Murray Community Hall,Mandurah,WA
sausages cakes muffins ,115.76542,FALSE,FALSE,TRUE,TRUE,,,2017-03-10 12:33:46.141518+00,2017-03-10 05:58:11.607537+00,,-31.98943,north cott sausage sizzle and cake stall ,,User-Submitted,"{""has_bacon_and_eggs"":true}",Public School,,,"100 Eric Street, COTTESLOE WA 6011",Cottesloe,North Cottesloe Primary School,Cottesloe,WA
"Sausages, bacon and egg burgers, soft drinks",115.99868,FALSE,FALSE,FALSE,TRUE,,,2017-03-10 12:34:22.13371+00,2017-03-10 06:36:58.533277+00,,-32.11952,Grovelands P &C,,User-submitted,"{""has_coffee"":false,""has_bacon_and_eggs"":true}",Public School,,,"14 Grovelands Drive, CAMILLO WA 6111",Armadale,Grovelands Primary School,Armadale,WA
"Sausage sizzle, drinks, cake stall",115.92221,FALSE,FALSE,TRUE,TRUE,,,2017-03-10 06:25:54.158365+00,2017-03-10 06:25:54.158365+00,www.carlisleps.wa.edu.au,-31.97346,Carlisle PS P&C Sausage Sizzle,,User-Submitted,"{""has_halal"":true}",Public School,,,"271 Orrong Road, KEWDALE WA 6105",Belmont,Carlisle Primary School,Belmont,WA
,115.942414,FALSE,FALSE,FALSE,FALSE,,,,,,-32.011945,,,,,Public School,,,"275 Sevenoaks Street, CANNINGTON WA 6107",Cannington,Sevenoaks Senior College,Cannington,WA
"Sausage sizzle, Lolly bags, Cold drinks, and Democracy Chocolates",116.01545,FALSE,FALSE,FALSE,TRUE,,,2017-03-11 07:58:07.839003+00,2017-03-10 05:57:41.437814+00,,-32.13432,Kingsley Primary School P&C,,User-Submitted,"{""has_vego"":true,""has_halal"":false,""has_free_text"":""Lolly bags""}",Public School,,,"11 Lathwell Street, ARMADALE WA 6112",Armadale,Kingsley Primary School,Armadale,WA
"sausage sizzle, bacon and egg rolls, cakes, cool drink and water",115.755816,FALSE,FALSE,TRUE,TRUE,,,2017-03-11 05:46:15.570228+00,2017-03-08 12:37:55.679153+00,,-32.358811,Port Kennedy Primary School sausage sizzle and cake stall,,User-submitted,"{""has_coffee"":false,""has_bacon_and_eggs"":true}",Public School,,,"1 La Manche Avenue, PORT KENNEDY WA 6172",Warnbro,Port Kennedy Primary School,Warnbro,WA
,115.9995,FALSE,FALSE,FALSE,FALSE,,,,,,-32.1615,,,,,Public School,,,"11 Tijuana Road, BROOKDALE WA 6112",Armadale,Gwynne Park Primary School,Armadale,WA
"Limited supply of Bacon and Egg Burgers  sausage sizzle, drinks, cakes, lolly bags",115.950898,FALSE,FALSE,TRUE,TRUE,,,2017-03-10 09:33:26.667389+00,2017-03-09 12:26:43.280248+00,,-31.87285,P&C Sausage Sizzle ,,Facebook,"{""has_coffee"":true,""has_bacon_and_eggs"":true}",Public School,,,"Brockmill Avenue, BEECHBORO WA 6063","Bassendean, Midland",East Beechboro Primary School,"Bassendean, Midland",WA
,115.66183,FALSE,FALSE,FALSE,FALSE,,,,,,-33.34337,,,,,Private School,,,"Lot 4 Rodsted Street, EAST BUNBURY WA 6230",Bunbury,Bunbury Catholic College,Bunbury,WA
TBA,115.695321,FALSE,FALSE,FALSE,TRUE,,,2017-03-11 01:54:34.577101+00,2017-02-21 09:14:52.160375+00,http://www.quinnsbeachps.wa.edu.au/p-and-c/fundraisingevents/,-31.658203,P&C Sausage Sizzle ,,,{},Public School,,,"5 James Cook Avenue, QUINNS ROCKS WA 6030",Butler,Quinns Beach Primary School,Butler,WA
,117.792347,FALSE,FALSE,FALSE,FALSE,,,,,,-31.114487,,,,,Community Hall,,,"Railway Street, TRAYNING WA 6488",Central Wheatbelt,Trayning Community Centre,Central Wheatbelt,WA
,115.7167,FALSE,FALSE,FALSE,FALSE,,,,,,-33.27979,,,,,Community Hall,,,"Mulgara Street , AUSTRALIND WA 6233","Collie-Preston, Murray-Wellington",Australind Community Hall,"Collie-Preston, Murray-Wellington",WA
"Bacon and Egg rolls, sausage sizzle, cool drinks",115.787647,FALSE,FALSE,FALSE,TRUE,,,2017-03-08 12:41:54.981316+00,2017-03-08 12:41:54.981316+00,,-32.101155,Spearwood Primary School,,User-submitted,"{""has_bacon_and_eggs"":true}",Public School,,,"73 Gerald Street, SPEARWOOD WA 6163","Cockburn, Fremantle",Spearwood Primary School,"Cockburn, Fremantle",WA
,116.116987,FALSE,FALSE,FALSE,FALSE,,,,,,-32.085114,,,,,Community Hall,,,"Old Station Road, KARRAGULLEN WA 6111",Darling Range,Karragullen District Hall,Darling Range,WA
"In addition to food, weve got a pop-up water playground for the kids from 11am to 3pm (tickets $10 for unlimited rides)",115.765622,FALSE,FALSE,TRUE,TRUE,,,2017-03-10 09:26:23.09004+00,2017-03-10 01:45:09.214351+00,https://www.facebook.com/events/1604604892885572/,-32.059055,White Gum Valley PS Cake and Sausage EXTRAVAGANZA!!,,User-submitted,"{""has_coffee"":true,""has_vego"":true,""has_halal"":true,""has_bacon_and_eggs"":true}",Public School,,,"29 Hope Street, WHITE GUM VALLEY WA 6162",Fremantle,White Gum Valley Primary School,Fremantle,WA
"Bacon & Egg Burgers, Hot dogs, Drinks",115.874868,FALSE,FALSE,FALSE,TRUE,,,2017-03-10 09:30:34.207116+00,2017-03-10 09:30:34.207116+00,,-31.870066,St Andrews Grammar Sausage Sizzle,,,"{""has_vego"":true}",Private School,,,"4 Hellenic Drive, DIANELLA WA 6059",Mirrabooka,St Andrew's Grammar School,Mirrabooka,WA
"Egg and bacon rolls, sausages in buns, soft drink ",115.794993,FALSE,FALSE,FALSE,TRUE,,,2017-03-10 12:27:49.263678+00,2017-03-10 12:27:49.263678+00,,-31.753628,Edgewater Woodvale JFC,,User-Submitted,"{""has_bacon_and_eggs"":true}",Community Hall,,,"275 Scenic Drive, WANNEROO WA 6065",Wanneroo,Wanneroo Recreation Centre,Wanneroo,WA
Aussie fry up and a homemade cake with a luck dip for the kids. All proceeds go to the P and C fundraising iniatives,115.882925,FALSE,FALSE,TRUE,TRUE,,,2017-03-10 12:31:48.984123+00,2017-03-10 09:32:54.664541+00,,-31.98142,"P& C Baconf and Egg roll, Sausage sizzle, cake stall and lucky dip",,User-Submitted,"{""has_bacon_and_eggs"":true}",Public School,,,"73 Banksia Terrace, KENSINGTON WA 6151",South Perth,Kensington Primary School,South Perth,WA
"Sausage in buns, soft drinks.",115.94526,FALSE,FALSE,FALSE,TRUE,,,2017-03-10 12:49:02.003972+00,2017-03-10 12:49:02.003972+00,,-31.93521,Redcliffe Sausage Sizzle,,User-Submitted,{},Public School,,,"62 Kanowna Avenue, REDCLIFFE WA 6104",Belmont,Redcliffe Primary School,Belmont,WA
"sausages, bacon & egg rolls, cold drinks, tea and coffee fundraising for the school",115.81494,FALSE,FALSE,FALSE,TRUE,,,2017-03-10 14:13:25.838263+00,2017-03-10 14:13:25.838263+00,http://www.rivervalley.wa.edu.au,-33.30844,River Valley Primary School ,,User-Submitted,"{""has_coffee"":true,""has_bacon_and_eggs"":true}",Public School,,,"51 Russell Road, BUREKUP WA 6227",Collie-Preston,River Valley Primary School,Collie-Preston,WA
"bacon & egg sandwiches (am), sausage sizzle, cans of softdrink",115.84617,FALSE,FALSE,FALSE,TRUE,,,2017-03-10 23:32:24.395023+00,2017-03-10 23:32:24.395023+00,,-32.10794,Lakeland Senior High School Sausage Sizzle,,User-Submitted,"{""has_bacon_and_eggs"":true}",Public School,,,"106 South Lake Drive, SOUTH LAKE WA 6164","Jandakot, Willagee",Lakeland Senior High School,"Jandakot, Willagee",WA
"Sausage sizzle, coffee,cakes, biscuits",115.807378,FALSE,FALSE,TRUE,TRUE,,,2017-03-11 01:19:13.943806+00,2017-02-14 09:28:52.170326+00,,-31.970196,P&C sausgage sizzle/cake stall,,User-Submitted,"{""has_coffee"":true,""has_vego"":false,""has_halal"":false}",Public School,,,"117 Monash Avenue, NEDLANDS WA 6009",Nedlands,Hollywood Primary School,Nedlands,WA
"Bacon & Egg rolls, hot dogs, chocolates and cold drinks",115.817635,FALSE,FALSE,FALSE,TRUE,,,2017-03-11 01:33:37.719918+00,2017-03-08 06:42:56.078427+00,,-32.345053,Year 6 Fundraiser,"Cold drinks, chocolates",User-Submitted,"{""has_bacon_and_eggs"":true,""has_free_text"":""Chocolates""}",Public School,,,"Makybe Drive, BALDIVIS WA 6171",Baldivis,Makybe Rise Primary School,Baldivis,WA
"sausages, drinks, cakes",115.89886,FALSE,FALSE,TRUE,TRUE,,,2017-03-11 01:52:10.923965+00,2017-03-07 09:27:10.979431+00,http://www.rostratapandc.org.au/2017/election-day-sausage-sizzle-and-cake-stall-11th-march-2017-from-9am/,-32.05157,Rostrata PS Sausage Sizzle and Cake Stall,,,{},Public School,,,"Rostrata Avenue, WILLETTON WA 6155",Riverton,Rostrata Primary School,Riverton,WA
"Bacon and egg rolls, Sausage Sizzle, Cake stall and cold drinks ",116.0070374,FALSE,FALSE,TRUE,TRUE,,,2017-03-08 12:25:32.534271+00,2017-03-08 12:25:32.534271+00,www.edneyps.wa.edu.au,-31.94738948,Edney Primary Sausage Sizzle,,User-submitted,"{""has_bacon_and_eggs"":true}",Public School,,,"204 Newburn Road, HIGH WYCOMBE WA 6057",Forrestfield,Edney Primary School,Forrestfield,WA
"sausages, onion, rolls, bacon and egg rolls, cakes",115.78455,FALSE,FALSE,TRUE,TRUE,,,2017-03-08 12:15:37.251855+00,2017-03-08 12:15:37.251855+00,http://hiltonprimary.com.au/,-32.06803,Primary school sausage sizzle and cake stall,,User-submitted,"{""has_bacon_and_eggs"":true}",Public School,,,"21 Rennie Crescent North, HILTON WA 6163",Fremantle,Hilton Primary School,Fremantle,WA
Sausage Sizzle & Cool Drink,116.040604,FALSE,FALSE,FALSE,TRUE,,,2017-03-07 09:26:41.907865+00,2017-03-07 09:26:41.907865+00,,-31.905302,Clayton View Primary School P&C Sausage Sizzle,,,{},Public School,,,"211 Clayton Street, KOONGAMIA WA 6056",Midland,Clayton View Primary School,Midland,WA
,114.968171,FALSE,FALSE,FALSE,FALSE,,,,,,-30.067274,,,,,Community Hall,,,"Green Head Road, GREEN HEAD WA 6514",Moore,Green Head Community Centre,Moore,WA
"Sausage sizzle with onions, cold drinks, cake stall",115.917102,FALSE,FALSE,TRUE,TRUE,,,2017-03-08 13:23:42.345227+00,2017-03-08 13:23:42.345227+00,,-31.886581,Hampton Park Primary P&C Sausage Sizzle,,,{},Public School,,,"Hamersley Place, MORLEY WA 6062",Morley,Hampton Park Primary School,Morley,WA
"Bacon and egg rolls, cakes and used book stall",115.812524,FALSE,FALSE,TRUE,TRUE,,,2017-03-09 00:44:48.243242+00,2017-03-08 13:21:16.128291+00,,-31.984341,Primary school sizzle,,User-submitted,"{""has_bacon_and_eggs"":true}",Public School,,,"35 Kingsway, NEDLANDS WA 6009",Nedlands,Nedlands Primary School,Nedlands,WA
,117.081741,FALSE,FALSE,FALSE,FALSE,,,,,,-34.362489,,,,,Community Hall,,,"55 Wingebellup Road, FRANKLAND RIVER WA 6396",Roe,Frankland River Community Centre,Roe,WA
,117.432647,FALSE,FALSE,FALSE,FALSE,,,,,,-33.563647,,,,,Community Hall,,,"31 Robinson Road, WOODANILLING WA 6316",Roe,Woodanilling Shire Hall,Roe,WA
"Sausage sizzle, drinks, cakes, slices, biscuits",115.7668558,FALSE,FALSE,TRUE,TRUE,,,2017-03-09 09:16:33.011132+00,2017-03-09 09:16:33.011132+00,www.scarboroughps.wa.edu.au,-31.89706189,Scarborough Primary Sausage Sizzle,,User-Submitted,{},Public School,,,"Hinderwell Street, SCARBOROUGH WA 6019",Scarborough,Scarborough Primary School,Scarborough,WA
"Sausages, onions, bread, sauce",117.65395,FALSE,FALSE,FALSE,TRUE,,,2017-03-11 04:50:31.774738+00,2017-03-10 13:34:44.999687+00,,-34.62045,Youth Care Sausage Sizzle,,User-Submitted,{},Community Hall,,,"McDonald Avenue, MOUNT BARKER WA 6286",Warren-Blackwood,Frost Park Pavilion,Warren-Blackwood,WA
,115.78447,FALSE,FALSE,TRUE,TRUE,,,2017-03-11 06:01:04.821347+00,2017-03-11 06:01:04.821347+00,,-32.09019,,,Twitter,{},Public School,,,"26 Grandpre Crescent, HAMILTON HILL WA 6163",Fremantle,Southwell Primary School,Fremantle,WA
,121.488458,FALSE,FALSE,FALSE,TRUE,,,2017-03-11 02:21:41.15962+00,2017-03-11 02:21:41.15962+00,https://www.facebook.com/photo.php?fbid=1257115121004336,-30.779727,,,,"{""has_bacon_and_eggs"":true}",Public School,,,"Lane Street, BOULDER WA 6432",Kalgoorlie,Boulder Primary School,Kalgoorlie,WA
,121.46585,FALSE,FALSE,FALSE,FALSE,,,,,,-30.77741,,,,,Public School,,,"235 Johnston Street , KALGOORLIE WA 6430",Kalgoorlie,O'Connor Primary School,Kalgoorlie,WA
"sausages, ice cream, coffee, popcorn, soft drinks",115.844298,FALSE,FALSE,FALSE,TRUE,,,2017-03-04 12:34:52.277063+00,2017-03-04 12:34:52.277063+00,,-32.166382,primary school sausage sizzle,,User-submitted,"{""has_coffee"":true,""has_free_text"":""Iccream, popcorn""}",Public School,,,"10 Eucalyptus Drive, HAMMOND PARK WA 6164",Kwinana,Hammond Park Primary School,Kwinana,WA
"A delicious assortment of sausages, bacon and egg rolls, cakes, and drinks.",115.85944,FALSE,FALSE,TRUE,TRUE,,,2017-03-09 07:22:23.140841+00,2017-03-09 03:42:08.401618+00,https://www.facebook.com/YokinePrimarySchoolPc/,-31.90145,Yokine Primary School Sausage Sizzle and Cake Stall,,User-Submitted,"{""has_bacon_and_eggs"":true}",Public School,,,"39 Woodrow Avenue, YOKINE WA 6060",Mount Lawley,Yokine Primary School,Mount Lawley,WA
Sausage sizzle and cold drinks!,115.722629,FALSE,FALSE,FALSE,TRUE,,,2017-03-07 12:51:06.191214+00,2017-03-07 12:51:06.191214+00,,-32.282611,P&C sausage sizzle,,User-submitted,{},Public School,,,"30 Bay View Street, ROCKINGHAM WA 6168",Rockingham,Rockingham Beach Primary School,Rockingham,WA
,117.906387,FALSE,FALSE,FALSE,FALSE,,,,,,-34.673803,,,,,Community Hall,,,"Porongurup Road, PORONGURUP WA 6324",Warren-Blackwood,Porongurup District Hall,Warren-Blackwood,WA
"Mondos sausage in a bun, drinks & icy poles, bake stall, colouring in comp, raffle & guess the lollies",115.876342,FALSE,FALSE,TRUE,TRUE,,,2017-03-09 13:56:20.523242+00,2017-02-13 01:31:11.553287+00,,-31.925808,Mount Lawley PS Sausage sizzle & Bake Stall,,User-submitted,"{""has_vego"":true}",Public School,,,"92 Second Ave, MOUNT LAWLEY WA 6050",Mount Lawley,Mount Lawley Primary School,Mount Lawley,WA
"hot dogs, bacon & egg rolls, cold drinks, coffee, slice & cake, ice cream, cake stall, jams & preserves, fresh flowers, pot plants, kids activities, entertainment, preloved womens & kids clothes us sport shoes, second-hand books & toys",115.78194,FALSE,FALSE,TRUE,TRUE,,,2017-03-08 12:51:29.991098+00,2017-03-08 12:51:29.991098+00,,-31.98586,Election Day Market,,,"{""has_coffee"":true,""has_bacon_and_eggs"":true}",Public School,,,"Bay View Terrace, CLAREMONT WA 6010","Cottesloe, Nedlands",Freshwater Bay Primary School,"Cottesloe, Nedlands",WA
"Bacon & Egg Rolls, Sausage Sizzle, Cake Stall, Drinks, Icy Poles to fundraise for resources for the kids through the P&C",116.046806,FALSE,FALSE,TRUE,TRUE,,,2017-03-09 03:44:21.460843+00,2017-03-09 01:36:11.469068+00,https://www.facebook.com/Greenmount-Primary-School-WA-PC-138104063028929/,-31.897105,Greenmount Primary School Sausage Sizzle & Cake Stall,,User-Submitted,"{""has_vego"":true,""has_bacon_and_eggs"":true,""has_free_text"":""Icy Poles""}",Public School,,,"50-68 Innamincka Road, GREENMOUNT WA 6056",Midland,Greenmount Primary School,Midland,WA
"Bacon & egg burgers, sausage sizzle, really good coffee and great cakes - enjoy them all in our beautiful outdoor learning area and say hi to our chickens while youre there : )",115.756978,FALSE,FALSE,TRUE,TRUE,,,2017-03-09 07:27:32.85926+00,2017-03-09 07:27:32.85926+00,northfremantleps.wa.edu.au,-32.0345,North Fremantle Primary School P & C Sausage Sizzle & Cake Stall,,User-Submitted,"{""has_coffee"":true,""has_vego"":true,""has_bacon_and_eggs"":true}",Public School,,,"30 John Street, NORTH FREMANTLE WA 6159",Cottesloe,North Fremantle Primary School,Cottesloe,WA
Sausages,115.79141,FALSE,FALSE,FALSE,TRUE,,,2017-03-11 05:43:23.663613+00,2017-03-08 13:15:06.834618+00,,-31.93674,Primary school sausage sizzle,,User-submitted,"{""has_vego"":false,""has_halal"":false}",Public School,,,"38 Chandler Avenue West, FLOREAT WA 6014",Churchlands,Floreat Park Primary School,Churchlands,WA
"sausages, egg & bacon Rolls, tea&coffee, fruit boxes and soft drinks",116.0038,FALSE,FALSE,TRUE,TRUE,,,2017-03-11 07:34:36.622625+00,2017-03-04 12:33:43.006981+00,,-32.05484,East Maddington PS P&C ,,User-submitted,"{""has_coffee"":true,""has_vego"":true,""has_bacon_and_eggs"":true}",Public School,,,"79 Pitchford Avenue, MADDINGTON WA 6109",Thornlie,East Maddington Primary School,Thornlie,WA