polling_place_name,lon,division,booth_info,premises,opening_hours,has_bbq,address,source,state,lat,has_nothing,has_caek,extra_info,polling_place_type,has_run_out,has_other,stall_name,stall_description,stall_website,first_report,latest_report
Risdon Vale Primary School,147.354,,Standard,Risdon Vale Primary School,,FALSE,Heather Rd TAS 7016,,TAS,-42.8131,FALSE,TRUE,Plus egg & bacon rolls and coffee,,,,,,,,
Riverside High School,147.097015,,Assisted Disabled,Riverside High School,,FALSE,354 West Tamar Highway TAS 7250,,TAS,-41.409693,FALSE,FALSE,,,,,,,,,
Ridgley Primary School,145.837,,Assisted Disabled,Ridgley Primary School,,FALSE,904 Ridgley Hwy TAS 7321,,TAS,-41.1398,FALSE,FALSE,,,,,,,,,
Ringarooma Hall,147.73568,,Assisted Disabled,Ringarooma Hall,,FALSE,Charles St TAS 7263,,TAS,-41.24241,FALSE,FALSE,,,,,,,,,
Riana Community Centre,145.999,,Standard,Riana Community Centre,,FALSE,1221 Pine Rd TAS 7316,,TAS,-41.2015,FALSE,FALSE,,,,,,,,,
Richmond Primary School,147.43846,,Assisted Disabled,Richmond Primary School,,FALSE,Commercial Road TAS 7025,,TAS,-42.73504,FALSE,FALSE,,,,,,,,,
Ravenswood Heights Primary School Gynasium ,147.177,,Assisted Disabled,Ravenswood Heights Primary School Gynasium ,,FALSE,25 Prossers Forest Rd TAS 7250,,TAS,-41.4162,FALSE,FALSE,,,,,,,,,
Grassy Club,144.058,,Standard,Grassy Club,,FALSE,10 Grassy Rd TAS 7256,,TAS,-40.0484,FALSE,FALSE,,,,,,,,,
Evandale Primary School,147.247,,Assisted Disabled,Evandale Primary School,,FALSE,5-11 Barclay St TAS 7212,,TAS,-41.5672,FALSE,FALSE,,,,,,,,,
Reekara Community Complex,143.916,,Standard,Reekara Community Complex,,FALSE,2249 North Rd TAS 7256,,TAS,-39.7532,FALSE,FALSE,,,,,,,,,
Sulphur Creek Memorial Hall,146.026,,Standard,Sulphur Creek Memorial Hall,,FALSE,Preservation Dr TAS 7321,,TAS,-41.0935,FALSE,FALSE,,,,,,,,,
Summerdale Community Centre,147.13,,Assisted Disabled,Summerdale Community Centre,,FALSE,82-84 Stanley St TAS 7250,,TAS,-41.4683,FALSE,FALSE,,,,,,,,,
Brooks High School,147.125949,,Assisted Disabled,Brooks High School,,FALSE,215 George Town Rd TAS 7248,,TAS,-41.377716,FALSE,FALSE,,,,,,,,,
Rocky Cape Public Hall,145.487,,Assisted Disabled,Rocky Cape Public Hall,,FALSE,19074 Bass Hwy TAS 7321,,TAS,-40.905,FALSE,FALSE,,,,,,,,,
Lauderdale Community Hall,147.4862704,,Assisted Disabled,Lauderdale Community Hall,,FALSE,528A South Arm Rd TAS 7021,,TAS,-42.9136629,FALSE,FALSE,,,,,,,,,
Latrobe Primary School,146.415,,Assisted Disabled,Latrobe Primary School,,FALSE,Lewis St TAS 7307,,TAS,-41.2365,FALSE,FALSE,,,,,,,,,
Magra CWA Building,147.054,,Assisted Disabled,Magra CWA Building,,FALSE,Back River Rd TAS 7140,,TAS,-42.7559,FALSE,FALSE,,,,,,,,,
W.G. Holloway Park Building,148.246,,Assisted Disabled,W.G. Holloway Park Building,,FALSE,Barr St TAS 7255,,TAS,-40.2094,FALSE,FALSE,,,,,,,,,
Lachlan Community Hall,147.043,,Assisted Disabled,Lachlan Community Hall,,FALSE,511 Lachlan Rd TAS 7140,,TAS,-42.8304,FALSE,FALSE,,,,,,,,,
Lebrina Memorial Hall,147.228,,Standard,Lebrina Memorial Hall,,FALSE,905 Golconda Rd TAS 7254,,TAS,-41.1773,FALSE,FALSE,,,,,,,,,
St John's Parish Centre,147.141,,Assisted Disabled,St John's Parish Centre,,FALSE,157 St John St TAS 7250,,TAS,-41.4399,FALSE,FALSE,,,,,,,,,
Pilgrim Hall,147.137,,Standard,Pilgrim Hall,,FALSE,36 Paterson St TAS 7250,,TAS,-41.4366,FALSE,FALSE,,,,,,,,,
Launceston General Hospital,147.143,,Assisted Disabled,Launceston General Hospital,,FALSE, Meeting Rooom Level 3 Charles St TAS 7250,,TAS,-41.4464,FALSE,FALSE,,,,,,,,,
Glenorchy Primary School,147.268,,Assisted Disabled,Glenorchy Primary School,,FALSE,Cnr Main Rd & Kensington St TAS 7010,,TAS,-42.8297,FALSE,FALSE,,,,,,,,,
St Andrew's Hall,147.284,,Standard,St Andrew's Hall,,FALSE,Lenah Valley Rd TAS 7008,,TAS,-42.8624,FALSE,FALSE,,,,,,,,,
Legana Memorial Hall,147.047,,Assisted Disabled,Legana Memorial Hall,,FALSE,43 Fulton St TAS 7277,,TAS,-41.3632,FALSE,FALSE,,,,,,,,,
Howden Fire Station,147.2915454,,Assisted Disabled,Howden Fire Station,,FALSE,Howden Rd TAS 7054,,TAS,-43.0191283,FALSE,FALSE,,,,,,,,,
The Salvation Army Hall,147.0469969,,Assisted Disabled,The Salvation Army Hall,,TRUE,31 Wilmot Rd TAS 7109,,TAS,-43.0291001,FALSE,FALSE,,,,,,,,,
Tranmere Hall,147.409,,Assisted Disabled,Tranmere Hall,,FALSE,27 Tranmere Rd TAS 7018,,TAS,-42.8911,FALSE,FALSE,,,,,,,,,
Lenah Valley Primary School,147.29,,Assisted Disabled,Lenah Valley Primary School,,FALSE,Creek Rd TAS 7008,,TAS,-42.8612,FALSE,FALSE,,,,,,,,,
Saltwater River Public Hall,147.727,,Assisted Disabled,Saltwater River Public Hall,,FALSE,600 Saltwater River Rd TAS 7186,,TAS,-43.0273,FALSE,FALSE,,,,,,,,,
Bridport Hall,147.395,,Assisted Disabled,Bridport Hall,,FALSE,Main St TAS 7262,,TAS,-41.0026,FALSE,FALSE,,,,,,,,,
Brighton Primary School,147.258,,Assisted Disabled,Brighton Primary School,,FALSE,17 Downie St TAS 7030,,TAS,-42.6991,FALSE,FALSE,,,,,,,,,
St Francis Xavier's Church Hall,147.312,,Assisted Disabled,St Francis Xavier's Church Hall,,FALSE,34 Anglesea St TAS 7004,,TAS,-42.8949,FALSE,FALSE,,,,,,,,,
Ross Town Hall,147.492498,,Standard,Ross Town Hall,,FALSE,12 Bridge St TAS 7209,,TAS,-42.031409,FALSE,FALSE,,,,,,,,,
Bothwell Council Chambers,147.006,,Assisted Disabled,Bothwell Council Chambers,,FALSE,Alexander St TAS 7030,,TAS,-42.3819,FALSE,FALSE,,,,,,,,,
Bracknell War Memorial Hall,146.943,,Assisted Disabled,Bracknell War Memorial Hall,,FALSE,Louisa St TAS 7302,,TAS,-41.6512,FALSE,TRUE,,,,,,,,,
Branxholm Community Hall,147.73648,,Standard,Branxholm Community Hall,,FALSE,Stoke St TAS 7261,,TAS,-41.165606,FALSE,FALSE,,,,,,,,,
Brighton Civic Centre,147.24448,,Assisted Disabled,Brighton Civic Centre,,TRUE,25 Green Point Rd TAS 7030,,TAS,-42.73831,FALSE,FALSE,,,,,,,,,
Montrose Bay Yacht Club,147.266,,Standard,Montrose Bay Yacht Club,,FALSE, Foreshore Rd TAS 7010,,TAS,-42.8199,FALSE,FALSE,,,,,,,,,
Buckland Memorial Hall,147.718,,Assisted Disabled,Buckland Memorial Hall,,FALSE,22 Kent St TAS 7190,,TAS,-42.6072,FALSE,FALSE,,,,,,,,,
Burnie City Council Offices,145.906,,Assisted Disabled,Burnie City Council Offices,,FALSE,80 Wilson St TAS 7320,,TAS,-41.0532,FALSE,FALSE,,,,,,,,,
GA Wood Hall,147.324,,Assisted Disabled,GA Wood Hall,,FALSE,29 Bathurst St TAS 7000,,TAS,-42.8806,TRUE,FALSE,,,,,,,,,
Hillwood Memorial Hall,146.974945,,Assisted Disabled,Hillwood Memorial Hall,,FALSE,280 Jetty Rd TAS 7252,,TAS,-41.236252,FALSE,FALSE,,,,,,,,,
St Peter's Hall,147.3204475,,Standard,St Peter's Hall,,FALSE,cnr Brisbane & Harrington Sts TAS 7000,,TAS,-42.8812157,FALSE,FALSE,,,,,,,,,
City Hall,147.331806,,Assisted Disabled,City Hall,,FALSE,57-63 Macquarie St TAS 7000,,TAS,-42.880739,FALSE,FALSE,,,,,,,,,
Turners Community Centre,146.244,,Assisted Disabled,Turners Community Centre,,FALSE,Henry St TAS 7315,,TAS,-41.1589,FALSE,FALSE,,,,,,,,,
Residential Retirement Village Clubrooms,147.11,,Standard,Residential Retirement Village Clubrooms,,FALSE,12 Casino Rise TAS 7250,,TAS,-41.4782,FALSE,FALSE,,,,,,,,,
Forth Primary School,146.248975,,Assisted Disabled,Forth Primary School,,FALSE,45 Wilmot Road TAS 7310,,TAS,-41.192921,FALSE,FALSE,,,,,,,,,
Frankford Memorial Hall,146.732,,Assisted Disabled,Frankford Memorial Hall,,FALSE,Frankford Rd TAS 7275,,TAS,-41.3165,FALSE,FALSE,,,,,,,,,
St Finn Barr's School,147.132,,Assisted Disabled,St Finn Barr's School,,FALSE,247 Invermay Rd TAS 7248,,TAS,-41.4157,FALSE,FALSE,,,,,,,,,
Invermay Primary School,147.131233,,Assisted Disabled,Invermay Primary School,,FALSE,35-43 Mayne St TAS 7248,,TAS,-41.421676,FALSE,FALSE,,,,,,,,,
Gawler Public Hall,146.16,,Assisted Disabled,Gawler Public Hall,,FALSE,15 Top Gawler Rd TAS 7315,,TAS,-41.1852,FALSE,FALSE,,,,,,,,,
St Patrick's College,147.126,,Assisted Disabled,St Patrick's College,,FALSE,282 Westbury Rd TAS 7250,,TAS,-41.472,FALSE,FALSE,,,,,,,,,
Lawrenny Court,147.3100773,,Assisted Disabled,Lawrenny Court,,FALSE,131 Hill St TAS 7000,,TAS,-42.8778039,FALSE,FALSE,,,,,,,,,
Weymouth Hall,147.154,,Standard,Weymouth Hall,,FALSE,18 Major St TAS 7252,,TAS,-41.0153,FALSE,FALSE,,,,,,,,,
Copping Hall,147.812,,Assisted Disabled,Copping Hall,,FALSE,Marion Bay Rd TAS 7174,,TAS,-42.8194,FALSE,FALSE,,,,,,,,,
Rosebery Neighbourhood Centre,145.54094,,Assisted Disabled,Rosebery Neighbourhood Centre,,FALSE, 8 Agnes St TAS 7470,,TAS,-41.77853,FALSE,FALSE,,,,,,,,,
Goulburn Street Primary School,147.317,,Standard,Goulburn Street Primary School,,FALSE,Forest Rd TAS 7000,,TAS,-42.8878,FALSE,FALSE,,,,,,,,,
Romaine Park Primary School,145.8995841,,Assisted Disabled,Romaine Park Primary School,,FALSE,Cnr Roslyn Avenue and Mount Street TAS 7320,,TAS,-41.0766337,FALSE,FALSE,,,,,,,,,
Ulverstone High School,146.17091,,Assisted Disabled,Ulverstone High School,,FALSE,38 Leven St TAS 7315,,TAS,-41.16201,FALSE,FALSE,,,,,,,,,
East Ulverstone Primary School,146.192,,Assisted Disabled,East Ulverstone Primary School,,FALSE,18 Crawford St TAS 7315,,TAS,-41.1546,FALSE,FALSE,,,,,,,,,
Warrane Primary School,147.3825601,,Assisted Disabled,Warrane Primary School,,FALSE,213 Cambridge Rd TAS 7018,,TAS,-42.8611504,FALSE,FALSE,,,,,,,,,
Rokeby Community Centre,147.432,,Assisted Disabled,Rokeby Community Centre,,FALSE,Hart Pl TAS 7019,,TAS,-42.8959,TRUE,FALSE,,,,,,,,,
Waverley School Primary School,147.19,,Standard,Waverley School Primary School,,FALSE,6 Naroo St TAS 7250,,TAS,-41.4321,FALSE,FALSE,,,,,,,,,
Warrane Mornington Neighbourhood Centre,147.384,,Assisted Disabled,Warrane Mornington Neighbourhood Centre,,FALSE,150A Bligh St TAS 7018,,TAS,-42.8559,FALSE,FALSE,,,,,,,,,
Lansdowne Crescent Primary School,147.309,,Assisted Disabled,Lansdowne Crescent Primary School,,FALSE,Gourlay St TAS 7000,,TAS,-42.8819,FALSE,FALSE,,,,,,,,,
Wesley Vale Primary School,146.457,,Assisted Disabled,Wesley Vale Primary School,,FALSE,West Wind Dr (Wesley Vale Road) TAS 7307,,TAS,-41.1885,FALSE,FALSE,,,,,,,,,
George Town Memorial Hall,146.8238,,Assisted Disabled,George Town Memorial Hall,,FALSE,29-67 Macquarie St TAS 7253,,TAS,-41.1076,FALSE,FALSE,,,,,,,,,
East Devonport Primary School,146.372,,Assisted Disabled,East Devonport Primary School,,FALSE,19 Thomas St TAS 7310,,TAS,-41.1779,FALSE,FALSE,,,,,,,,,
Sandford Hall,147.495,,Standard,Sandford Hall,,FALSE,973 South Arm Rd TAS 7020,,TAS,-42.9402,FALSE,FALSE,,,,,,,,,
Irishtown Lodge Arthur Temple,145.145,,Standard,Irishtown Lodge Arthur Temple,,FALSE,604 Irishtown Rd TAS 7330,,TAS,-40.9133,FALSE,FALSE,,,,,,,,,
Judbury Hall,146.9283,,Assisted Disabled,Judbury Hall,,FALSE,1273 Glen Huon Rd TAS 7109,,TAS,-42.9982,FALSE,FALSE,,,,,,,,,
Karoola Hall,147.148,,Assisted Disabled,Karoola Hall,,FALSE,1126 Pipers River Rd TAS 7267,,TAS,-41.2539,FALSE,FALSE,,,,,,,,,
Kelso Community Centre,146.794,,Standard,Kelso Community Centre,,FALSE,Foreshore Rd TAS 7270,,TAS,-41.1037,FALSE,FALSE,,,,,,,,,
Kempton Council Chambers,147.2,,Assisted Disabled,Kempton Council Chambers,,FALSE,Main St TAS 7030,,TAS,-42.5313,FALSE,FALSE,,,,,,,,,
Kettering Community Centre,147.247,,Assisted Disabled,Kettering Community Centre,,FALSE,2963 Channel Hwy TAS 7050,,TAS,-43.1257,FALSE,FALSE,,,,,,,,,
Y.M.C.A. Centre,147.16,,Assisted Disabled,Y.M.C.A. Centre,,FALSE,8A Blaydon St TAS 7249,,TAS,-41.4677,FALSE,FALSE,,,,,,,,,
Kingborough Council,147.311406,,Disabled,Kingborough Council,,FALSE,15 Channel Hwy TAS 7050,,TAS,-42.975321,FALSE,FALSE,,,,,,,,,
Southern Christian College,147.309,,Assisted Disabled,Southern Christian College,,TRUE,150 Redwood Rd TAS 7050,,TAS,-42.9896,FALSE,FALSE,,,,,,,,,
Kingston Beach Hall,147.3235074,,Assisted Disabled,Kingston Beach Hall,,FALSE,Beach Rd TAS 7050,,TAS,-42.9815337,FALSE,FALSE,,,,,,,,,
Myrtle Park Hall,147.367,,Assisted Disabled,Myrtle Park Hall,,FALSE,38250 Tasman Hwy TAS 7259,,TAS,-41.3107,FALSE,FALSE,,,,,,,,,
Tasman Peninsula Community Centre,147.868,,Assisted Disabled,Tasman Peninsula Community Centre,,FALSE,Gourlay Rd TAS 7180,,TAS,-43.0371,FALSE,FALSE,,,,,,,,,
Edith Creek Primary School,145.092,,Assisted Disabled,Edith Creek Primary School,,FALSE,1282 Trowutta Rd TAS 7330,,TAS,-40.9705,FALSE,FALSE,,,,,,,,,
Glengarry Fire Station,146.871,,Assisted Disabled,Glengarry Fire Station,,FALSE,Frankford Rd TAS 7275,,TAS,-41.3383,FALSE,FALSE,,,,,,,,,
TasTafe,146.345,,Assisted Disabled,TasTafe,,FALSE,20-36 Valley Rd TAS 7310,,TAS,-41.1864,FALSE,FALSE,,,,,,,,,
Reece High School,146.349,,Assisted Disabled,Reece High School,,FALSE,41-43 Middle Rd TAS 7310,,TAS,-41.1893,FALSE,FALSE,,,,,,,,,
St Johns Parish Hall,146.358,,Assisted Disabled,St Johns Parish Hall,,FALSE,Fenton St TAS 7310,,TAS,-41.1789,FALSE,FALSE,,,,,,,,,
Addison Street Scout Hall,146.344,,Assisted Disabled,Addison Street Scout Hall,,FALSE,11 Addison St TAS 7310,,TAS,-41.1737,FALSE,FALSE,,,,,,,,,
Nixon Street Primary School,146.337,,Assisted Disabled,Nixon Street Primary School,,FALSE,Nixon St TAS 7310,,TAS,-41.1728,FALSE,FALSE,,,,,,,,,
Mersey Bluff Church of Christ,146.354,,Assisted Disabled,Mersey Bluff Church of Christ,,FALSE,232 William St TAS 7310,,TAS,-41.1667,FALSE,FALSE,,,,,,,,,
Deloraine High School Hall,146.66111,,Assisted Disabled,Deloraine High School Hall,,FALSE,East Barrack St TAS 7304,,TAS,-41.52917,FALSE,FALSE,,,,,,,,,
Tullah Fire Station,145.614,,Assisted Disabled,Tullah Fire Station,,FALSE,Farrell St TAS 7321,,TAS,-41.7376,FALSE,FALSE,,,,,,,,,
Moonah Primary School,147.296,,Assisted Disabled,Moonah Primary School,,TRUE,42 Derwent Park Rd TAS 7009,,TAS,-42.838,FALSE,TRUE,,,,,,,,,
Derby Town Hall,147.80236,,Standard,Derby Town Hall,,FALSE,Cnr Main & Krushka St TAS 7264,,TAS,-41.14933,FALSE,FALSE,,,,,,,,,
Dover District High School,147.013,,Assisted Disabled,Dover District High School,,FALSE,6940 Huon Hwy TAS 7117,,TAS,-43.3105,FALSE,FALSE,,,,,,,,,
Winnaleah Memorial Hall,147.824,,Standard,Winnaleah Memorial Hall,,FALSE,20 Main St TAS 7265,,TAS,-41.0979,FALSE,FALSE,,,,,,,,,
Wivenhoe Campus Leighland Christian School,145.93609,,Assisted Disabled,Wivenhoe Campus Leighland Christian School,,FALSE,Stowport Rd TAS 7320,,TAS,-41.06904,FALSE,FALSE,,,,,,,,,
Whitemore Historical Group Rooms (Old School),146.931,,Standard,Whitemore Historical Group Rooms (Old School),,FALSE,769 Whitemore Rd TAS 7303,,TAS,-41.5825,FALSE,FALSE,,,,,,,,,
Wilmot Primary School,146.1732064,,Assisted Disabled,Wilmot Primary School,,FALSE,Main Rd (Wilmot Road) TAS 7310,,TAS,-41.3855154,FALSE,FALSE,,,,,,,,,
Whitemark Lions Club,148.019,,Assisted Disabled,Whitemark Lions Club,,FALSE,James St TAS 7255,,TAS,-40.1214,FALSE,FALSE,,,,,,,,,
Westbury Town Hall,146.83,,Assisted Disabled,Westbury Town Hall,,FALSE,26 Lyall St TAS 7303,,TAS,-41.528,FALSE,FALSE,,,,,,,,,
Westerway Primary School,146.787,,Assisted Disabled,Westerway Primary School,,FALSE,1619 Gordon River Rd TAS 7140,,TAS,-42.6775,FALSE,FALSE,,,,,,,,,
West Launceston Primary School,147.129,,Assisted Disabled,West Launceston Primary School,,FALSE,24 Basin Rd TAS 7250,,TAS,-41.4492,FALSE,FALSE,,,,,,,,,
West Ulverstone Primary School,146.16,,Assisted Disabled,West Ulverstone Primary School,,FALSE,34 Maud St TAS 7315,,TAS,-41.1482,FALSE,FALSE,,,,,,,,,
Port Sorell Memorial Hall,146.556,,Assisted Disabled,Port Sorell Memorial Hall,,FALSE,Cnr Meredith & Darling St TAS 7307,,TAS,-41.1657,FALSE,FALSE,,,,,,,,,
Port Arthur Sports Ground,147.845,,Assisted Disabled,Port Arthur Sports Ground,,FALSE,2745 Nubeena Rd TAS 7182,,TAS,-43.142,FALSE,FALSE,,,,,,,,,
Pontville Old Council Chambers,147.266,,Assisted Disabled,Pontville Old Council Chambers,,FALSE,262 Midland Hwy TAS 7030,,TAS,-42.6836,FALSE,FALSE,,,,,,,,,
Port Huon Sports & Aquatic Centre,146.9637994,,Assisted Disabled,Port Huon Sports & Aquatic Centre,,FALSE,Huon Hwy TAS 7116,,TAS,-43.1553225,FALSE,FALSE,,,,,,,,,
Penguin Uniting Church Hall,146.071,,Assisted Disabled,Penguin Uniting Church Hall,,FALSE,50 Main Rd TAS 7316,,TAS,-41.112,FALSE,FALSE,,,,,,,,,
Parattah Jubilee Hall,147.407,,Assisted Disabled,Parattah Jubilee Hall,,FALSE,657 Tunnack Rd TAS 7120,,TAS,-42.3503,FALSE,FALSE,,,,,,,,,
Pipers River Fire Station,147.091,,Standard,Pipers River Fire Station,,FALSE,76 School Rd TAS 7252,,TAS,-41.1006,FALSE,FALSE,,,,,,,,,
Perth Community Centre,147.173,,Assisted Disabled,Perth Community Centre,,FALSE,173 Fairtlough St TAS 7300,,TAS,-41.5725,FALSE,FALSE,,,,,,,,,
Old Beach Fire Station,147.26576,,Standard,Old Beach Fire Station,,FALSE,Jetty Rd TAS 7017,,TAS,-42.77427,FALSE,FALSE,,,,,,,,,
"Oatlands Council Chambers, Court Room",147.372,,Assisted Disabled,"Oatlands Council Chambers, Court Room",,FALSE,71 High St TAS 7120,,TAS,-42.3,FALSE,FALSE,,,,,,,,,
Ouse Online Centre,146.669,,Assisted Disabled,Ouse Online Centre,,FALSE,6947 Lyell Hwy TAS 7140,,TAS,-42.4464,FALSE,FALSE,,,,,,,,,
Orford Community Hall,147.874,,Assisted Disabled,Orford Community Hall,,FALSE,Charles St TAS 7190,,TAS,-42.5629,FALSE,FALSE,,,,,,,,,
Howrah Scout Hall,147.404,,Assisted Disabled,Howrah Scout Hall,,FALSE,"Howrah Primary School, Howrah Rd TAS 7018",,TAS,-42.8819,FALSE,FALSE,,,,,,,,,
Cosgrove Park Bowls Club,147.148229,,Assisted Disabled,Cosgrove Park Bowls Club,,FALSE,25 Waveney St TAS 7249,,TAS,-41.461287,FALSE,FALSE,,,,,,,,,
Queenstown Memorial Hall,145.558,,Standard,Queenstown Memorial Hall,,FALSE,53 Orr St TAS 7467,,TAS,-42.0802,TRUE,FALSE,,,,,,,,,
Sprent Primary School,146.16,,Assisted Disabled,Sprent Primary School,,FALSE,1245 Castra Rd TAS 7315,,TAS,-41.2627,FALSE,FALSE,,,,,,,,,
Pyengana War Memorial Hall,148.001,,Assisted Disabled,Pyengana War Memorial Hall,,FALSE,St Columba Falls Rd TAS 7216,,TAS,-41.2924,FALSE,FALSE,,,,,,,,,
Sandfly Hall,147.196,,Assisted Disabled,Sandfly Hall,,FALSE,811 Sandfly Rd TAS 7150,,TAS,-42.985,FALSE,FALSE,,,,,,,,,
Spreyton Primary School,146.34434,,Assisted Disabled,Spreyton Primary School,,FALSE,1 Mersey Main Rd TAS 7310,,TAS,-41.21207,FALSE,FALSE,,,,,,,,,
Bronte Park Highland Village,146.492,,Standard,Bronte Park Highland Village,,FALSE,378 Marlborough Rd TAS 7140,,TAS,-42.136,FALSE,FALSE,,,,,,,,,
Adventure Bay Hall,147.327957,,Standard,Adventure Bay Hall,,FALSE,706 Adventure Bay Rd TAS 7150,,TAS,-43.360818,FALSE,FALSE,,,,,,,,,
South Riana Public Hall,145.977,,Assisted Disabled,South Riana Public Hall,,FALSE,776 South Riana Rd TAS 7316,,TAS,-41.2345,FALSE,FALSE,,,,,,,,,
Avoca Primary School,147.726,,Standard,Avoca Primary School,,FALSE,26-30 St Pauls Pl TAS 7213,,TAS,-41.7817,FALSE,FALSE,,,,,,,,,
Glenora District High School,146.889,,Standard,Glenora District High School,,FALSE,620 Gordon River Rd TAS 7140,,TAS,-42.6969,FALSE,FALSE,,,,,,,,,
Southport Fire Station,146.9795856,,Assisted Disabled,Southport Fire Station,,FALSE,3 Cathkit St TAS 7109,,TAS,-43.4341277,FALSE,FALSE,,,,,,,,,
Woodbridge Hall,147.239,,Assisted Disabled,Woodbridge Hall,,FALSE,3445 Channel Hwy TAS 7162,,TAS,-43.1601,FALSE,FALSE,,,,,,,,,
Senior Citizens Club Rooms,145.729,,Assisted Disabled,Senior Citizens Club Rooms,,FALSE,28 Jackson St TAS 7325,,TAS,-40.9909,FALSE,FALSE,,,,,,,,,
Wynyard High School,145.717,,Assisted Disabled,Wynyard High School,,TRUE,30 Church St TAS 7325,,TAS,-40.9867,FALSE,FALSE,,,,,,,,,
Yolla District High School,145.719,,Assisted Disabled,Yolla District High School,,FALSE,School La TAS 7325,,TAS,-41.1237,FALSE,FALSE,,,,,,,,,
Youngtown Primary School,147.164,,Assisted Disabled,Youngtown Primary School,,FALSE,Napier St TAS 7249,,TAS,-41.4823,FALSE,FALSE,,,,,,,,,
Broadmarsh Hall,147.126,,Assisted Disabled,Broadmarsh Hall,,FALSE,1218 Elderslie Rd TAS 7030,,TAS,-42.6567,FALSE,FALSE,,,,,,,,,
Zeehan Primary School,145.34,,Assisted Disabled,Zeehan Primary School,,FALSE,7 Belstead St TAS 7469,,TAS,-41.888,FALSE,FALSE,,,,,,,,,
Somerset Primary School,145.836367,,Assisted Disabled,Somerset Primary School,,FALSE,8 Wragg Street TAS 7322,,TAS,-41.043137,FALSE,FALSE,,,,,,,,,
Snug Primary School,147.255,,Assisted Disabled,Snug Primary School,,FALSE,Channel Hwy TAS 7054,,TAS,-43.0664,FALSE,FALSE,,,,,,,,,
Blythe Heads Hall,145.986,,Assisted Disabled,Blythe Heads Hall,,FALSE,Sice Ave TAS 7316,,TAS,-41.0751,FALSE,FALSE,,,,,,,,,
Highclere Community Centre,145.806,,Standard,Highclere Community Centre,,FALSE,1558 Ridgley Hwy TAS 7321,,TAS,-41.1904,FALSE,FALSE,,,,,,,,,
Sisters Beach Fire Station,145.565,,Standard,Sisters Beach Fire Station,,FALSE,Honeysuckle Ave TAS 7321,,TAS,-40.9181,FALSE,FALSE,,,,,,,,,
Sidmouth Community Centre,146.887,,Assisted Disabled,Sidmouth Community Centre,,FALSE,255 Batman Hwy TAS 7270,,TAS,-41.2221,FALSE,FALSE,,,,,,,,,
Smithton Uniting Church Hall,145.127,,Standard,Smithton Uniting Church Hall,,FALSE,45 Goldie St TAS 7330,,TAS,-40.8427,FALSE,FALSE,,,,,,,,,
Sisters Creek Hall,145.586,,Assisted Disabled,Sisters Creek Hall,,FALSE,17894 Bass Hwy TAS 7321,,TAS,-40.9605,FALSE,FALSE,,,,,,,,,
Gretna (St Mary's Parish) Hall,146.923,,Standard,Gretna (St Mary's Parish) Hall,,FALSE,3548 Lyell Hwy TAS 7140,,TAS,-42.6444,FALSE,FALSE,,,,,,,,,
Gunns Plains Hall,146.039,,Assisted Disabled,Gunns Plains Hall,,FALSE,957 Gunns Plains Rd TAS 7315,,TAS,-41.2774,FALSE,FALSE,,,,,,,,,
Gravelly Beach Main Hall,146.973,,Assisted Disabled,Gravelly Beach Main Hall,,FALSE,Edinburgh Park Off Gravelly Beach Rd TAS 7276,,TAS,-41.2939,FALSE,FALSE,,,,,,,,,
Hamilton Hall,146.83,,Assisted Disabled,Hamilton Hall,,FALSE,Tarleton St TAS 7140,,TAS,-42.5597,FALSE,FALSE,,,,,,,,,
Havenview Primary School,145.911,,Assisted Disabled,Havenview Primary School,,FALSE,15 Marriott St TAS 7320,,TAS,-41.0836,FALSE,FALSE,,,,,,,,,
Hadspen Uniting Church Centre,147.064,,Assisted Disabled,Hadspen Uniting Church Centre,,FALSE,47 Main St TAS 7290,,TAS,-41.5064,FALSE,FALSE,,,,,,,,,
Hagley Uniting Church Hall,146.887,,Standard,Hagley Uniting Church Hall,,FALSE,Meander Valley Rd TAS 7292,,TAS,-41.5267,FALSE,FALSE,,,,,,,,,
Windermere Primary School,147.259102,,Disabled,Windermere Primary School,,FALSE,2 Cadbury Rd TAS 7011,,TAS,-42.80013,FALSE,FALSE,,,,,,,,,
Austins Ferry Primary School,147.2405494,,Disabled,Austins Ferry Primary School,,FALSE,13 Brodie St TAS 7011,,TAS,-42.7861799,TRUE,FALSE,,,,,,,,,
Campbell Town Town Hall,147.495,,Assisted Disabled,Campbell Town Town Hall,,FALSE,75 High St(Midland Highway) TAS 7210,,TAS,-41.927,FALSE,FALSE,,,,,,,,,
Campania Hall,147.422,,Assisted Disabled,Campania Hall,,FALSE,Reeve St TAS 7026,,TAS,-42.6672,FALSE,FALSE,,,,,,,,,
Taroona Primary School,147.3527368,,Assisted Disabled,Taroona Primary School,,FALSE,104 Channel Hwy TAS 7053,,TAS,-42.9433021,FALSE,FALSE,,,,,,,,,
Calder Hall,145.631,,Standard,Calder Hall,,FALSE,1320 Calder Rd TAS 7325,,TAS,-41.0685,FALSE,FALSE,,,,,,,,,
Claremont Girl Guide Hall,147.2482384,,Assisted Disabled,Claremont Girl Guide Hall,,FALSE,Box Hill Rd TAS 7011,,TAS,-42.7931591,FALSE,FALSE,,,,,,,,,
South Arm Primary School,147.421,,Assisted Disabled,South Arm Primary School,,FALSE,Harmony Lane TAS 7022,,TAS,-43.0264,FALSE,FALSE,,,,,,,,,
Chigwell Barn,147.2416549,,Assisted Disabled,Chigwell Barn,,FALSE,10 Bucaan St TAS 7011,,TAS,-42.8111937,FALSE,FALSE,,,,,,,,,
Carrick Public Hall,147.011,,Assisted Disabled,Carrick Public Hall,,FALSE,29 Meander Valley Rd TAS 7291,,TAS,-41.5311,FALSE,FALSE,,,,,,,,,
Sorell School Performing Arts Centre,147.561,,Assisted Disabled,Sorell School Performing Arts Centre,,FALSE,41 Gordon St TAS 7172,,TAS,-42.7859,FALSE,FALSE,,,,,,,,,
George Town South  Primary School,146.833,,Assisted Disabled,George Town South  Primary School,,FALSE,48-70 Victoria St TAS 7253,,TAS,-41.1124,FALSE,FALSE,,,,,,,,,
Bagdad Primary School,147.223,,Standard,Bagdad Primary School,,FALSE,46-48 School Rd TAS 7030,,TAS,-42.6249,FALSE,FALSE,,,,,,,,,
Waratah Municipal Chambers,145.5313,,Assisted Disabled,Waratah Municipal Chambers,,FALSE,12-14 Smith St TAS 7321,,TAS,-41.44422,FALSE,FALSE,,,,,,,,,
St Mark's Church Hall,147.154,,Assisted Disabled,St Mark's Church Hall,,FALSE,6 Hobart Rd TAS 7249,,TAS,-41.459,FALSE,FALSE,,,,,,,,,
Elliott Community Centre,145.782,,Standard,Elliott Community Centre,,FALSE,829 Murchison Hwy TAS 7325,,TAS,-41.0922,FALSE,FALSE,,,,,,,,,
Cosgrove High School,147.283,,Assisted Disabled,Cosgrove High School,,FALSE,286 Main Rd TAS 7010,,TAS,-42.8358,FALSE,FALSE,,,,,,,,,
Tea Tree Community Hall,147.318,,Assisted Disabled,Tea Tree Community Hall,,FALSE,Briar Banks Rd TAS 7017,,TAS,-42.6903,FALSE,FALSE,,,,,,,,,
Geilston Bay High School,147.349,,Standard,Geilston Bay High School,,FALSE,271 East Derwent Hwy TAS 7015,,TAS,-42.8383,FALSE,FALSE,,,,,,,,,
Elizabeth Town Fire Station,146.563,,Assisted Disabled,Elizabeth Town Fire Station,,FALSE,5816 Bass Hwy TAS 7304,,TAS,-41.4618,FALSE,FALSE,,,,,,,,,
Dilston War Memorial Hall,147.082,,Assisted Disabled,Dilston War Memorial Hall,,FALSE,308 John Lees Dr TAS 7252,,TAS,-41.3368,FALSE,FALSE,,,,,,,,,
Dodges Ferry Community Recreation Centre,147.624,,Assisted Disabled,Dodges Ferry Community Recreation Centre,,FALSE,532 Old Forcett Rd TAS 7173,,TAS,-42.8485,FALSE,FALSE,,,,,,,,,
St Helens Memorial Hall,148.249,,Assisted Disabled,St Helens Memorial Hall,,FALSE,Cecilia St TAS 7216,,TAS,-41.3222,FALSE,FALSE,,,,,,,,,
St Leonards Primary School,147.2,,Assisted Disabled,St Leonards Primary School,,FALSE,330 St Leonards Rd TAS 7250,,TAS,-41.4597,FALSE,FALSE,,,,,,,,,
Dromedary (Millvale) Community Hall,147.179,,Standard,Dromedary (Millvale) Community Hall,,FALSE,14 Millvale Rd TAS 7030,,TAS,-42.7282,FALSE,FALSE,,,,,,,,,
Dunalley Primary School,147.812,,Assisted Disabled,Dunalley Primary School,,FALSE,20-32 Bay St TAS 7177,,TAS,-42.8852,FALSE,FALSE,,,,,,,,,
Launceston North Uniting Church,147.128,,Assisted Disabled,Launceston North Uniting Church,,FALSE,128 George Town Rd TAS 7248,,TAS,-41.3873,FALSE,FALSE,,,,,,,,,
Sacred Heart College,147.304,,Standard,Sacred Heart College,,TRUE,2 Cross St TAS 7008,,TAS,-42.8615,FALSE,TRUE,,,,,,,,,
New Norfolk Sport & Recreation Centre,147.059,,Assisted Disabled,New Norfolk Sport & Recreation Centre,,FALSE,50 Derwent Tce TAS 7140,,TAS,-42.7728,FALSE,FALSE,,,,,,,,,
New Norfolk Primary School,147.064,,Assisted Disabled,New Norfolk Primary School,,FALSE,8 Pioneer Ave TAS 7140,,TAS,-42.7793,FALSE,FALSE,,,,,,,,,
Natone Primary School,145.922,,Assisted Disabled,Natone Primary School,,FALSE,100 Upper Natone Rd TAS 7321,,TAS,-41.1701,FALSE,FALSE,,,,,,,,,
Launceston Church Grammar School,147.131059,,Standard,Launceston Church Grammar School,,FALSE,Button St TAS 7248,,TAS,-41.4081402,FALSE,FALSE,,,,,,,,,
Mountain River Memorial Hall,147.109,,Assisted Disabled,Mountain River Memorial Hall,,FALSE,263 Mountain River Rd TAS 7109,,TAS,-42.9614,FALSE,FALSE,,,,,,,,,
Mt Stuart Primary School,147.299,,Standard,Mt Stuart Primary School,,FALSE,106 Gillon Cres TAS 7000,,TAS,-42.875,FALSE,FALSE,,,,,,,,,
Mt Nelson Primary School,147.323,,Assisted Disabled,Mt Nelson Primary School,,FALSE,388 Nelson Rd TAS 7007,,TAS,-42.9136,FALSE,FALSE,,,,,,,,,
Citywide Baptist Church & Venue,147.401,,Assisted Disabled,Citywide Baptist Church & Venue,,FALSE,400 Cambridge Rd TAS 7018,,TAS,-42.8582,TRUE,FALSE,,,,,,,,,
Primrose Sands Community Hall,147.671829,,Assisted Disabled,Primrose Sands Community Hall,,FALSE,570 Primrose Sands Rd TAS 7173,,TAS,-42.892403,FALSE,FALSE,,,,,,,,,
Badminton Association Centre,147.2993026,,Standard,Badminton Association Centre,,FALSE,101 Cascade Rd TAS 7004,,TAS,-42.8951454,FALSE,FALSE,,,,,,,,,
Launceston RSL,147.144026,,Assisted Disabled,Launceston RSL,,FALSE,313-315 Wellington St TAS 7249,,TAS,-41.452876,FALSE,FALSE,,,,,,,,,
SES Burnie Unit,145.908441,,Assisted Disabled,SES Burnie Unit,,FALSE,9 Wellington Street TAS 7320,,TAS,-41.060997,FALSE,FALSE,,,,,,,,,
Barnes Bay CWA Rooms,147.373,,Assisted Disabled,Barnes Bay CWA Rooms,,FALSE,678 Bruny Island Main Rd TAS 7150,,TAS,-43.1125,TRUE,FALSE,,,,,,,,,
Friends Junior School Hall,147.316,,Assisted Disabled,Friends Junior School Hall,,FALSE,393Argyle St TAS 7000,,TAS,-42.867,FALSE,TRUE,,,,,,,,,
Newstead College,147.161,,Assisted Disabled,Newstead College,,FALSE,30 Cypress St TAS 7250,,TAS,-41.4331,FALSE,FALSE,,,,,,,,,
Police Citizens & Youth Club,147.157,,Assisted Disabled,Police Citizens & Youth Club,,FALSE,148 Abbott St TAS 7250,,TAS,-41.4472,FALSE,FALSE,,,,,,,,,
North Motton Hall,146.10937,,Assisted Disabled,North Motton Hall,,FALSE,578 Preston Rd TAS 7315,,TAS,-41.20637,FALSE,FALSE,,,,,,,,,
Norwood Primary School,147.174,,Assisted Disabled,Norwood Primary School,,FALSE,103 Norwood Ave TAS 7250,,TAS,-41.4621,FALSE,FALSE,,,,,,,,,
Elizabeth College,147.318,,Assisted Disabled,Elizabeth College,,FALSE,256 Elizabeth St TAS 7000,,TAS,-42.8776,FALSE,FALSE,,,,,,,,,
Hobart North Uniting Church,147.314,,Assisted Disabled,Hobart North Uniting Church,,FALSE,Swan St TAS 7000,,TAS,-42.8728,TRUE,FALSE,,,,,,,,,
Tasman Civic Centre,147.743212,,Assisted Disabled,Tasman Civic Centre,,FALSE,Clarke St TAS 7184,,TAS,-43.099481,FALSE,FALSE,,,,,,,,,
Nunamara Public Hall,147.296,,Assisted Disabled,Nunamara Public Hall,,FALSE,39461 Tasman Hwy TAS 7259,,TAS,-41.394,FALSE,FALSE,,,,,,,,,
Preston Community Centre,146.062,,Assisted Disabled,Preston Community Centre,,FALSE,1833 Preston Rd TAS 7315,,TAS,-41.2972,FALSE,FALSE,,,,,,,,,
Bruny Island District School,147.244455,,Assisted Disabled,Bruny Island District School,,FALSE,School Rd TAS 7150,,TAS,-43.31807,FALSE,FALSE,,,,,,,,,
Tolosa Hall,147.265,,Assisted Disabled,Tolosa Hall,,FALSE,148 Tolosa St TAS 7010,,TAS,-42.8455,FALSE,FALSE,,,,,,,,,
Gagebrook Primary School,147.276,,Assisted Disabled,Gagebrook Primary School,,FALSE,4 Tottenham Rd TAS 7030,,TAS,-42.7488,FALSE,FALSE,,,,,,,,,
St Virgil's College,147.2511051,,Standard,St Virgil's College,,FALSE,195 Main Rd TAS 7011,,TAS,-42.7744865,FALSE,FALSE,,,,,,,,,
Granton Memorial Hall,147.224,,Assisted Disabled,Granton Memorial Hall,,FALSE,Lyell Hwy TAS 7030,,TAS,-42.7498,FALSE,FALSE,,,,,,,,,
Girl Guides Hall,147.276,,Standard,Girl Guides Hall,,FALSE,Booth Ave TAS 7010,,TAS,-42.8265,FALSE,FALSE,,,,,,,,,
Moorleah Community Centre,145.616,,Assisted Disabled,Moorleah Community Centre,,FALSE,720 Preolenna Rd TAS 7321,,TAS,-40.981,FALSE,FALSE,,,,,,,,,
Moriarty Hall,146.481134,,Assisted Disabled,Moriarty Hall,,FALSE,1 Bonneys La TAS 7307,,TAS,-41.216812,FALSE,FALSE,,,,,,,,,
St Stephen's Church Hall,147.346,,Assisted Disabled,St Stephen's Church Hall,,FALSE,524 Sandy Bay Rd TAS 7005,,TAS,-42.9087,TRUE,FALSE,,,,,,,,,
Princes Street Primary School,147.319,,Assisted Disabled,Princes Street Primary School,,FALSE,cnr Princes & Randall Sts TAS 7005,,TAS,-42.8984,FALSE,FALSE,,,,,,,,,
Montello Primary School,145.898,,Assisted Disabled,Montello Primary School,,FALSE,Bird St TAS 7320,,TAS,-41.0605,FALSE,FALSE,,,,,,,,,
Goodwood Primary School,147.2934743,,Disabled,Goodwood Primary School,,FALSE,Elmsleigh Rd TAS 7009,,TAS,-42.8321544,FALSE,FALSE,,,,,,,,,
Margate Hall,147.263,,Assisted Disabled,Margate Hall,,FALSE,Channel Hwy TAS 7054,,TAS,-43.029,FALSE,FALSE,,,,,,,,,
Salvation Army Community Centre,147.296066,,Assisted Disabled,Salvation Army Community Centre,,FALSE,73 Hopkins St TAS 7009,,TAS,-42.845951,FALSE,FALSE,,,,,,,,,
Bowen Road Primary School,147.308,,Assisted Disabled,Bowen Road Primary School,,FALSE,35 Bowen Rd TAS 7009,,TAS,-42.8474,TRUE,FALSE,,,,,,,,,
Mole Creek Primary School,146.405,,Assisted Disabled,Mole Creek Primary School,,FALSE,4 Caveside Rd TAS 7304,,TAS,-41.5581,FALSE,FALSE,,,,,,,,,
Molesworth Primary School,147.157,,Assisted Disabled,Molesworth Primary School,,FALSE,540 Molesworth Rd TAS 7140,,TAS,-42.8038,FALSE,FALSE,,,,,,,,,
Montagu Fire Station,144.9775271,,Assisted Disabled,Montagu Fire Station,,FALSE,Montagu Rd TAS 7330,,TAS,-40.7847873,FALSE,FALSE,,,,,,,,,
Montagu Bay Primary School,147.353,,Disabled,Montagu Bay Primary School,,FALSE,10 Conara Rd TAS 7018,,TAS,-42.8646,FALSE,FALSE,,,,,,,,,
Beaconsfield Senior Citizens' Hall,146.819,,Assisted Disabled,Beaconsfield Senior Citizens' Hall,,FALSE,Weld St TAS 7270,,TAS,-41.2024,FALSE,FALSE,,,,,,,,,
Albuera Street Primary School,147.326,,Standard,Albuera Street Primary School,,FALSE,Albuera St TAS 7004,,TAS,-42.8912,FALSE,FALSE,,,,,,,,,
Clarence Police & Community Youth Club Inc,147.371577,,Assisted,Clarence Police & Community Youth Club Inc,,FALSE,10 Scott St TAS 7018,,TAS,-42.875227,FALSE,FALSE,,,,,,,,,
Beauty Point (Sandy Beach) Bowls Club Hall,146.815,,Assisted Disabled,Beauty Point (Sandy Beach) Bowls Club Hall,,FALSE,11 Mainwaring St TAS 7270,,TAS,-41.1475,FALSE,FALSE,,,,,,,,,
Bicheno Primary School,148.3049286,,Assisted Disabled,Bicheno Primary School,,FALSE,James St TAS 7215,,TAS,-41.872521,FALSE,FALSE,,,,,,,,,
Clarence High School,147.389,,Assisted Disabled,Clarence High School,,TRUE,Wentworth St TAS 7018,,TAS,-42.8784,FALSE,TRUE,,,,,,,,,
The Salvation Army Kingborough,147.3199914,,Assisted Disabled,The Salvation Army Kingborough,,FALSE,3 Opal Dr TAS 7052,,TAS,-42.9987749,FALSE,FALSE,,,,,,,,,
Bishopsbourne Community Centre,146.995,,Standard,Bishopsbourne Community Centre,,FALSE,"Recreation Ground, 1111 Bishopsbourne Rd TAS 7301",,TAS,-41.6164,FALSE,FALSE,,,,,,,,,
Boat Harbour Primary School,145.636,,Assisted,Boat Harbour Primary School,,TRUE,17386 Bass Hwy TAS 7321,,TAS,-40.9452,FALSE,FALSE,,,,,,,,,
North Esk Memorial Hall,147.505,,Assisted Disabled,North Esk Memorial Hall,,FALSE,3132 Blessington Rd TAS 7212,,TAS,-41.4823,FALSE,FALSE,,,,,,,,,
Togari Community Centre,144.879,,Assisted Disabled,Togari Community Centre,,FALSE,7 Salmon River Rd TAS 7330,,TAS,-40.9601,FALSE,FALSE,,,,,,,,,
Trevallyn Life Church,147.106,,Assisted Disabled,Trevallyn Life Church,,FALSE,34 Pitt Ave TAS 7250,,TAS,-41.4301,FALSE,FALSE,,,,,,,,,
Trevallyn Primary School,147.115,,Disabled,Trevallyn Primary School,,FALSE,55 Gorge Rd TAS 7250,,TAS,-41.4381,FALSE,FALSE,,,,,,,,,
Cambridge Primary School,147.442,,Assisted Disabled,Cambridge Primary School,,FALSE,976 Cambridge Rd TAS 7170,,TAS,-42.8362,FALSE,FALSE,,,,,,,,,
"Triabunna Council Chambers, Recreation Room",147.917,,Standard,"Triabunna Council Chambers, Recreation Room",,FALSE,38 Vicary St TAS 7190,,TAS,-42.508,FALSE,FALSE,,,,,,,,,
Mathinna Community Centre,147.891,,Standard,Mathinna Community Centre,,FALSE,21 High St TAS 7214,,TAS,-41.4719,FALSE,FALSE,,,,,,,,,
Marrawah Memorial Hall,144.697,,Assisted Disabled,Marrawah Memorial Hall,,FALSE,844 Comeback Rd TAS 7330,,TAS,-40.9229,FALSE,FALSE,,,,,,,,,
Maydena Online Access Centre,146.629,,Standard,Maydena Online Access Centre,,FALSE,36 Kallista Rd (Gordon River Road) TAS 7140,,TAS,-42.7555,FALSE,FALSE,,,,,,,,,
Mawbanna Hall,145.37,,Assisted Disabled,Mawbanna Hall,,FALSE,1444 Mawbanna Rd TAS 7321,,TAS,-40.9538,FALSE,FALSE,,,,,,,,,
Melrose Memorial Hall,146.289,,Assisted Disabled,Melrose Memorial Hall,,FALSE,673 Melrose Rd TAS 7310,,TAS,-41.2417,FALSE,FALSE,,,,,,,,,
Meander Primary School,146.612,,Assisted Disabled,Meander Primary School,,FALSE,137 Main Rd (Meander Road) TAS 7304,,TAS,-41.6515,FALSE,FALSE,,,,,,,,,
South Channel Community Centre,147.256,,Assisted Disabled,South Channel Community Centre,,FALSE,McDowall St TAS 7163,,TAS,-43.2311,FALSE,FALSE,,,,,,,,,
School of Special Education,146.343,,Assisted Disabled,School of Special Education,,FALSE,113 Middle Rd TAS 7310,,TAS,-41.1946,FALSE,FALSE,,,,,,,,,
Miena Community Centre,146.708,,Assisted Disabled,Miena Community Centre,,FALSE,55-57 Cider Gum Rd TAS 7030,,TAS,-41.9937,FALSE,FALSE,,,,,,,,,
Midway Point Community Hall,147.533,,Assisted Disabled,Midway Point Community Hall,,FALSE,Raynors Rd TAS 7171,,TAS,-42.7997,FALSE,FALSE,,,,,,,,,
Don Memorial Hall,146.318,,Assisted Disabled,Don Memorial Hall,,FALSE,17 Forth Rd TAS 7310,,TAS,-41.1827,FALSE,FALSE,,,,,,,,,
Tunnack Public Hall,147.462,,Assisted Disabled,Tunnack Public Hall,,FALSE,Tunnack Rd TAS 7120,,TAS,-42.4548,FALSE,FALSE,,,,,,,,,
Chudleigh Memorial Hall,146.481,,Assisted Disabled,Chudleigh Memorial Hall,,FALSE,54 Sorell St TAS 7304,,TAS,-41.5573,FALSE,FALSE,,,,,,,,,
Franklin Primary School,147.0120184,,Assisted Disabled,Franklin Primary School,,FALSE,10 New Rd TAS 7113,,TAS,-43.0856539,FALSE,FALSE,,,,,,,,,
Glen Huon Primary School,146.962,,Assisted Disabled,Glen Huon Primary School,,FALSE,801 Glen Huon Rd TAS 7109,,TAS,-43.0278,FALSE,FALSE,,,,,,,,,
Sheffield District High School,146.327186,,Assisted Disabled,Sheffield District High School,,FALSE,12 Henry St TAS 7306,,TAS,-41.383044,FALSE,FALSE,,,,,,,,,
Tasmanian Academy (Hellyer College),145.88153,,Standard,Tasmanian Academy (Hellyer College),,FALSE,Mooreville Rd TAS 7320,,TAS,-41.06128,FALSE,FALSE,,,,,,,,,
Ulverstone Guide Hall,146.175,,Assisted Disabled,Ulverstone Guide Hall,,TRUE,34 Main St TAS 7315,,TAS,-41.1559,FALSE,TRUE,,,,,,,,,
Grange Resources Lodge,145.219,,Assisted Disabled,Grange Resources Lodge,,FALSE,Corinna Rd TAS 7321,,TAS,-41.5119,FALSE,FALSE,,,,,,,,,
Scamander Fire Station,148.261,,Assisted Disabled,Scamander Fire Station,,FALSE,Campbell St TAS 7215,,TAS,-41.4541,FALSE,FALSE,,,,,,,,,
St Barnabas' Church Hall,147.515,,Standard,St Barnabas' Church Hall,,FALSE,55 King St (Tasman Highway) TAS 7260,,TAS,-41.1625,FALSE,FALSE,,,,,,,,,
Wyndham Vacation Resort,147.511,,Assisted Disabled,Wyndham Vacation Resort,,FALSE,78 Surf Rd TAS 7170,,TAS,-42.8526,FALSE,FALSE,,,,,,,,,
Wellspring Anglican Church Hall,147.327,,Assisted Disabled,Wellspring Anglican Church Hall,,FALSE,Grosvenor St TAS 7005,,TAS,-42.8992,FALSE,FALSE,,,,,,,,,
Harold Gregg Centre,147.355,,Assisted Disabled,Harold Gregg Centre,,FALSE,1 Southerwood Dr TAS 7005,,TAS,-42.9138,TRUE,FALSE,,,,,,,,,
Waimea Heights Primary School,147.3367403,,Standard,Waimea Heights Primary School,,FALSE,12 Balfour Ct TAS 7005,,TAS,-42.9090106,FALSE,FALSE,,,,,,,,,
Sassafras Primary School,146.503,,Assisted Disabled,Sassafras Primary School,,FALSE,50 School Rd TAS 7307,,TAS,-41.2871,FALSE,FALSE,,,,,,,,,
Gladstone Hall,148.008,,Assisted Disabled,Gladstone Hall,,FALSE,1 Carr St TAS 7264,,TAS,-40.9601,FALSE,FALSE,,,,,,,,,
Cressy Community Hall,147.08,,Assisted Disabled,Cressy Community Hall,,FALSE,Main St (Cressy Road) TAS 7302,,TAS,-41.6892,FALSE,FALSE,,,,,,,,,
Currie Town Hall,143.855,,Assisted Disabled,Currie Town Hall,,FALSE,Cnr Meech & George Sts TAS 7256,,TAS,-39.9298,FALSE,FALSE,,,,,,,,,
Cradoc Park,147.034,,Assisted Disabled,Cradoc Park,,FALSE,8427 Channel Hwy TAS 7109,,TAS,-43.1064,FALSE,FALSE,,,,,,,,,
Collinsvale Primary School,147.198,,Assisted Disabled,Collinsvale Primary School,,FALSE,508 Collinsvale Rd TAS 7012,,TAS,-42.8367,FALSE,FALSE,,,,,,,,,
Cooee Primary School,145.86801,,Assisted Disabled,Cooee Primary School,,FALSE,Fidler St TAS 7320,,TAS,-41.04076,FALSE,FALSE,,,,,,,,,
Colebrook Fire Station,147.361,,Assisted Disabled,Colebrook Fire Station,,FALSE,Colebrook Rd TAS 7027,,TAS,-42.5313,FALSE,FALSE,,,,,,,,,
Coles Bay Community Hall,148.286,,Standard,Coles Bay Community Hall,,FALSE,Harold St TAS 7215,,TAS,-42.1249,FALSE,FALSE,,,,,,,,,
Clarendon Vale Primary School,147.445,,Assisted Disabled,Clarendon Vale Primary School,,FALSE,25 Mockridge Rd TAS 7019,,TAS,-42.8873,FALSE,FALSE,,,,,,,,,
Claude Road Fire Station,146.274857,,Assisted Disabled,Claude Road Fire Station,,FALSE,787 Claude Rd TAS 7306,,TAS,-41.43438,FALSE,FALSE,,,,,,,,,
Abbotsham Hall,146.174,,Assisted,Abbotsham Hall,,FALSE,590 Castra Rd TAS 7315,,TAS,-41.2135,FALSE,FALSE,,,,,,,,,
Mersey Rowing Club,146.367,,Assisted Disabled,Mersey Rowing Club,,FALSE,52 River Rd TAS 7310,,TAS,-41.1972,FALSE,FALSE,,,,,,,,,
St George's Church Hall,147.3320854,,Assisted Disabled,St George's Church Hall,,TRUE,28 Cromwell St TAS 7004,,TAS,-42.8915725,FALSE,FALSE,,,,,,,,,
Geeveston Community Hall,146.922,,Assisted,Geeveston Community Hall,,TRUE,7 Brady St TAS 7116,,TAS,-43.1625,FALSE,FALSE,,,,,,,,,
Glenorchy YMCA ,147.279,,Assisted Disabled,Glenorchy YMCA ,,FALSE,8a Constance Ave TAS 7010,,TAS,-42.8322,FALSE,FALSE,,,,,,,,,
Lower Barrington Public Hall,146.291,,Standard,Lower Barrington Public Hall,,FALSE,1027 Sheffield Rd TAS 7306,,TAS,-41.291,FALSE,FALSE,,,,,,,,,
St Anne's Anglican Church Hall,147.3114121,,Assisted Disabled,St Anne's Anglican Church Hall,,FALSE,27 Ashbolt Cres TAS 7009,,TAS,-42.8441626,FALSE,FALSE,,,,,,,,,
St Aidan's Church Hall,147.356,,Assisted Disabled,St Aidan's Church Hall,,FALSE,Lincoln St TAS 7015,,TAS,-42.8467,FALSE,FALSE,,,,,,,,,
Longford War Memorial Hall,147.123,,Assisted Disabled,Longford War Memorial Hall,,FALSE,Wellington St TAS 7301,,TAS,-41.5945,FALSE,FALSE,,,,,,,,,
Lilydale Memorial Hall,147.216,,Standard,Lilydale Memorial Hall,,FALSE,1949 Main Rd (Lilydale Road) TAS 7268,,TAS,-41.2523,FALSE,FALSE,,,,,,,,,
Lindisfarne Primary School,147.363,,Assisted Disabled,Lindisfarne Primary School,,TRUE,Loatta Rd TAS 7018,,TAS,-42.8519,FALSE,FALSE,,,,,,,,,
Levendale Primary School,147.568,,Assisted Disabled,Levendale Primary School,,FALSE,1315 Woodsdale Rd TAS 7120,,TAS,-42.5443,FALSE,FALSE,,,,,,,,,
Ranelagh Memorial Hall,147.039,,Assisted Disabled,Ranelagh Memorial Hall,,FALSE,Marguerite St TAS 7109,,TAS,-43.0086,FALSE,FALSE,,,,,,,,,
Railton Primary School,146.414,,Assisted Disabled,Railton Primary School,,FALSE,94 Foster St TAS 7305,,TAS,-41.3526,FALSE,FALSE,,,,,,,,,
Fingal Activity Centre (former Council Chambers),147.971,,Assisted Disabled,Fingal Activity Centre (former Council Chambers),,FALSE,29 Talbot St (cnr of Esk Hwy and Mathinna Rd) TAS 7214,,TAS,-41.6377,FALSE,FALSE,,,,,,,,,
Fern Tree Community Centre,147.262,,Assisted Disabled,Fern Tree Community Centre,,FALSE,Stephenson Pl TAS 7054,,TAS,-42.9223,FALSE,FALSE,,,,,,,,,
Exeter High School Gymnasium,146.957,,Assisted Disabled,Exeter High School Gymnasium,,FALSE,28 Glen Ard Mohr Rd TAS 7275,,TAS,-41.2996,FALSE,FALSE,,,,,,,,,
Epping Forest Public Hall,147.335,,Assisted Disabled,Epping Forest Public Hall,,FALSE,13515 Midland Hwy TAS 7211,,TAS,-41.7446,FALSE,FALSE,,,,,,,,,
Carmel Hall,147.0771417,,Assisted Disabled,Carmel Hall,,FALSE,25 Mary St TAS 7112,,TAS,-43.1625204,FALSE,FALSE,,,,,,,,,
Ellendale Hall,146.716,,Standard,Ellendale Hall,,FALSE,939 Ellendale Rd TAS 7140,,TAS,-42.6182,FALSE,FALSE,,,,,,,,,
East Launceston Bowling Club,147.14588,,Assisted Disabled,East Launceston Bowling Club,,FALSE,off High St TAS 7250,,TAS,-41.43616,FALSE,FALSE,,,,,,,,,
Glenorchy Civic Centre,147.277,,Assisted Disabled,Glenorchy Civic Centre,,FALSE,Cooper St TAS 7010,,TAS,-42.8339,FALSE,FALSE,,,,,,,,,
Forest Primary School,145.248,,Assisted Disabled,Forest Primary School,,FALSE,422 Mengha Rd TAS 7330,,TAS,-40.8486,FALSE,FALSE,,,,,,,,,
Forcett Public Hall,147.631,,Assisted Disabled,Forcett Public Hall,,FALSE,699 Arthur Hwy TAS 7173,,TAS,-42.8057,FALSE,FALSE,,,,,,,,,
Burnie Child and Family Centre,145.89229,,Assisted Disabled,Burnie Child and Family Centre,,FALSE,36 Thorne St TAS 7320,,TAS,-41.07264,FALSE,FALSE,,,,,,,,,
Strahan Fire Station,145.329,,Assisted Disabled,Strahan Fire Station,,FALSE,18 Reid St TAS 7468,,TAS,-42.1497,FALSE,FALSE,,,,,,,,,
Stowport Public Hall,145.929,,Assisted Disabled,Stowport Public Hall,,FALSE,580 Stowport Rd TAS 7321,,TAS,-41.1124,FALSE,FALSE,,,,,,,,,
Stanley Primary School,145.291,,Assisted Disabled,Stanley Primary School,,FALSE,Wilson St TAS 7331,,TAS,-40.7603,FALSE,FALSE,,,,,,,,,
St Marys Community Hall,148.186,,Assisted Disabled,St Marys Community Hall,,FALSE,Main St (Esk Highway) TAS 7215,,TAS,-41.5791,FALSE,FALSE,,,,,,,,,
Swansea Town Hall,148.077,,Assisted Disabled,Swansea Town Hall,,FALSE,12 Franklin St (Tasman Highway) TAS 7190,,TAS,-42.1245,FALSE,FALSE,,,,,,,,,
East Launceston Primary School,147.15253,,Assisted Disabled,East Launceston Primary School,,FALSE,Abbott St TAS 7250,,TAS,-41.44176,FALSE,FALSE,,,,,,,,,
Surges Bay Hall,146.998,,Assisted Disabled,Surges Bay Hall,,FALSE,Esperance Coast Rd TAS 7109,,TAS,-43.2196,FALSE,FALSE,,,,,,,,,